,Name,Latitude,Longitude,Address
0,H-E-B,29.807367,-95.408757,"2300 N Shepherd Dr, Houston, TX 77008, United States"
1,H-E-B,29.7479285,-95.48510669999999,"5895 San Felipe St, Houston, TX 77057, United States"
2,H-E-B,29.73772,-95.40263399999999,"1701 W Alabama St, Houston, TX 77098, United States"
3,H-E-B,29.7690182,-95.3965753,"3663 Washington Ave Suite 100, Houston, TX 77007, United States"
4,H-E-B,29.7269184,-95.427167,"5225 Buffalo Speedway, Houston, TX 77005, United States"
5,H-E-B,29.6910702,-95.55972179999999,"10100 Beechnut St, Houston, TX 77072, United States"
6,H-E-B,29.787678,-95.53242,"9710 Katy Fwy, Houston, TX 77055, United States"
7,H-E-B,29.7142061,-95.37689519999999,"6055 South Fwy, Houston, TX 77004, United States"
8,H-E-B,29.698457,-95.29491,"3111 Woodridge Dr SUITE 500, Houston, TX 77087, United States"
9,H-E-B,29.73513999999999,-95.587268,"11815 Westheimer Rd, Houston, TX 77077, United States"
10,H-E-B,29.688878,-95.4642681,"4955 Beechnut St, Houston, TX 77096, United States"
11,H-E-B,29.911,-95.586126,"9503 Jones Rd, Houston, TX 77065, United States"
12,H-E-B,29.821431,-95.547292,"10251 Kempwood Dr, Houston, TX 77043, United States"
13,H-E-B,29.9229453,-95.1969154,"12680 W Lake Houston Pkwy, Houston, TX 77044, United States"
14,H-E-B,29.601744,-95.250102,"9828 Blackhawk Blvd, Houston, TX 77075, United States"
15,H-E-B,29.847396,-95.64761299999999,"4955 Hwy 6 N, Houston, TX 77084, United States"
16,H-E-B,29.789038,-95.71676099999999,"1550 Fry Rd, Houston, TX 77084, United States"
17,H-E-B,29.70762,-95.4697423,"5106 Bissonnet St, Bellaire, TX 77401, United States"
18,H-E-B,29.705805,-95.641621,"14498 Bellaire Blvd, Houston, TX 77083, United States"
19,H-E-B,29.995375,-95.57620399999999,"10919 Louetta Rd, Houston, TX 77070, United States"
20,H-E-B,29.6062512,-95.12709629999999,"3501 Clear Lake City Blvd, Houston, TX 77059, United States"
21,H-E-B Pharmacy,29.7381124,-95.4027253,"1701 W Alabama St, Houston, TX 77098, United States"
22,H-E-B,29.6486402,-95.1443951,"6210 Fairmont Pkwy, Pasadena, TX 77505, United States"
24,H-E-B,30.022378,-95.527402,"7310 Louetta Rd, Spring, TX 77379, United States"
25,H-E-B Pharmacy - MacGregor Market,29.7141956,-95.3771153,"6055 South Fwy, Houston, TX 77004, United States"
26,H-E-B,29.5581249,-95.2649134,"2710 Pearland Pkwy, Pearland, TX 77581, United States"
27,H-E-B,30.000398,-95.16447099999999,"7405 Farm to Market 1960 Rd E, Humble, TX 77346, United States"
28,H-E-B,30.003105,-95.63856,"14100 Spring Cypress Rd, Cypress, TX 77429, United States"
29,H-E-B Curbside Pickup & Grocery Delivery - MacGregor Market,29.71391229999999,-95.3761358,"6055 South Fwy, Houston, TX 77004, United States"
30,H-E-B Pharmacy,29.8075371,-95.409138,"2300 N Shepherd Dr, Houston, TX 77008, United States"
31,H-E-B,29.5527139,-95.148977,"18611 Eastfield Dr, Webster, TX 77598, United States"
32,H-E-B,30.0531031,-95.1835447,"4517 Kingwood Dr, Kingwood, TX 77345, United States"
33,H-E-B Pharmacy,29.7689996,-95.39652170000001,"3663 Washington Ave Suite 100, Houston, TX 77007, United States"
34,H-E-B,30.068643,-95.44988699999999,"2121 Farm to Market 2920, Spring, TX 77388, United States"
35,H-E-B Pharmacy,29.691029,-95.560087,"10100 Beechnut St, Houston, TX 77072, United States"
36,H-E-B Pharmacy,29.787708,-95.532494,"9710 Katy Fwy, Houston, TX 77055, United States"
37,H-E-B,29.6963584,-95.8141256,"9211 Farm to Market Rd 723, Richmond, TX 77406, United States"
38,H-E-B Pharmacy,29.7476262,-95.4856647,"5895 San Felipe St, Houston, TX 77057, United States"
39,H-E-B,30.127641,-95.44570999999999,"130 Sawdust Rd, Spring, TX 77380, United States"
40,H-E-B Deli,29.8076405,-95.40863019999999,"2300 N Shepherd Dr, Houston, TX 77008, United States"
42,H-E-B,29.3977746,-98.5150105,"1601 Nogalitos St, San Antonio, TX 78204, United States"
43,H-E-B,29.481972,-98.594532,"5601 Bandera Rd, San Antonio, TX 78238, United States"
44,H-E-B,29.4699801,-98.4962973,"300 W Olmos Dr, San Antonio, TX 78212, United States"
45,H-E-B,29.465604,-98.525381,"2118 Fredericksburg Rd, San Antonio, TX 78201, United States"
46,H-E-B,29.503618,-98.50032399999999,"6839 San Pedro Ave, San Antonio, TX 78216, United States"
47,H-E-B,29.4190775,-98.4964768,"516 S Flores St, San Antonio, TX 78204, United States"
48,H-E-B,29.492963,-98.43112699999999,"1520 Austin Hwy, San Antonio, TX 78218, United States"
49,H-E-B plus!,29.3605234,-98.533034,"6818 S Zarzamora St, San Antonio, TX 78224, United States"
50,H-E-B,29.357962,-98.502373,"735 SW Military Dr, San Antonio, TX 78221, United States"
51,H-E-B,29.531413,-98.55988099999999,"9900 Wurzbach Rd, San Antonio, TX 78230, United States"
52,H-E-B,29.546987,-98.510848,"11551 West Ave, San Antonio, TX 78213, United States"
53,H-E-B,29.498233,-98.468415,"999 E Basse Rd Ste 150, San Antonio, TX 78209, United States"
54,H-E-B plus!,29.3799324,-98.4578986,"4100 New Braunfels Ave, San Antonio, TX 78223, United States"
55,H-E-B,29.414826,-98.406568,"1015 S WW White Rd, San Antonio, TX 78220, United States"
56,H-E-B,29.3536306,-98.4334246,"3323 SE Military Dr, San Antonio, TX 78223, United States"
57,H-E-B,29.5266664,-98.6036323,"5910 Babcock Rd, San Antonio, TX 78240, United States"
58,H-E-B plus!,29.4338761,-98.70379779999999,"10718 Potranco Rd, San Antonio, TX 78251, United States"
59,H-E-B,29.56206,-98.58810199999999,"12777 I-10, San Antonio, TX 78230, United States"
60,H-E-B,29.3798356,-98.6367113,"368 Valley Hi Dr, San Antonio, TX 78227, United States"
61,H-E-B,29.4854136,-98.66413229999999,"9255 Grissom Rd, San Antonio, TX 78251, United States"
62,H-E-B,29.5697082,-98.38676869999999,"14087 O'Connor Rd, San Antonio, TX 78247, United States"
63,H-E-B,29.509132,-98.369807,"6030 Montgomery Dr, San Antonio, TX 78239, United States"
64,H-E-B plus!,29.6410026,-98.4572525,"20935 US-281, San Antonio, TX 78258, United States"
65,H-E-B plus!,29.6063066,-98.5107136,"1150 TX-1604 Loop, San Antonio, TX 78248, United States"
66,H-E-B plus!,29.420136,-98.6526052,"8219 Marbach Rd, San Antonio, TX 78227, United States"
67,H-E-B,29.552819,-98.53424299999999,"8503 NW Military Hwy, San Antonio, TX 78231, United States"
68,H-E-B,29.428339,-98.524062,"108 N Rosillo St, San Antonio, TX 78207, United States"
69,H-E-B,29.514915,-98.524566,"6000 West Ave, San Antonio, TX 78213, United States"
70,H-E-B,29.424692,-98.46275899999999,"415 N New Braunfels Ave, San Antonio, TX 78202, United States"
71,H-E-B,29.418084,-98.554188,"721 Castroville Rd, San Antonio, TX 78237, United States"
72,H-E-B,29.66272009999999,-98.49992859999999,"23635 Wilderness Oak, San Antonio, TX 78258, United States"
73,H-E-B,29.446077,-98.54248299999999,"2130 Culebra Rd, San Antonio, TX 78228, United States"
74,H-E-B,29.548983,-98.40718600000001,"12018 Perrin Beitel, San Antonio, TX 78217, United States"
75,H-E-B,29.576843,-98.43915899999999,"2929 Thousand Oaks Dr, San Antonio, TX 78247, United States"
76,H-E-B plus!,29.5546005,-98.66298619999999,"9238 N Loop 1604 W, San Antonio, TX 78249, United States"
77,H-E-B,29.577923,-98.476671,"15000 San Pedro Ave, San Antonio, TX 78232, United States"
78,H-E-B,29.66474,-98.634067,"24165 I-10 Suite 300, San Antonio, TX 78257, United States"
79,H-E-B,29.6068499,-98.4668859,"18140 San Pedro Ave, San Antonio, TX 78232, United States"
80,H-E-B,29.491104,-98.702969,"10660 FM471, San Antonio, TX 78251, United States"
81,H-E-B,29.520022,-98.644013,"7951 Guilbeau Rd, San Antonio, TX 78250, United States"
82,H-E-B,29.4863364,-98.7305797,"12125 Alamo Ranch Pkwy, San Antonio, TX 78253, United States"
83,H-E-B,29.507648,-98.45835799999999,"1955 Nacogdoches Rd, San Antonio, TX 78209, United States"
84,H-E-B,29.5951577,-98.41749440000001,"17238 Bulverde Rd, San Antonio, TX 78247, United States"
85,H-E-B,29.479345,-98.359078,"6580 Farm-To-Market Rd 78, San Antonio, TX 78244, United States"
87,H-E-B Curbside Pickup & Grocery Delivery,29.4851892,-98.6643696,"Grissom Road &, Tezel Rd, San Antonio, TX 78251, United States"
89,H-E-B,29.4203397,-98.6520154,"TX-16, San Antonio, TX 78227, United States"
91,H-E-B Pharmacy,29.4824727,-98.59477840000001,"5601 Bandera Rd, San Antonio, TX 78238, United States"
92,H-E-B,29.545951,-98.31188399999999,"910 Kitty Hawk Rd, Universal City, TX 78148, United States"
93,H-E-B Service Center,29.5696582,-98.3862875,"San Antonio, TX 78283, United States"
95,H-E-B,29.4228113,-98.7795278,"14325 Potranco Rd, San Antonio, TX 78253, United States"
99,H-E-B Pharmacy,29.415403,-98.406553,"1015 S WW White Rd, San Antonio, TX 78220, United States"
100,H-E-B Pharmacy,29.507629,-98.45830199999999,"1955 Nacogdoches Rd, San Antonio, TX 78209, United States"
101,H-E-B Pharmacy,29.503638,-98.500315,"6839 San Pedro Ave, San Antonio, TX 78216, United States"
102,Central Market - H-E-B Division Office,32.8616056,-96.8494568,"3890 W Northwest Hwy #300, Dallas, TX 75220, United States"
103,H-E-B,33.0553542,-96.79659649999999,"6001 Preston Rd Suite 100, Plano, TX 75093, United States"
106,H-E-B,32.411814,-96.83979199999999,"800 N Hwy 77, Waxahachie, TX 75165, United States"
107,H-E-B Pharmacy,33.0549446,-96.7971426,"6001 Preston Rd Suite 100, Plano, TX 75093, United States"
108,H-E-B,33.1552069,-96.84618429999999,"4800 Main St, Frisco, TX 75033, United States"
112,H-E-B McKinney,33.1761683,-96.7282316,"8700 Eldorado Pkwy, McKinney, TX 75070, United States"
113,H-E-B plus!,32.5206069,-97.35186759999999,"165 NW John Jones Dr, Burleson, TX 76028, United States"
115,H-E-B,30.3006372,-97.71995679999999,"1000 E 41st St, Austin, TX 78751, United States"
116,H-E-B,30.1691031,-97.78683869999999,"8801 S Congress Ave, Austin, TX 78745, United States"
117,H-E-B,30.2594094,-97.7119031,"2701 E 7th St, Austin, TX 78702, United States"
118,H-E-B,30.3012842,-97.6985984,"1801 E 51st St, Austin, TX 78723, United States"
119,H-E-B,30.2396018,-97.75235239999999,"2301 S Congress Ave, Austin, TX 78704, United States"
120,H-E-B,30.216272,-97.83099899999999,"6900 Brodie Ln, Austin, TX 78745, United States"
121,H-E-B,30.364656,-97.697943,"9414 N Lamar Blvd, Austin, TX 78753, United States"
122,H-E-B plus!,30.236584,-97.72215,"2508 E Riverside Dr, Austin, TX 78741, United States"
123,H-E-B,30.417464,-97.702855,"12407 N Mopac Expy, Austin, TX 78758, United States"
124,H-E-B,30.188724,-97.76871799999999,"6607 S I-35 Frontage Rd, Austin, TX 78744, United States"
125,H-E-B,30.434252,-97.77264199999999,"12860 Research Blvd, Austin, TX 78750, United States"
126,H-E-B,30.1753636,-97.82498539999999,"2110 W Slaughter Ln, Austin, TX 78748, United States"
127,H-E-B,30.3518657,-97.7548765,"7015 Village Center Dr, Austin, TX 78731, United States"
128,H-E-B,30.39853,-97.74835100000001,"10710 Research Blvd Suite 200, Austin, TX 78759, United States"
129,H-E-B,30.202617,-97.87663099999999,"5800 W Slaughter Ln, Austin, TX 78749, United States"
130,H-E-B,30.312068,-97.664756,"7112 Ed Bluestein Blvd Ste 125, Austin, TX 78723, United States"
131,H-E-B plus!,30.4536311,-97.8252,"11521 N FM 620 Building A, Austin, TX 78726, United States"
132,H-E-B,30.334422,-97.741115,"5808 Burnet Rd, Austin, TX 78756, United States"
133,H-E-B,30.405372,-97.671763,"500 W Canyon Ridge Dr, Austin, TX 78753, United States"
134,H-E-B,30.441487,-97.742533,"6001 W Parmer Ln, Austin, TX 78727, United States"
135,H-E-B,30.2279632,-97.88781689999999,"7901 US-290, Austin, TX 78736, United States"
136,H-E-B plus!,30.4778861,-97.80348959999999,"14028 US-183 Hwy, Austin, TX 78717, United States"
137,H-E-B,30.404244,-97.851614,"7301 N FM 620, Austin, TX 78726, United States"
138,H-E-B,30.2837909,-97.7758207,"2652 Lake Austin Blvd, Austin, TX 78703, United States"
139,H-E-B,30.2915379,-97.8249505,"701 S Capital of Texas Hwy Bldg C, West Lake Hills, TX 78746, United States"
140,H-E-B Curbside Pickup & Grocery Delivery,30.4056149,-97.6712838,"500 W Canyon Ridge Dr, Austin, TX 78753, United States"
141,H-E-B Curbside Pickup & Grocery Delivery,30.4776266,-97.8035128,"14028 US-183 Hwy, Austin, TX 78717, United States"
142,H-E-B Pharmacy,30.3001317,-97.7195366,"1000 E 41st St, Austin, TX 78751, United States"
143,H-E-B,30.304655,-97.932065,"12400 State Hwy 71, Bee Cave, TX 78738, United States"
144,H-E-B,30.442686,-97.664133,"1434 Wells Branch Pkwy, Pflugerville, TX 78660, United States"
145,H-E-B Pharmacy,30.23925879999999,-97.7516014,"2301 S Congress Ave, Austin, TX 78704, United States"
146,H-E-B Pharmacy,30.2594135,-97.7117483,"2701 E 7th St, Austin, TX 78702, United States"
147,H-E-B,30.52227599999999,-97.82834899999999,"170 E Whitestone Blvd, Cedar Park, TX 78613, United States"
148,H-E-B Curbside Shop,30.2366501,-97.7225813,"2508 E Riverside Dr, Austin, TX 78741, United States"
149,H-E-B Pharmacy,30.1690206,-97.7869034,"8801 S Congress Ave, Austin, TX 78745, United States"
150,H-E-B Pharmacy,30.3124342,-97.6650358,"7112 Ed Bluestein Blvd Ste 125, Austin, TX 78723, United States"
151,H-E-B Pharmacy,30.478036,-97.803274,"14028 US-183 Hwy, Austin, TX 78717, United States"
152,H-E-B Pharmacy,30.3343877,-97.74116869999999,"5808 Burnet Rd, Austin, TX 78756, United States"
153,H-E-B Convenience Store,30.2366383,-97.7221441,"2512 E Riverside Dr, Austin, TX 78741, United States"
154,H-E-B Pharmacy,30.2277345,-97.88767299999999,"7901 US-290, Austin, TX 78736, United States"
155,H-E-B Pharmacy,30.43421,-97.772645,"12860 Research Blvd, Austin, TX 78750, United States"
156,H-E-B Fuel,30.454001,-97.82673419999999,"11521 N FM 620 Building A, Austin, TX 78726, United States"
159,H-E-B,32.758307,-97.697234,"100 Hudson Oaks Dr, Hudson Oaks, TX 76087, United States"
161,H-E-B Pharmacy,32.520569,-97.35204,"165 NW John Jones Dr, Burleson, TX 76028, United States"
162,H-E-B,32.5666166,-97.11453929999999,"1660 E Broad St, Mansfield, TX 76063, United States"
164,H-E-B,32.45765,-97.729731,"3804 East US Hwy 377, Granbury, TX 76049, United States"
165,H-E-B,32.34744000000001,-97.39413499999999,"600 W Henderson St, Cleburne, TX 76033, United States"
168,H-E-B grocery store,32.9152188,-97.30645919999999,"3529 Heritage Trace Pkwy #101, Fort Worth, TX 76244, United States"
194,H-E-B,31.891449,-102.351012,"3801 E 42nd St, Odessa, TX 79762, United States"
196,H-E-B,31.9959842,-102.1554494,"5407 Andrews Hwy, Midland, TX 79706, United States"
200,H-E-B,32.0182147,-102.1257597,"3325 W Wadley Ave, Midland, TX 79707, United States"
202,H-E-B,31.860844,-102.410622,"2501 W University Blvd, Odessa, TX 79764, United States"
208,H-E-B,33.489004,-101.9060789,"4405 114th St, Lubbock, TX 79424, United States"
210,H-E-B,31.581165,-97.17182299999999,"3801 N 19th St, Waco, TX 76708, United States"
213,H-E-B,31.102204,-97.353381,"1314 W Adams Ave, Temple, TX 76504, United States"
219,H-E-B,31.0799748,-97.75894939999999,"1101 W Stan Schlueter Loop, Killeen, TX 76549, United States"
238,H-E-B,27.7060657,-97.3723515,"5425 S Staples St, Corpus Christi, TX 78411, United States"
239,H-E-B,27.729933,-97.37077800000002,"4320 S Alameda St, Corpus Christi, TX 78412, United States"
240,H-E-B,27.75681,-97.391785,"3133 S Alameda St, Corpus Christi, TX 78404, United States"
241,H-E-B plus!,27.6653082,-97.2809946,"1145 Waldron Rd, Corpus Christi, TX 78418, United States"
242,H-E-B,27.739587,-97.405265,"4444 Kostoryz Rd, Corpus Christi, TX 78415, United States"
243,H-E-B,27.766964,-97.42161999999999,"3033 S Port Ave, Corpus Christi, TX 78405, United States"
244,H-E-B,27.711957,-97.406054,"5801 Weber Rd, Corpus Christi, TX 78413, United States"
245,H-E-B,27.846223,-97.584617,"11100 Leopard St, Corpus Christi, TX 78410, United States"
246,H-E-B plus!,27.6850835,-97.3889911,"5313 Saratoga Blvd, Corpus Christi, TX 78413, United States"
247,H-E-B,27.798146,-97.42783999999999,"3500 Leopard St, Corpus Christi, TX 78408, United States"
249,H-E-B Curbside Pickup & Grocery Delivery,27.6649545,-97.28133439999999,"1145 Waldron Rd, Corpus Christi, TX 78418, United States"
250,H-E-B Pharmacy,27.68504,-97.38897899999999,"5313 Saratoga Blvd, Corpus Christi, TX 78413, United States"
251,H-E-B Pharmacy,27.7060587,-97.3720631,"5425 S Staples St, Corpus Christi, TX 78411, United States"
252,H-E-B Pharmacy,27.730071,-97.370781,"4320 S Alameda St, Corpus Christi, TX 78412, United States"
253,H-E-B Pharmacy,27.766966,-97.42161,"3033 S Port Ave, Corpus Christi, TX 78405, United States"
254,H-E-B Pharmacy,27.756863,-97.39191059999999,"3133 S Alameda St, Corpus Christi, TX 78404, United States"
255,H-E-B,27.88721,-97.316746,"1600 Wildcat Dr, Portland, TX 78374, United States"
256,H-E-B Pharmacy,27.8461409,-97.5847545,"11100 Leopard St, Corpus Christi, TX 78410, United States"
257,H-E-B Pharmacy,27.7123687,-97.40597249999999,"5801 Weber Rd, Corpus Christi, TX 78413, United States"
258,H-E-B Bakery,27.7300018,-97.3710694,"4320 S Alameda St, Corpus Christi, TX 78412, United States"
259,H-E-B Pharmacy,27.7394946,-97.40591959999999,"4444 Kostoryz Rd, Corpus Christi, TX 78415, United States"
260,H-E-B Pharmacy,27.6655802,-97.28073230000001,"1145 Waldron Rd, Corpus Christi, TX 78418, United States"
261,H-E-B Bakery,27.7117506,-97.4058161,"Corpus Christi, TX 78415, United States"
264,H-E-B plus!,27.6073486,-99.47408229999999,"1911 NE Bob Bullock Loop, Laredo, TX 78045, United States"
265,H-E-B,27.542175,-99.500879,"4801 San Dario Ave, Laredo, TX 78041, United States"
266,H-E-B,27.5764836,-99.4719043,"7811 McPherson Rd, Laredo, TX 78045, United States"
267,H-E-B,27.568034,-99.49976699999999,"210 W Del Mar Blvd, Laredo, TX 78041, United States"
268,H-E-B,27.5319372,-99.47095379999999,"2310 E Saunders St, Laredo, TX 78041, United States"
269,H-E-B,27.506117,-99.483037,"1301 Guadalupe St, Laredo, TX 78040, United States"
270,H-E-B,27.4770381,-99.4757293,"2314 S Zapata Hwy, Laredo, TX 78046, United States"
272,H-E-B Pharmacy,27.542804,-99.500689,"4801 San Dario Ave, Laredo, TX 78041, United States"
273,H-E-B Pharmacy,27.6082212,-99.47367489999999,"1911 Bob Bullock Loop, Laredo, TX 78045, United States"
274,H-E-B Pharmacy,27.568043,-99.49977899999999,"210 W Del Mar Blvd, Laredo, TX 78041, United States"
275,H-E-B Pharmacy,27.576617,-99.47212449999999,"7811 McPherson Rd, Laredo, TX 78045, United States"
276,H-E-B Pharmacy,27.5063406,-99.48290349999999,"1301 Guadalupe St, Laredo, TX 78040, United States"
277,H-E-B Pharmacy,27.5317633,-99.471222,"2310 E Saunders St, Laredo, TX 78041, United States"
278,H-E-B Pharmacy,27.477061,-99.475725,"2314 S Zapata Hwy, Laredo, TX 78046, United States"
279,H-E-B Bakery,27.5423108,-99.50087479999999,"4801 San Dario Ave, Laredo, TX 78041, United States"
280,H-E-B Bakery,27.5680189,-99.5001659,"210 W Del Mar Blvd, Laredo, TX 78041, United States"
281,H-E-B Bakery,27.5317847,-99.47072779999999,"2310 E Saunders St, Laredo, TX 78041, United States"
282,H-E-B Bakery,27.5061697,-99.4834116,"Laredo, TX 78040, United States"
318,H-E-B Allen - Opening Fall 2023,33.1165989,-96.65309529999999,"575 E Exchange Pkwy, Allen, TX 75002, United States"
324,H-E-B,32.323953,-96.634007,"101 S Clay St, Ennis, TX 75119, United States"
327,H-E-B,32.090467,-96.466768,"201 S 15th St, Corsicana, TX 75110, United States"
423,H-E-B,32.433208,-99.757791,"1345 Barrow St, Abilene, TX 79605, United States"
426,H-E-B,32.234477,-101.472367,"2000 S Gregg St, Big Spring, TX 79720, United States"
431,H-E-B,32.208285,-98.22529999999999,"2150 W Washington St, Stephenville, TX 76401, United States"
432,H-E-B plus!,31.5875283,-97.10734649999999,"801 I-35, Bellmead, TX 76705, United States"
438,H-E-B,30.6814736,-97.7196051,"4500 Williams Dr, Georgetown, TX 78628, United States"
440,H-E-B plus!,25.9500762,-97.4892852,"2155 Paredes Line Rd, Brownsville, TX 78521, United States"
441,H-E-B,25.926212,-97.50967399999999,"1628 Central Blvd, Brownsville, TX 78520, United States"
442,H-E-B,25.91924,-97.48865219999999,"2250 Boca Chica Blvd, Brownsville, TX 78521, United States"
443,H-E-B,25.905163,-97.46519699999999,"2950 Southmost Rd, Brownsville, TX 78521, United States"
444,H-E-B Pharmacy,25.950058,-97.489229,"2155 Paredes Line Rd, Brownsville, TX 78521, United States"
445,H-E-B Pharmacy,25.9261954,-97.50978649999999,"1628 Central Blvd, Brownsville, TX 78520, United States"
446,H-E-B Pharmacy,25.9195532,-97.48924769999999,"2250 Boca Chica Blvd, Brownsville, TX 78521, United States"
447,H-E-B Pharmacy,25.905165,-97.465254,"2950 Southmost Rd, Brownsville, TX 78521, United States"
448,H-E-B Curbside Pickup & Grocery Delivery,25.9504962,-97.4888524,"2155 Paredes Line Rd, Brownsville, TX 78521, United States"
449,H-E-B plus!,31.090947,-97.736102,"2511 Trimmier Rd #100, Killeen, TX 76542, United States"
451,H-E-B,31.078928,-97.654405,"601 Indian Trail, Harker Heights, TX 76548, United States"
452,H-E-B Curbside Pickup & Grocery Delivery,31.0912735,-97.7358589,"2511 Trimmier Rd #100, Killeen, TX 76542, United States"
464,H-E-B Pharmacy,33.1546875,-96.84606130000002,"4800 Main St, Frisco, TX 75033, United States"
539,H-E-B,26.232592,-98.223591,"3200 N 10th St, McAllen, TX 78501, United States"
540,H-E-B,26.189749,-98.22535119999999,"200 US, W Expy 83, McAllen, TX 78501, United States"
541,H-E-B,26.2662096,-98.21839,"901 Trenton Rd, McAllen, TX 78504, United States"
542,H-E-B,26.217997,-98.25873,"3601 Pecan Blvd, McAllen, TX 78501, United States"
543,H-E-B Pharmacy,26.232424,-98.223636,"3200 N 10th St, McAllen, TX 78501, United States"
544,H-E-B Pharmacy,26.2662928,-98.21838629999999,"901 Trenton Rd, McAllen, TX 78504, United States"
545,H-E-B Pharmacy,26.1897472,-98.2247402,"200 US, W Expy 83, McAllen, TX 78501, United States"
546,H-E-B Pharmacy,26.2180676,-98.2588277,"3601 Pecan Blvd, McAllen, TX 78501, United States"
547,H-E-B Bakery,26.2328062,-98.2238703,"3200 N 10th St, McAllen, TX 78501, United States"
548,H-E-B plus!,26.198092,-98.2858952,"2409 E Expressway 83, Mission, TX 78572, United States"
549,H-E-B Bakery,26.1899242,-98.22538229999999,"McAllen, TX 78501, United States"
550,H-E-B plus!,31.5230195,-97.13728259999999,"1821 S Valley Mills Dr, Waco, TX 76711, United States"
551,H-E-B,31.533912,-97.188173,"1301 Wooded Acres Dr, Waco, TX 76710, United States"
555,H-E-B Deli,31.4955802,-97.2217766,"9100 Woodway Dr, Waco, TX 76712, United States"
556,H-E-B plus!,31.4951475,-97.2218233,"9100 Woodway Dr, Woodway, TX 76712, United States"
557,H-E-B Pharmacy,31.5229262,-97.1366669,"1821 S Valley Mills Dr, Waco, TX 76711, United States"
558,H-E-B Pharmacy,31.5341054,-97.1880037,"1301 Wooded Acres Dr, Waco, TX 76710, United States"
559,H-E-B Pharmacy,31.5808821,-97.17187,"3801 N 19th St, Waco, TX 76708, United States"
560,H-E-B Curbside Pickup & Grocery Delivery,31.5222886,-97.1369636,"1821 S Valley Mills Dr, Waco, TX 76711, United States"
588,H-E-B,30.559052,-96.26089499999999,"949 William D. Fitch Pkwy, College Station, TX 77845, United States"
590,H-E-B,30.61264,-96.318849,"1900 Texas Ave S, College Station, TX 77840, United States"
594,H-E-B,30.5830915,-96.3217353,"11675 Wellborn Rd, College Station, TX 77845, United States"
658,H-E-B plus!,29.559316,-95.39043600000001,"2805 Business Center Dr, Pearland, TX 77584, United States"
659,H-E-B plus!,30.5193642,-97.65853729999999,"1700 E Palm Valley Blvd, Round Rock, TX 78664, United States"
660,H-E-B,30.561596,-97.688244,"250 University Blvd, Round Rock, TX 78665, United States"
661,H-E-B,30.480823,-97.65933799999999,"603 Louis Henna Blvd BLDG A, Round Rock, TX 78664, United States"
662,H-E-B,30.499514,-97.615155,"3750 Gattis School Rd, Round Rock, TX 78664, United States"
663,H-E-B,30.5008132,-97.72277290000001,"16900 Ranch Rd 620, Round Rock, TX 78681, United States"
664,H-E-B Pharmacy,30.519484,-97.65867999999999,"1700 E Palm Valley Blvd, Round Rock, TX 78664, United States"
665,H-E-B Pharmacy,30.5614243,-97.6875694,"250 University Blvd, Round Rock, TX 78665, United States"
666,H-E-B Pharmacy,30.4809455,-97.6592192,"603 Louis Henna Blvd BLDG A, Round Rock, TX 78664, United States"
670,H-E-B,30.643764,-96.35069,"725 E Villa Maria Rd Ste 1300, Bryan, TX 77802, United States"
671,H-E-B Bakery,30.6130941,-96.31863159999999,"1900 Texas Ave S, College Station, TX 77840, United States"
672,H-E-B Pharmacy,30.559073,-96.260826,"949 William D. Fitch Pkwy, College Station, TX 77845, United States"
673,H-E-B Bakery,30.5594712,-96.2613013,"College Station, TX 77845, United States"
695,H-E-B,29.466206,-95.094371,"2955 Gulf Fwy S, League City, TX 77573, United States"
696,H-E-B,29.5052862,-95.03883719999999,"2755 E League City Pkwy, League City, TX 77573, United States"
699,H-E-B plus!,30.1064975,-94.1704141,"3025 Dowlen Rd, Beaumont, TX 77706, United States"
700,H-E-B,30.0698925,-94.1283897,"3590 College St, Beaumont, TX 77701, United States"
701,H-E-B Pharmacy,30.1066177,-94.1703708,"3025 Dowlen Rd, Beaumont, TX 77706, United States"
703,H-E-B,29.6080043,-95.6460822,"530 Hwy 6, Sugar Land, TX 77478, United States"
704,H-E-B,29.5650307,-95.6853122,"19900 Southwest Fwy, Sugar Land, TX 77479, United States"
705,H-E-B,29.578563,-95.582657,"4724 Hwy 6, Missouri City, TX 77459, United States"
713,H-E-B,32.159199,-94.372777,"419 NW Loop #436, Carthage, TX 75633, United States"
729,H-E-B,31.337609,-94.719404,"111 N Timberland Dr, Lufkin, TX 75901, United States"
730,H-E-B,31.325689,-95.436161,"1035 E Loop 304, Crockett, TX 75835, United States"
757,H-E-B,29.5706413,-97.94367319999999,"1340 E Court St, Seguin, TX 78155, United States"
759,H-E-B,29.9272409,-95.7250478,"9722 Fry Rd, Cypress, TX 77433, United States"
761,H-E-B plus!,30.11017559999999,-97.33434820000001,"104 Hasler Blvd, Bastrop, TX 78602, United States"
763,H-E-B,30.225988,-95.519313,"3601 Farm to Market Rd 1488, The Woodlands, TX 77384, United States"
766,H-E-B,29.688602,-98.125497,"651 S Walnut Ave, New Braunfels, TX 78130, United States"
767,H-E-B plus!,29.7318383,-98.0773772,"2965 I-35, New Braunfels, TX 78130, United States"
768,H-E-B,29.7130958,-98.1604153,"1655 TX-46, New Braunfels, TX 78130, United States"
769,H-E-B Curbside Pickup & Grocery Delivery,29.7312998,-98.0770453,"2965 N Interstate 35 Frontage Rd, New Braunfels, TX 78130, United States"
770,H-E-B Curbside Pickup & Grocery Delivery,29.6893338,-98.1263436,"651 S Walnut Ave, New Braunfels, TX 78130, United States"
771,H-E-B,26.289379,-98.19591199999999,"2700 W Freddy Gonzalez Dr, Edinburg, TX 78539, United States"
772,H-E-B,26.289855,-98.163198,"1212 S Closner Blvd, Edinburg, TX 78539, United States"
776,H-E-B,30.582316,-98.278354,"1503 Hwy 1431 West, Marble Falls, TX 78654, United States"
792,H-E-B,30.3256236,-95.50032519999999,"3875 W Davis St, Conroe, TX 77304, United States"
793,H-E-B,30.335646,-95.465246,"2108 N Frazier St, Conroe, TX 77301, United States"
794,H-E-B,30.2078017,-95.4260439,"10200 TX-242, Conroe, TX 77385, United States"
795,H-E-B,31.4439109,-100.4787078,"3301 Sherwood Way, San Angelo, TX 76901, United States"
796,H-E-B,31.4314913,-100.5110611,"5502 Sherwood Way Service Rd, San Angelo, TX 76901, United States"
797,H-E-B,31.07192899999999,-97.370108,"3002 S 31st St, Temple, TX 76502, United States"
799,H-E-B,30.69021799999999,-96.371697,"1609 N Texas Ave, Bryan, TX 77803, United States"
801,H-E-B,26.2136399,-98.3245062,"820 S Conway Ave, Mission, TX 78572, United States"
803,H-E-B,26.228133,-98.322175,"200 E Griffin Pkwy, Mission, TX 78572, United States"
805,H-E-B Pharmacy,26.2136784,-98.32421749999999,"820 S Conway Ave, Mission, TX 78572, United States"
807,H-E-B,30.6354507,-97.6947601,"1010 W University Ave, Georgetown, TX 78628, United States"
808,H-E-B,30.6327507,-97.8245793,"19348 Ronald Reagan Blvd, Georgetown, TX 78628, United States"
809,H-E-B Pharmacy,30.6820265,-97.7198349,"4500 FM 2338, Georgetown, TX 78628, United States"
810,H-E-B,29.7954113,-94.9774188,"6430 Garth Rd, Baytown, TX 77521, United States"
812,H-E-B plus!,26.1790866,-98.18934279999999,"1300 S Cage Blvd, Pharr, TX 78577, United States"
840,H-E-B,30.5322086,-97.78495649999999,"2800 E Whitestone Blvd, Cedar Park, TX 78613, United States"
844,H-E-B,29.536714,-95.536513,"8900 Hwy 6, Missouri City, TX 77459, United States"
845,H-E-B plus!,30.5842611,-97.85779889999999,"651 N US Hwy 183, Leander, TX 78641, United States"
846,H-E-B,26.183753,-97.713583,"613 S Expressway 83, Harlingen, TX 78550, United States"
847,H-E-B,26.181598,-97.68162099999999,"1213 S Commerce St, Harlingen, TX 78550, United States"
848,H-E-B,26.203635,-97.677493,"1103 Morgan Blvd, Harlingen, TX 78550, United States"
849,H-E-B Pharmacy,26.1832192,-97.7133767,"613 S Expressway 83, Harlingen, TX 78550, United States"
850,H-E-B Pharmacy,26.181632,-97.68159000000001,"1213 S Commerce St, Harlingen, TX 78550, United States"
880,H-E-B,29.88736,-97.92645,"641 E Hopkins St, San Marcos, TX 78666, United States"
881,H-E-B,29.883348,-97.943038,"200 W Hopkins St, San Marcos, TX 78666, United States"
882,H-E-B,30.438034,-97.611916,"201 FM 685, Pflugerville, TX 78660, United States"
884,H-E-B plus!,28.851757,-96.9952316,"6106 N Navarro St, Victoria, TX 77904, United States"
885,H-E-B,28.805417,-96.988378,"1505 E Rio Grande St, Victoria, TX 77901, United States"
931,H-E-B Family Dentistry,32.8522899,-97.084774,"220 W Harwood Rd Suite 100, Euless, TX 76039, United States"
935,H-E-B/Grapevine Martial Arts,32.8725978,-97.08343719999999,"2501 N Main St #130, Euless, TX 76039, United States"
974,H-E-B plus!,30.0164868,-97.8614832,"5401 Farm to Market 1626, Kyle, TX 78640, United States"
978,H-E-B,29.3971927,-94.94959829999999,"3502 Palmer Hwy, Texas City, TX 77590, United States"
979,H-E-B,29.963337,-93.974896,"4800 B FM 365, Port Arthur, TX 77642, United States"
980,H-E-B,29.905031,-93.92369300000001,"3401 Gulfway Dr, Port Arthur, TX 77642, United States"
981,H-E-B,29.928961,-93.922528,"5000 32nd St, Groves, TX 77619, United States"
1021,H-E-B Pharmacy,33.175854,-96.7283174,"8700 Eldorado Pkwy, McKinney, TX 75070, United States"
1044,H-E-B,29.3802632,-95.1074302,"4206 Avenue T, Santa Fe, TX 77510, United States"
1047,H-E-B,29.171448,-95.418506,"1239 E Mulberry St, Angleton, TX 77515, United States"
1048,H-E-B Pharmacy,29.3971694,-94.9496211,"3502 Palmer Hwy, Texas City, TX 77590, United States"
1049,H-E-B,29.410088,-95.242463,"207 E South St, Alvin, TX 77511, United States"
1050,H-E-B,29.0417527,-95.4464869,"97 Oyster Creek Dr, Lake Jackson, TX 77566, United States"
1070,H-E-B,28.0387772,-97.04411800000001,"1409 Hwy 35 N Business, Rockport, TX 78382, United States"
1135,H-E-B,29.14239599999999,-98.15726099999999,"925 10th St, Floresville, TX 78114, United States"
1140,H-E-B Curbside Pickup & Grocery Delivery,27.6846092,-97.3880484,"5313 Saratoga Blvd, Corpus Christi, TX 78413, United States"
1141,H-E-B,29.358989,-98.138222,"14414 US-87, La Vernia, TX 78121, United States"
1151,H-E-B Pharmacy,26.2896237,-98.195492,"2700 W Freddy Gonzalez Dr, Edinburg, TX 78539, United States"
1154,H-E-B Pharmacy,26.289851,-98.16318899999999,"1212 S Closner Blvd, Edinburg, TX 78539, United States"
1157,H-E-B Bakery,26.2903153,-98.1634474,"1212 S Closner Blvd, Edinburg, TX 78539, United States"
1161,H-E-B Pharmacy,29.1422396,-98.1569389,"925 10th St, Floresville, TX 78114, United States"
1225,H-E-B,30.7224704,-95.56047439999999,"1702 11th St, Huntsville, TX 77340, United States"
1244,H-E-B,28.9825944,-95.95784289999999,"2700 7th St, Bay City, TX 77414, United States"
1349,H-E-B plus!,29.5972107,-98.2780554,"17460 I-35 N, Schertz, TX 78154, United States"
1350,H-E-B,26.163547,-98.004944,"310 N Westgate Dr, Weslaco, TX 78596, United States"
1351,H-E-B,26.1712466,-97.9892361,"1004 Texas Blvd N, Weslaco, TX 78596, United States"
1379,H-E-B Curbside Pickup & Grocery Delivery,30.4431391,-97.6646,"1434 Wells Branch Pkwy, Pflugerville, TX 78660, United States"
1381,H-E-B,28.682051,-99.82889399999999,"514 E Zavala St, Crystal City, TX 78839, United States"
1399,H-E-B Curbside Pickup & Grocery Delivery,30.2059841,-95.4246455,"10200 TX-242, Conroe, TX 77385, United States"
1412,H-E-B,29.505451,-95.190857,"701 W Parkwood Ave, Friendswood, TX 77546, United States"
1413,H-E-B,29.551375,-95.747068,"23500 Circle Oak Pkwy, Richmond, TX 77469, United States"
1416,H-E-B,29.6599846,-95.71339599999999,"10161 W Grand Pkwy S, Richmond, TX 77407, United States"
1417,H-E-B Curbside Pickup & Grocery Delivery,29.5513338,-95.7467243,"23500 Circle Oak Pkwy, Richmond, TX 77469, United States"
1499,H-E-B plus!,31.1186578,-97.86443709999999,"2990 U.S. Hwy 190, Copperas Cove, TX 76522, United States"
1513,H-E-B Fuel,33.1751004,-96.7308527,"8900 Eldorado Pkwy, McKinney, TX 75070, United States"
1518,H-E-B plus!,30.5023782,-97.583252,"5000 Gattis School Rd, Hutto, TX 78634, United States"
1519,H-E-B,29.6670658,-95.0967639,"4701 East Blvd, Deer Park, TX 77536, United States"
1543,H-E-B plus!,26.2027308,-98.1644582,"901 W Expy 83, San Juan, TX 78589, United States"
1604,H-E-B,29.5690242,-98.2306122,"850 FM1103 Suite 100, Cibolo, TX 78108, United States"
1606,H-E-B,29.36621319999999,-100.8998577,"200 Veterans Blvd, Del Rio, TX 78840, United States"
1607,H-E-B,29.3580384,-100.8972144,"500 Pecan St, Del Rio, TX 78840, United States"
1609,H-E-B,29.7192601,-95.8481184,"4950 FM 1463, Katy, TX 77494, United States"
1648,H-E-B,28.710595,-100.484776,"2135 E Main St, Eagle Pass, TX 78852, United States"
1671,H-E-B,30.264359,-94.200778,"819 N Main St, Lumberton, TX 77657, United States"
1679,H-E-B Curbside Pickup & Grocery Delivery,30.107106,-94.17062250000001,"3025 Dowlen Rd, Beaumont, TX 77706, United States"
1736,H-E-B,30.0021495,-98.1028378,"14501 Ranch Rd 12, Wimberley, TX 78676, United States"
1748,H-E-B,29.773369,-95.82253999999999,"25675 Nelson Way, Katy, TX 77494, United States"
1751,H-E-B,29.756973,-95.750428,"1621 S Mason Rd, Katy, TX 77450, United States"
1752,H-E-B Pharmacy,29.7733037,-95.8224772,"25675 Nelson Way, Katy, TX 77494, United States"
1753,H-E-B plus!,29.7131773,-95.7760406,"6711 S Fry Rd, Katy, TX 77494, United States"
1775,H-E-B,27.516167,-97.862613,"409 E Kleberg Ave, Kingsville, TX 78363, United States"
1776,H-E-B,30.0508464,-99.14316769999999,"300 Main St, Kerrville, TX 78028, United States"
1777,H-E-B,30.04129,-99.143317,"313 Sidney Baker St S, Kerrville, TX 78028, United States"
1779,H-E-B,26.143683,-97.636946,"1095 West Business 77, San Benito, TX 78586, United States"
1782,H-E-B plus!,31.080455,-97.45455899999999,"2509 N Main St, Belton, TX 76513, United States"
1832,H-E-B plus!,29.7818528,-98.73415609999999,"420 W Bandera Rd, Boerne, TX 78006, United States"
1834,H-E-B,26.190768,-98.12509899999999,"1211 E Frontage Rd, Alamo, TX 78516, United States"
1854,H-E-B,26.255654,-98.317898,"120 E Mile 3 Rd, Palmhurst, TX 78573, United States"
1863,H-E-B,30.3447643,-97.9682636,"2000 Ranch Rd 620 S, Lakeway, TX 78734, United States"
1869,H-E-B,30.115571,-93.746299,"2424 N 16th St, Orange, TX 77630, United States"
1872,H-E-B,30.346419,-97.383949,"1080 US-290, Elgin, TX 78621, United States"
1913,H-E-B,30.144502,-96.39806,"2508 S Day St, Brenham, TX 77833, United States"
1957,H-E-B,27.752611,-98.062967,"1115 E Main St, Alice, TX 78332, United States"
1964,H-E-B Pharmacy,32.411807,-96.839867,"800 N Hwy 77, Waxahachie, TX 75165, United States"
1969,H-E-B Bakery,32.4117188,-96.83995739999999,"800 N Hwy 77, Waxahachie, TX 75165, United States"
2032,H-E-B,30.0687092,-95.25151110000002,"19529 Northpark Dr, Kingwood, TX 77339, United States"
2042,H-E-B Fuel,33.0545132,-96.79550350000001,"5925 Preston Rd, Plano, TX 75093, United States"
2057,H-E-B Wellness Nutrition Services,33.0554262,-96.79673600000001,"6001 Preston Rd Ste 100, Plano, TX 75093, United States"
2060,H-E-B WASH,33.05415,-96.7955188,"6001 Preston Rd, Plano, TX 75093, United States"
2073,H-E-B,30.6026149,-97.4186361,"100 Carlos G Parker Blvd NW Bl #101, Taylor, TX 76574, United States"
2075,H-E-B,26.168653,-98.05518,"813 Miller Ave, Donna, TX 78537, United States"
2076,H-E-B,26.153929,-97.912876,"209 N Texas Ave, Mercedes, TX 78570, United States"
2082,H-E-B,30.054594,-95.575701,"20311 Champion Forest Dr, Spring, TX 77379, United States"
2089,H-E-B,28.5369743,-99.851456,"2030 N 1st St, Carrizo Springs, TX 78834, United States"
2101,H-E-B Foods,30.00431309999999,-95.26425929999999,"216 Farm to Market 1960 Bypass Rd E, Humble, TX 77338, United States"
2102,H-E-B,31.435838,-97.742841,"1207 E Main St, Gatesville, TX 76528, United States"
2163,H-E-B,30.08787,-97.821471,"15300 S I-35 Frontage Rd, Buda, TX 78610, United States"
2167,H-E-B,31.3070922,-96.8905367,"435 Live Oak St, Marlin, TX 76661, United States"
2184,H-E-B Pharmacy,29.5458148,-98.311816,"910 Kitty Hawk Rd, Universal City, TX 78148, United States"
2192,H-E-B,28.956024,-98.486733,"219 W Oaklawn Rd, Pleasanton, TX 78064, United States"
2200,H-E-B Pharmacy,29.6629354,-98.5003303,"23635 Wilderness Oak, San Antonio, TX 78258, United States"
2207,H-E-B,30.0723167,-95.50138539999999,"5251 Farm to Market 2920, Spring, TX 77388, United States"
2216,H-E-B Bakery,29.5459389,-98.311718,"910 Kitty Hawk Rd, Universal City, TX 78148, United States"
2225,H-E-B,26.237586,-98.390508,"6010 W Expy 83, Palmview, TX 78572, United States"
2236,H-E-B Fuel,29.66371669999999,-95.2085798,"1628 Spencer Hwy, South Houston, TX 77587, United States"
2245,H-E-B Pharmacy,29.6984544,-95.29484049999999,"3111 Woodridge Dr SUITE 500, Houston, TX 77087, United States"
2254,H-E-B Pharmacy,29.648718,-95.144544,"6210 Fairmont Pkwy, Pasadena, TX 77505, United States"
2255,H-E-B Pharmacy,29.601681,-95.2496384,"9828 Blackhawk Blvd, Houston, TX 77075, United States"
2256,H-E-B Pharmacy,29.6064748,-95.1262727,"3501 Clear Lake City Blvd, Houston, TX 77059, United States"
2257,H-E-B Bakery,29.6986188,-95.29521779999999,"3111 Woodridge Dr, Houston, TX 77012, United States"
2262,H-E-B Bakery,29.6021325,-95.2498354,"9828 Blackhawk Blvd Ste 120, Houston, TX 77075, United States"
2265,H-E-B Bakery,29.64896899999999,-95.1442332,"6210 Fairmont Pkwy, Pasadena, TX 77505, United States"
2269,H-E-B,29.20973,-99.783356,"201 E Main St, Uvalde, TX 78801, United States"
2270,H-E-B plus!,26.369541,-98.79945,"4031 E US Hwy 83, Rio Grande City, TX 78582, United States"
2289,H-E-B,30.758797,-98.22266599999999,"105 S Boundary St, Burnet, TX 78611, United States"
2296,H-E-B,31.685649,-96.477474,"701 E Milam St, Mexia, TX 76667, United States"
2302,H-E-B,30.658345,-98.446175,"215 Ranch to Market Rd 2900, Kingsland, TX 78639, United States"
2317,H-E-B,31.06211,-98.179592,"705 S Key Ave, Lampasas, TX 76550, United States"
2324,H-E-B plus!,29.79609379999999,-98.42999250000001,"20725 TX-46, Spring Branch, TX 78070, United States"
2325,H-E-B Pharmacy,32.208311,-98.225313,"2150 W Washington St, Stephenville, TX 76401, United States"
2330,H-E-B,29.34735,-99.135537,"609 19th St, Hondo, TX 78861, United States"
2331,H-E-B,29.881913,-97.67026,"403 S Colorado St, Lockhart, TX 78644, United States"
2340,H-E-B Curbside Pickup & Grocery Delivery,29.5595061,-95.38956809999999,"2805 Business Center Dr, Pearland, TX 77584, United States"
2345,H-E-B Pharmacy,29.558973,-95.3898155,"2805 Business Center Dr, Pearland, TX 77584, United States"
2366,H-E-B Pharmacy,29.5581826,-95.2650563,"2710 Pearland Pkwy, Pearland, TX 77581, United States"
2370,H-E-B Bakery,29.5584146,-95.2648732,"2710 Pearland Pkwy, Pearland, TX 77581, United States"
2375,H-E-B,29.9576,-95.673334,"24224 Northwest Fwy, Cypress, TX 77429, United States"
2378,H-E-B Bakery,29.5366674,-95.53664239999999,"8900 Hwy 6, Missouri City, TX 77459, United States"
2382,H-E-B Pharmacy,29.5370903,-95.53600279999999,"8900 Hwy 6, Missouri City, TX 77459, United States"
2402,H-E-B Curbside Pickup & Grocery Delivery,26.1780773,-98.18909459999999,"1300 S Cage Blvd, Pharr, TX 78577, United States"
2417,H-E-B Pharmacy,26.1787985,-98.18955659999999,"1300 S Cage Blvd, Pharr, TX 78577, United States"
2421,H-E-B Bakery,26.1789418,-98.18969059999999,"Pharr, TX 78577, United States"
2422,H-E-B Pharmacy,26.1979881,-98.28578189999999,"2409 E Expressway 83, Mission, TX 78572, United States"
2425,H-E-B Pharmacy,26.2030436,-98.16468789999999,"901 W Expy 83, San Juan, TX 78589, United States"
2427,H-E-B Fresh,26.2041989,-98.1653431,"San Juan, TX 78589, United States"
2428,H-E-B Bakery,26.2182767,-98.25885799999999,"3601 Pecan Blvd, McAllen, TX 78501, United States"
2429,H-E-B Bakery,26.2663736,-98.2184147,"901 Trenton Rd, McAllen, TX 78504, United States"
2430,H-E-B Pharmacy,26.2279558,-98.3220586,"200 E Griffin Pkwy, Mission, TX 78572, United States"
2431,H-E-B Pharmacy,26.1904219,-98.1250412,"1211 E Frontage Rd, Alamo, TX 78516, United States"
2434,H-E-B Pharmacy,26.2555011,-98.3178815,"120 E Mile 3 Rd, Palmhurst, TX 78573, United States"
2435,H-E-B Bakery,26.1981237,-98.28563930000001,"Mission, TX 78572, United States"
2436,H-E-B! Plus Pharmacy,26.2903147,-98.16344360000001,"E Ebony Ln, Edinburg, TX 78539, United States"
2437,H-E-B Pharmacy,26.1711455,-97.9893292,"1004 N Texas, Weslaco, TX 78596, United States"
2439,H-E-B Bakery,26.1908609,-98.12476769999999,"Alamo, TX 78516, United States"
2440,H-E-B Bakery,26.2136517,-98.32471679999999,"Mission, TX 78572, United States"
2441,H-E-B Bakery,26.2375214,-98.3903163,"Palmview, TX 78572, United States"
2442,H-E-B Bakery,26.2026966,-98.1647407,"901 W Expy 83, San Juan, TX 78589, United States"
2443,H-E-B Bakery,26.2558819,-98.31785040000001,"Palmhurst, TX 78573, United States"
2445,H-E-B Bakery,26.1692194,-98.0560488,"Donna, TX 78537, United States"
2506,H-E-B,29.8276151,-94.8506343,"13401 I-10, Mont Belvieu, TX 77523, United States"
2536,H-E-B,30.088653,-95.629216,"28520 Tomball Pkwy, Tomball, TX 77375, United States"
2548,H-E-B,30.14451,-95.5495974,"26500 Kuykendahl Rd, Tomball, TX 77375, United States"
2551,H-E-B,29.1455242,-95.6482071,"110 W Brazos Ave, West Columbia, TX 77486, United States"
2627,H-E-B Pharmacy,32.347796,-97.3945738,"600 W Henderson St, Cleburne, TX 76033, United States"
2634,H-E-B,28.400247,-97.746089,"100 E Houston St, Beeville, TX 78102, United States"
2717,H-E-B,29.198998,-96.269595,"306 N Mechanic St, El Campo, TX 77437, United States"
2750,H-E-B Pharmacy,29.5972031,-98.2780832,"17460 I-35 N, Schertz, TX 78154, United States"
2765,H-E-B Bakery,29.4813489,-98.5943617,"5601 Bandera Rd, San Antonio, TX 78238, United States"
2767,H-E-B,28.626952,-96.637811,"101 Calhoun Plaza, Port Lavaca, TX 77979, United States"
2768,H-E-B,30.270074,-98.87546599999999,"407 S Adams St, Fredericksburg, TX 78624, United States"
2881,H-E-B,27.788916,-97.665686,"308 E Main Ave, Robstown, TX 78380, United States"
2882,H-E-B,26.4806922,-97.78598430000001,"405 W Hidalgo Ave, Raymondville, TX 78580, United States"
2884,H-E-B,27.882549,-97.209367,"2616 TX-361, Ingleside, TX 78362, United States"
2921,H-E-B,30.189531,-98.08130899999999,"598 EHwy US 290, Dripping Springs, TX 78620, United States"
2926,H-E-B Curbside Pickup & Grocery Delivery,30.2913121,-97.8252953,"701 Capitol Of Texas Hwy Bld C, 701 S Capital of Texas Hwy Bldg C, West Lake Hills, TX 78746, United States"
2938,H-E-B Pharmacy,30.4540338,-97.8254541,"11521 N FM 620 Building A, Austin, TX 78726, United States"
2947,H-E-B Pharmacy,30.40419349999999,-97.8517825,"7301 N FM 620, Austin, TX 78726, United States"
2951,H-E-B Bakery,30.453395,-97.82541119999999,"Austin, TX 78726, United States"
2961,H-E-B Pharmacy,30.0698472,-94.1278986,"3590 College St, Beaumont, TX 77701, United States"
2963,H-E-B Bakery,30.0692907,-94.128727,"3555 Stagg Dr, Beaumont, TX 77701, United States"
2965,H-E-B Pharmacy,29.9633,-93.97498900000001,"4800 B FM 365, Port Arthur, TX 77642, United States"
2966,H-E-B Floral,30.1063527,-94.17009709999999,"3025 Dowlen Rd, Beaumont, TX 77706, United States"
2968,H-E-B Bakery,30.2643297,-94.20055390000002,"731 N Main St, Lumberton, TX 77657, United States"
2973,H-E-B Curbside Pickup & Grocery Delivery,29.9634161,-93.9746026,"4800 B, FM 365, Port Arthur, TX 77642, United States"
2975,H-E-B Fuel,30.0685964,-94.12809179999999,"3590 College St, Beaumont, TX 77701, United States"
2977,H-E-B Fuel,30.105113,-94.1701653,"2915 Dowlen Rd, Beaumont, TX 77706, United States"
3000,H-E-B Fuel,29.9640927,-93.9739444,"4800 FM 365, Port Arthur, TX 77642, United States"
3002,H-E-B Fuel,30.2638724,-94.1998107,"819 N Main St, Lumberton, TX 77657, United States"
3005,H-E-B Parking,30.1066483,-94.1694222,"3025 Dowlen Rd, Beaumont, TX 77706, United States"
3030,H-E-B Bakery,29.9632614,-93.9749289,"Port Arthur, TX 77642, United States"
3037,H-E-B,30.2231757,-95.58462469999999,"7988 Farm to Market Rd 1488, Magnolia, TX 77354, United States"
3044,H-E-B Magnolia Place,30.2218156,-95.6813854,"13663 Farm to Market Rd 1488, Magnolia, TX 77354, United States"
3045,H-E-B Bakery,30.1066089,-94.1706461,"3025 Dowlen Rd, Beaumont, TX 77706, United States"
3053,Flaming Bird By H-E-B,29.9636175,-93.9747465,"4800 B FM 365, Port Arthur, TX 77642, United States"
3064,H-E-B Pharmacy,29.998808,-95.164721,"7405 Farm to Market 1960 Rd E, Humble, TX 77346, United States"
3069,H-E-B Bakery,30.0013149,-95.16476999999999,"19325 W Lake Houston Pkwy, Humble, TX 77346, United States"
3070,H-E-B Pharmacy,30.2232389,-95.5844832,"7988 FM 1488, Magnolia, TX 77354, United States"
3130,H-E-B Pharmacy,29.922997,-95.196933,"12680 W Lake Houston Pkwy #8, Houston, TX 77044, United States"
3135,H-E-B Bakery,29.6058744,-95.1269063,"Clear Lake Marketplace, 3501 Clear Lake City Blvd, Houston, TX 77059, United States"
3144,H-E-B,29.992288,-95.74430699999999,"28550 US-290, Cypress, TX 77433, United States"
3150,H-E-B,30.163679,-95.46678899999999,"9595 Six Pines Dr, The Woodlands, TX 77380, United States"
3152,H-E-B Pharmacy,29.727044,-95.427133,"5225 A Buffalo Speedway, Houston, TX 77005, United States"
3166,H-E-B,28.8950511,-99.1147458,"225 I-35, Pearsall, TX 78061, United States"
3178,H-E-B,27.901272,-97.146059,"101 E Goodnight Ave, Aransas Pass, TX 78336, United States"
3180,H-E-B,29.321672,-96.083519,"1616 N Alabama Rd, Wharton, TX 77488, United States"
3202,H-E-B,30.335318,-95.095321,"100 Truly Plaza, Cleveland, TX 77327, United States"
3238,H-E-B,30.1790851,-95.53837,"10777 Kuykendahl Rd, The Woodlands, TX 77382, United States"
3268,H-E-B,26.071442,-97.227082,"1679 TX-100, Port Isabel, TX 78578, United States"
3285,H-E-B,26.2922904,-97.9855613,"512 E Edinburg Ave, Elsa, TX 78543, United States"
3293,H-E-B Bakery,25.9048944,-97.4652043,"Brownsville, TX 78521, United States"
3376,H-E-B,29.0894889,-97.2802102,"909 E Broadway St, Cuero, TX 77954, United States"
3453,H-E-B Pharmacy,29.4663765,-95.09449169999999,"2955 Gulf Fwy S, League City, TX 77573, United States"
3457,H-E-B Pharmacy,29.5058498,-95.0389514,"2755 E League City Pkwy, League City, TX 77573, United States"
3458,H-E-B Bakery,29.39695249999999,-94.94945430000001,"3502 Palmer Hwy, Texas City, TX 77590, United States"
3468,H-E-B Pharmacy,29.4707458,-98.46441940000001,"4821 Broadway, San Antonio, TX 78209, United States"
3491,H-E-B Bakery,29.7267385,-95.4270722,"5225 A Buffalo Speedway, Houston, TX 77005, United States"
3492,H-E-B Pharmacy,29.735204,-95.58730200000001,"11815 Westheimer Rd, Houston, TX 77077, United States"
3493,H-E-B Bakery,29.7479918,-95.48455469999999,"5895 San Felipe St, Houston, TX 77057, United States"
3504,H-E-B Pharmacy,29.7075541,-95.46958660000001,"5106 Bissonnet St, Bellaire, TX 77401, United States"
3517,H-E-B,30.1077474,-95.387444,"3540 Rayford Rd, Spring, TX 77386, United States"
3523,H-E-B Pharmacy,29.8213908,-95.5473476,"10251 Kempwood Dr, Houston, TX 77043, United States"
3524,H-E-B Pharmacy,29.688878,-95.4642681,"4955 Beechnut St, Houston, TX 77096, United States"
3572,H-E-B,29.517765,-97.452753,"1841 Church St, Gonzales, TX 78629, United States"
3574,H-E-B,29.693998,-96.53836299999999,"2105 Milam St, Columbus, TX 78934, United States"
3586,H-E-B Pharmacy,29.7199217,-95.8479468,"4950 FM 1463, Katy, TX 77494, United States"
3588,H-E-B,30.4199783,-95.48800080000001,"12350 Interstate 45 N, Willis, TX 77378, United States"
3603,H-E-B Bakery,31.0791141,-97.653825,"601 Indian Trail, Harker Heights, TX 76548, United States"
3638,H-E-B Pharmacy,32.0906375,-96.4671193,"201 S 15th St, Corsicana, TX 75110, United States"
3662,H-E-B Pharmacy,30.2214683,-95.68136109999999,"13663 Farm to Market Rd 1488, Magnolia, TX 77354, United States"
3663,H-E-B Pharmacy,30.584321,-97.85782599999999,"651 N US Hwy 183, Leander, TX 78641, United States"
3668,H-E-B Pharmacy,30.6331696,-97.8244559,"19348 Ronald Reagan Blvd, Georgetown, TX 78641, United States"
3670,H-E-B Fuel,33.4903321,-101.9070659,"4413 114th St, Lubbock, TX 79424, United States"
3703,H-E-B Bakery,32.0902917,-96.4668961,"201 S 15th St, Corsicana, TX 75110, United States"
3707,H-E-B Curbside Pickup & Grocery Delivery,32.3238329,-96.633843,"101 S Clay St, Ennis, TX 75119, United States"
3745,H-E-B,28.979281,-96.64797999999999,"301 N Wells St, Edna, TX 77957, United States"
3767,H-E-B,29.293031,-97.149261,"201 W Gonzales St, Yoakum, TX 77995, United States"
3841,H-E-B,30.709816,-94.95083299999999,"1509 W Church St, Livingston, TX 77351, United States"
3849,H-E-B Curb Side,32.4124832,-96.83953969999999,"Indian Dr, Waxahachie, TX 75165, United States"
3871,H-E-B,29.680303,-97.652627,"320 E Pierce St, Luling, TX 78648, United States"
3882,H-E-B,28.0355318,-97.51717769999999,"106 S San Patricio St, Sinton, TX 78387, United States"
4168,H-E-B Pharmacy,29.5521819,-95.1493096,"18611 Eastfield Dr, Webster, TX 77598, United States"
4203,H-E-B Bakery,29.46646449999999,-95.0940104,"Dickinson, TX 77539, United States"
4220,H-E-B Center at Cedar Park,30.5415189,-97.8197896,"2100 Ave of the Stars, Cedar Park, TX 78613, United States"
4225,H-E-B,29.906545,-96.872278,"450 E Travis St, La Grange, TX 78945, United States"
4261,H-E-B Pharmacy,29.493012,-98.431073,"1520 Austin Hwy, San Antonio, TX 78218, United States"
4265,H-E-B Pharmacy,29.498157,-98.4686424,"999 E Basse Rd Ste 150, San Antonio, TX 78209, United States"
4272,H-E-B Bakery,29.5075224,-98.4582397,"1955 Nacogdoches Rd, San Antonio, TX 78209, United States"
4279,H-E-B Bakery,29.4982255,-98.4685241,"999 E Basse Rd Ste 150, San Antonio, TX 78209, United States"
4286,H-E-B Bakery,29.503617,-98.5001293,"San Antonio, TX 78216, United States"
4305,H-E-B Pharmacy,31.07193,-97.370069,"3002 S 31st St, Temple, TX 76502, United States"
4306,H-E-B Bakery,31.08052619999999,-97.4543865,"2509 N Main St, Belton, TX 76513, United States"
4308,H-E-B Pharmacy,31.1023152,-97.35375340000002,"1314 W Adams Ave, Temple, TX 76504, United States"
4309,H-E-B Bakery,31.0719198,-97.37045839999999,"Temple, TX 76502, United States"
4310,H-E-B Curbside Pickup & Grocery Delivery,31.0800838,-97.4550782,"2509 N Main St, Belton, TX 76513, United States"
4312,H-E-B Pharmacy,31.078925,-97.654406,"601 Indian Trail, Harker Heights, TX 76548, United States"
4321,H-E-B! Plus Pharmacy,31.1020362,-97.35360299999999,"1314 W Adams Ave, Temple, TX 76504, United States"
4327,H-E-B Pharmacy,31.0799748,-97.75894939999999,"1101 W Stan Schlueter Loop, Killeen, TX 76542, United States"
4339,H-E-B Pharmacy,31.0808011,-97.4550379,"2509 N Main St, Belton, TX 76513, United States"
4340,H-E-B Bakery,31.1020046,-97.3535064,"Temple, TX 76504, United States"
4347,H-E-B Bakery,31.0908083,-97.7362967,"2511 Trimmier Rd, Killeen, TX 76542, United States"
4353,H-E-B Fuel,31.0801603,-97.45684279999999,"2509 N Main St, Belton, TX 76513, United States"
4358,H-E-B Fuel,31.0715035,-97.36910999999999,"3000 S 31st St, Temple, TX 76502, United States"
4377,H-E-B Pharmacy,26.2378139,-98.3903687,"6010 W Expy 83, Palmview, TX 78572, United States"
4405,H-E-B Pharmacy,29.607946,-95.645933,"530 Hwy 6, Sugar Land, TX 77478, United States"
4411,H-E-B Pharmacy,29.5786547,-95.5821532,"4724 Hwy 6, Missouri City, TX 77459, United States"
4420,H-E-B Bakery,29.5789932,-95.5826391,"Missouri City, TX 77459, United States"
4421,H-E-B Pharmacy,29.6599366,-95.7131927,"10161 W Grand Pkwy S, Richmond, TX 77407, United States"
4422,H-E-B Bakery,29.5646117,-95.685017,"Sugar Land, TX 77479, United States"
4426,H-E-B Bakery,29.6911715,-95.559595,"10100 Beechnut St, Houston, TX 77072, United States"
4517,H-E-B plus!,29.2314229,-98.791417,"19337 McDonald St, Lytle, TX 78052, United States"
4518,H-E-B,27.220494,-98.145905,"700 S St Marys St, Falfurrias, TX 78355, United States"
4588,H-E-B Bakery,29.7877458,-95.5323926,"9710 Katy Fwy, Houston, TX 77055, United States"
4607,H-E-B Bakery,29.821564,-95.5475151,"Houston, TX 77080, United States"
4612,H-E-B,28.091137,-97.82279,"601 E San Patricio Ave, Mathis, TX 78368, United States"
4655,H-E-B Gas,30.0221384,-95.5271166,"7310 Louetta Rd, Spring, TX 77379, United States"
4684,H-E-B Pharmacy,29.8830904,-97.94291109999999,"200 W Hopkins St, San Marcos, TX 78666, United States"
4715,H-E-B Pharmacy,29.696334,-95.814242,"9211 Farm to Market Rd 723, Richmond, TX 77406, United States"
4724,H-E-B Pharmacy,29.7126862,-95.7758905,"6711 S Fry Rd, Katy, TX 77494, United States"
4726,H-E-B Pharmacy,29.551513,-95.74796599999999,"23500 Circle Oak Pkwy, Richmond, TX 77469, United States"
4804,H-E-B Pharmacy,30.4205462,-95.48966419999999,"12350 I-45, Willis, TX 77378, United States"
4829,H-E-B Pharmacy,30.2084878,-95.4227823,"10200 TX-242, Conroe, TX 77385, United States"
4837,H-E-B Pharmacy,30.4426776,-97.6641246,"1434 Wells Branch Pkwy, Pflugerville, TX 78660, United States"
4849,H-E-B Pharmacy,29.515089,-98.52433099999999,"6000 West Ave, San Antonio, TX 78213, United States"
4870,H-E-B Pharmacy,26.369559,-98.799562,"4031 US-83, Rio Grande City, TX 78582, United States"
4874,H-E-B Bakery,26.3694805,-98.79958789999999,"4031 E US Hwy 83, Rio Grande City, TX 78582, United States"
5008,H-E-B Pharmacy,28.8951795,-99.11483539999999,"225 I-35, Pearsall, TX 78061, United States"
5013,H-E-B Bakery,28.895389,-99.11462,"Pearsall, TX 78061, United States"
5141,H-E-B Fuel,31.684608,-96.4776407,"701 E Milam St, Mexia, TX 76667, United States"
5214,H-E-B Pharmacy,29.0417602,-95.4463134,"97 Oyster Creek Dr, Lake Jackson, TX 77566, United States"
5220,H-E-B,28.81581749999999,-97.85998219999999,"107 N Sunset Strip St, Kenedy, TX 78119, United States"
5403,H-E-B Pharmacy,26.2035013,-97.6775789,"1103 Morgan Blvd, Harlingen, TX 78550, United States"
5410,H-E-B Bakery,26.1835057,-97.7137041,"Harlingen, TX 78550, United States"
5412,H-E-B Bakery,26.1814679,-97.6812209,"1213 S Commerce St, Harlingen, TX 78550, United States"
5474,H-E-B Pharmacy,29.577922,-98.47667899999999,"15000 San Pedro Ave, San Antonio, TX 78232, United States"
5479,H-E-B Bakery,29.6067784,-98.46724999999999,"18138 San Pedro Ave, San Antonio, TX 78232, United States"
5481,H-E-B Bakery,29.5781529,-98.4765827,"San Antonio, TX 78232, United States"
5483,H-E-B Pharmacy,29.5954565,-98.41731999999999,"17238 Bulverde Rd, San Antonio, TX 78247, United States"
5484,H-E-B Pharmacy,29.6067319,-98.510409,"1150 TX-1604 Loop, San Antonio, TX 78248, United States"
5485,H-E-B Pharmacy,29.5767557,-98.43969399999999,"2929 Thousand Oaks Dr, San Antonio, TX 78247, United States"
5486,H-E-B Pharmacy,29.6411864,-98.45745889999999,"20935 U.S. Hwy 281 N, San Antonio, TX 78258, United States"
5488,H-E-B Pharmacy,29.5619948,-98.5880519,"12777 I-10, San Antonio, TX 78230, United States"
5489,H-E-B Convenience Store,29.5969808,-98.41687619999999,"17439 Classen Rd, San Antonio, TX 78247, United States"
5491,H-E-B Pharmacy,29.5466102,-98.5106459,"11551 West Ave, San Antonio, TX 78213, United States"
5493,H-E-B Pharmacy,29.5528155,-98.534195,"8503 NW Military Hwy, San Antonio, TX 78231, United States"
5494,H-E-B Bakery,29.5772133,-98.4391988,"San Antonio, TX 78247, United States"
5546,H-E-B Pharmacy,29.910993,-95.58612900000001,"9503 Jones Rd, Houston, TX 77065, United States"
5559,H-E-B Pharmacy,29.7897137,-95.7171003,"1550 Fry Rd, Houston, TX 77084, United States"
5560,H-E-B Bakery,29.7354571,-95.5875516,"11815 Westheimer Rd, Houston, TX 77077, United States"
5606,H-E-B Pharmacy,30.1639583,-95.4667508,"9595 Six Pines Dr, The Woodlands, TX 77380, United States"
5607,H-E-B Pharmacy,30.0685813,-95.2513075,"19529 Northpark Dr, Kingwood, TX 77339, United States"
5611,H-E-B Pharmacy,30.179109,-95.538432,"10777 Kuykendahl Rd, The Woodlands, TX 77382, United States"
5612,H-E-B Pharmacy,30.06838759999999,-95.4494588,"2121 Farm to Market 2920, Spring, TX 77388, United States"
5615,H-E-B Pharmacy,30.1442437,-95.550106,"26500 Kuykendahl Rd, Tomball, TX 77375, United States"
5616,H-E-B Pharmacy,30.32564679999999,-95.5002576,"3875 W Davis St, Conroe, TX 77304, United States"
5617,H-E-B Pharmacy,30.1081577,-95.3873481,"3540 Rayford Rd, Spring, TX 77386, United States"
5618,H-E-B Pharmacy,30.335686,-95.465256,"2108 N Frazier St, Conroe, TX 77301, United States"
5621,H-E-B Bakery,30.1441192,-95.54935569999999,"26500 Kuykendahl Rd, Spring, TX 77389, United States"
5625,H-E-B Bakery,30.1637651,-95.4667597,"The Woodlands, TX 77380, United States"
5628,H-E-B Pharmacy,30.2261635,-95.51956469999999,"3601 FM 1488, The Woodlands, TX 77384, United States"
5629,H-E-B Bakery,30.1276458,-95.4454016,"130 Sawdust Rd, Spring, TX 77380, United States"
5630,H-E-B Pharmacy,30.0729852,-95.50150339999999,"5251 Farm to Market 2920, Spring, TX 77388, United States"
5631,H-E-B! Plus Pharmacy,30.3351468,-95.4656582,"2108 N Frazier St, Conroe, TX 77301, United States"
5639,H-E-B Bakery,30.1075869,-95.387772,"3550 Rayford Rd, Spring, TX 77386, United States"
5640,H-E-B Bakery,30.1791625,-95.53830029999999,"10777 Kuykendahl Rd, Spring, TX 77382, United States"
5645,H-E-B Pharmacy,30.1279997,-95.4454623,"130 Sawdust Rd, Spring, TX 77380, United States"
5649,H-E-B Bakery,30.3356779,-95.4657668,"2108 N Frazier St, Conroe, TX 77301, United States"
5693,H-E-B Bakery,32.3242088,-96.6337323,"101 S Clay St, Ennis, TX 75119, United States"
5798,H-E-B Fuel,32.3246382,-96.63295,"101 S Clay St, Ennis, TX 75119, United States"
5815,H-E-B Pharmacy,30.690294,-96.371636,"1609 N Texas Ave, Bryan, TX 77803, United States"
5817,H-E-B Pharmacy,30.6021653,-97.4188708,"100 Carlos G Parker Blvd NW BL#101, Taylor, TX 76574, United States"
5879,H-E-B Pharmacy,26.143544,-97.636736,"1095 West Business 77, San Benito, TX 78586, United States"
5898,H-E-B San Benito,26.1438686,-97.6367235,"San Benito, TX 78586, United States"
5899,H-E-B Bakery,25.9197892,-97.48929470000002,"Brownsville, TX 78521, United States"
5901,H-E-B Pharmacy,26.1635889,-98.00525479999999,"310 N Westgate Dr, Weslaco, TX 78596, United States"
5902,H-E-B! Plus Pharmacy,26.1813893,-97.6819731,"1213 S Commerce St, Harlingen, TX 78550, United States"
5912,H-E-B Bakery,26.163449,-98.0051611,"310 N Westgate Dr, Weslaco, TX 78596, United States"
5969,H-E-B,28.303692,-97.276315,"206 S Alamo St, Refugio, TX 78377, United States"
6015,H-E-B Pharmacy,29.4652502,-98.52573919999999,"2118 Fredericksburg Rd, San Antonio, TX 78201, United States"
6023,H-E-B Pharmacy,32.4572639,-97.72988050000001,"3804 East US Hwy 377, Granbury, TX 76049, United States"
6025,H-E-B Bakery,32.4575522,-97.7292087,"Granbury, TX 76049, United States"
6056,H-E-B Bakery,32.7580983,-97.69754069999999,"100 Hudson Oaks Dr, Hudson Oaks, TX 76087, United States"
6125,H-E-B Fuel,26.3711549,-98.7992034,"4031 US-83, Rio Grande City, TX 78582, United States"
6142,Flaming Bird By H-E-B,26.3694805,-98.79958789999999,"4031 E US Hwy 83, Rio Grande City, TX 78582, United States"
6167,H-E-B Bakery,30.3254799,-95.49992759999999,"3915 W Davis St, Conroe, TX 77304, United States"
6176,H-E-B Bakery,30.2232038,-95.5842811,"7988 Farm to Market Rd 1488, Magnolia, TX 77354, United States"
6238,H-E-B Pharmacy,32.3241382,-96.6337092,"101 S Clay St, Ennis, TX 75119, United States"
6260,H-E-B Pharmacy,29.37999,-98.45805,"4100 New Braunfels Ave, San Antonio, TX 78223, United States"
6281,H-E-B Drug Store,27.475122,-99.47589070000001,"Zacatecas St, Laredo, TX 78046, United States"
6307,H-E-B Bakery,27.5159104,-97.8630179,"409 E Kleberg Ave, Kingsville, TX 78363, United States"
6324,H-E-B Curbside Pickup & Grocery Delivery,27.5159119,-97.8629407,"409 E Kleberg Ave, Kingsville, TX 78363, United States"
6361,H-E-B Pharmacy At UTHTB,30.2775501,-97.7351454,"1601 Trinity St BLDG A, STE 105, Austin, TX 78712, United States"
6471,H-E-B Pharmacy,29.358998,-98.138241,"14414 US-87, La Vernia, TX 78121, United States"
6480,H-E-B Pharmacy,29.47939,-98.359028,"6580 Farm-To-Market Rd 78, San Antonio, TX 78244, United States"
6503,H-E-B Bakery,29.480545,-98.3596237,"6580 FM78, San Antonio, TX 78244, United States"
6538,H-E-B Curbside Pickup & Grocery Delivery,32.4332039,-99.7577396,"1345 Barrow St, Abilene, TX 79605, United States"
6552,H-E-B Fuel,32.43255,-99.75911839999999,"1345 Barrow St, Abilene, TX 79605, United States"
6597,H-E-B Pharmacy,29.4862391,-98.731785,"12125 Alamo Ranch Pkwy, San Antonio, TX 78253, United States"
6636,H-E-B Bakery,29.3536426,-98.4339171,"3323 SE Military Dr, San Antonio, TX 78223, United States"
6653,H-E-B Convenience Store,29.1443372,-98.1571105,"909 10th St, Floresville, TX 78114, United States"
6658,H-E-B Bakery,29.3581239,-98.5018585,"San Antonio, TX 78221, United States"
6661,H-E-B Bakery,29.1425509,-98.1568434,"925 10th St, Floresville, TX 78114, United States"
6667,H-E-B Pharmacy,29.3578252,-98.5022449,"735 SW Military Dr, San Antonio, TX 78221, United States"
6710,H-E-B Pharmacy,29.32208769999999,-96.08361479999999,"1616 N Alabama Rd, Wharton, TX 77488, United States"
6810,H-E-B Bakery,26.4809039,-97.785991,"Raymondville, TX 78580, United States"
6839,H-E-B Pharmacy,26.2921234,-97.9852071,"512 E Edinburg Ave, Elsa, TX 78543, United States"
6844,H-E-B Fuel,26.4816004,-97.78587069999999,"405 W Hidalgo Ave, Raymondville, TX 78580, United States"
6848,H-E-B Bakery,26.2036377,-97.67766189999999,"1103 Morgan Blvd, Harlingen, TX 78550, United States"
6853,H-E-B Bakery,26.1536387,-97.91289900000001,"Mercedes, TX 78570, United States"
6856,H-E-B Bakery,26.1711364,-97.9894407,"Weslaco, TX 78596, United States"
6975,H-E-B Pharmacy,30.0530737,-95.18384119999999,"4517 Kingwood Dr, Kingwood, TX 77345, United States"
6981,H-E-B Bakery,30.0526939,-95.18399740000001,"Kingwood, TX 77339, United States"
6987,H-E-B Pharmacy,30.0538266,-95.57653409999999,"20311 Champion Forest Dr, Spring, TX 77379, United States"
6994,H-E-B Bakery,30.0539827,-95.5770399,"20311 Champion Forest Dr, Spring, TX 77379, United States"
7048,H-E-B Pharmacy,29.9065678,-96.8722098,"450 E Travis St, La Grange, TX 78945, United States"
7294,H-E-B Deli,29.8272705,-94.8497,"Mont Belvieu, TX 77523, United States"
7299,H-E-B Pharmacy,29.7956553,-94.97787790000001,"6430 Garth Rd, Baytown, TX 77521, United States"
7319,H-E-B Bakery,29.7950842,-94.9778087,"6430 Garth Rd, Baytown, TX 77521, United States"
7333,H-E-B Bakery,29.8272392,-94.84971039999999,"Mont Belvieu, TX 77523, United States"
7334,H-E-B Deli,29.7949334,-94.9774831,"Baytown, TX 77521, United States"
7443,H-E-B Curbside Pickup & Grocery Delivery,29.1426289,-98.1576906,"925 10th St, Floresville, TX 78114, United States"
7466,H-E-B Pharmacy,30.7588871,-98.22284409999999,"105 S Boundary St, Burnet, TX 78611, United States"
7472,H-E-B Curbside Pickup & Grocery Delivery,30.582916,-98.27933279999999,"1503 Hwy 1431, Marble Falls, TX 78654, United States"
7606,H-E-B Pharmacy,29.4249354,-98.46253510000001,"415 N New Braunfels Ave, San Antonio, TX 78202, United States"
7616,H-E-B Bakery,29.42478449999999,-98.4624707,"415 N New Braunfels Ave, San Antonio, TX 78202, United States"
7703,H-E-B Pharmacy,30.051596,-99.14371899999999,"300 Main St, Kerrville, TX 78028, United States"
7704,H-E-B Pharmacy,30.041434,-99.143315,"313 Sidney Baker St S, Kerrville, TX 78028, United States"
7712,H-E-B Curbside Pickup & Grocery Delivery,30.0511229,-99.14356079999999,"300 Main St, Kerrville, TX 78028, United States"
7725,H-E-B Curbside Pickup & Grocery Delivery,30.0412787,-99.1432267,"313 Sidney Baker St S, Kerrville, TX 78028, United States"
7744,H-E-B Fuel,30.0515438,-99.1436291,"300 Main St, Kerrville, TX 78028, United States"
7748,H-E-B Pharmacy,30.270107,-98.875677,"407 S Adams St, Fredericksburg, TX 78624, United States"
7753,H-E-B Car Wash,30.0522284,-99.1450919,"300 W Main St, Kerrville, TX 78028, United States"
7896,H-E-B Curbside Pickup & Grocery Delivery,29.4661351,-95.0944169,"2955 Gulf Fwy, League City, TX 77573, United States"
7897,H-E-B Fuel,29.5044705,-95.040827,"2625 E League City Pkwy, League City, TX 77573, United States"
7908,H-E-B Bakery,29.6667342,-95.0967453,"4700 East Blvd, La Porte, TX 77571, United States"
7916,H-E-B Pharmacy,29.5059679,-95.1909288,"701 W Parkwood Ave, Friendswood, TX 77546, United States"
7941,H-E-B Pharmacy,31.4949007,-97.2213742,"9100 Woodway Dr, Woodway, TX 76712, United States"
7946,H-E-B Bakery,31.5338124,-97.1885693,"1301 Wooded Acres Dr, Waco, TX 76710, United States"
7947,H-E-B Bakery,31.4950429,-97.2219736,"Woodway, TX 76712, United States"
7948,H-E-B Bakery,31.5812892,-97.17199939999999,"3801 N 19th St, Waco, TX 76708, United States"
7950,H-E-B Pharmacy,31.5874765,-97.1074191,"801 I-35, Bellmead, TX 76705, United States"
7952,H-E-B! Plus Pharmacy,31.5809926,-97.17278920000001,"3801 N 19th St, Waco, TX 76708, United States"
7959,H-E-B Curbside Pickup & Grocery Delivery,31.4957147,-97.22207,"9100 Woodway Dr, Woodway, TX 76712, United States"
7972,H-E-B Pharmacy,31.4351869,-97.7427313,"1207 E Main St, Gatesville, TX 76528, United States"
7976,H-E-B Pharmacy,31.0914455,-97.7365267,"2511 Trimmier Rd #100, Killeen, TX 76542, United States"
7983,H-E-B Fuel,31.5330052,-97.1890719,"1301 Wooded Acres Dr, Waco, TX 76710, United States"
7985,H-E-B Fuel,31.4960696,-97.2203229,"9100 Woodway Dr, Woodway, TX 76712, United States"
8025,H-E-B - Closed,29.393906,-94.923206,"918 21st St N, Texas City, TX 77590, United States"
8030,H-E-B Pharmacy,30.0157645,-97.86126399999999,"5401 Farm to Market 1626, Kyle, TX 78640, United States"
8039,H-E-B Plus! - Buda,30.0877932,-97.82113679999999,"Buda, TX 78610, United States"
8044,H-E-B Curbside Pickup & Grocery Delivery,30.0164156,-97.8614312,"5401 Farm to Market 1626, Kyle, TX 78640, United States"
8048,H-E-B Pharmacy,30.0882965,-97.8216385,"15300 S I-35 Frontage Rd, Buda, TX 78610, United States"
8052,H-E-B Pharmacy,29.8821865,-97.6700554,"403 S Colorado St, Lockhart, TX 78644, United States"
8055,H-E-B Bakery,30.0877209,-97.8211329,"Buda, TX 78610, United States"
8056,H-E-B Fuel,30.0140722,-97.8617156,"5401 Farm to Market 1626, Kyle, TX 78640, United States"
8104,H-E-B Pharmacy,27.2204733,-98.1459264,"700 S St Marys St, Falfurrias, TX 78355, United States"
8110,H-E-B Bakery,30.2703829,-98.87529839999999,"407 S Adams St, Fredericksburg, TX 78624, United States"
8346,H-E-B Pharmacy,32.7584577,-97.6975777,"100 Hudson Oaks Dr, Hudson Oaks, TX 76087, United States"
8354,H-E-B! Plus Pharmacy,32.7580999,-97.6973149,"100 Hudson Oaks Dr, Hudson Oaks, TX 76087, United States"
8360,H-E-B Curbside Pickup & Grocery Delivery,32.75782,-97.69733910000001,"100 Hudson Oaks Dr, Hudson Oaks, TX 76087, United States"
8386,H-E-B Fuel,32.756754,-97.6972378,"3215 Fort Worth Hwy, Hudson Oaks, TX 76087, United States"
8397,H-E-B Wash,32.7567502,-97.69719189999999,"3215 Fort Worth Hwy, Hudson Oaks, TX 76087, United States"
8436,H-E-B Pharmacy,29.520038,-98.643992,"7951 Guilbeau Rd, San Antonio, TX 78250, United States"
8437,H-E-B Pharmacy,28.9828865,-95.957977,"2700 7th St, Bay City, TX 77414, United States"
8526,H-E-B Pharmacy,32.4338643,-99.7578372,"1345 Barrow St, Abilene, TX 79605, United States"
8547,H-E-B Bakery,31.3374358,-94.71915249999999,"111 N Timberland Dr, Lufkin, TX 75901, United States"
8567,H-E-B Fuel,30.709859,-94.9518312,"1511 W Church St, Livingston, TX 77351, United States"
8577,H-E-B Fuel,31.3376206,-94.71899169999999,"111 N Timberland Dr, Lufkin, TX 75901, United States"
8590,H-E-B Pharmacy,30.5218718,-97.8284255,"170 E Whitestone Blvd, Cedar Park, TX 78613, United States"
8593,H-E-B Pharmacy,30.4989398,-97.61534499999999,"3750 Gattis School Rd, Round Rock, TX 78664, United States"
8664,H-E-B Fuel,31.3257971,-95.4374055,"1027 E Loop 304, Crockett, TX 75835, United States"
8694,H-E-B Fuel,32.0897878,-96.46781209999999,"201 S 15th St, Corsicana, TX 75110, United States"
8774,H-E-B Pharmacy,30.2917851,-97.8249154,"701 S Capital of Texas Hwy Bld C, West Lake Hills, TX 78746, United States"
8775,H-E-B Pharmacy,30.2836704,-97.7758743,"2652 Lake Austin Blvd, Austin, TX 78703, United States"
8905,H-E-B Bakery,32.2082595,-98.2252517,"2150 W Washington St, Stephenville, TX 76401, United States"
8927,H-E-B Fuel,32.2092676,-98.22536679999999,"2150 W Washington St, Stephenville, TX 76401, United States"
9036,H-E-B Pharmacy,29.8870544,-97.9267096,"641 E Hopkins St, San Marcos, TX 78666, United States"
9046,H-E-B Bakery,29.8871326,-97.9259136,"641 E Hopkins St, San Marcos, TX 78666, United States"
9100,H-E-B Pharmacy,29.8277826,-94.84979589999999,"13401 I-10, Mont Belvieu, TX 77523, United States"
9194,H-E-B Pharmacy,30.3442755,-97.96808539999999,"2000 Ranch Rd 620 S, Lakeway, TX 78734, United States"
9202,H-E-B Bakery,30.40404169999999,-97.8514979,"Austin, TX 78730, United States"
9205,H-E-B Bakery,30.344586,-97.9683053,"Lakeway, TX 78734, United States"
9209,H-E-B! Plus Pharmacy,30.345081,-97.9678004,"2000 Ranch Rd 620 S, Lakeway, TX 78734, United States"
9214,H-E-B! Plus Pharmacy,30.4047842,-97.8515549,"7301 N FM 620, Austin, TX 78726, United States"
9220,H-E-B Pharmacy,30.3046555,-97.9327677,"12400 State Hwy 71, Bee Cave, TX 78738, United States"
9249,H-E-B Fuel,31.5857568,-97.1087672,"801 I-35, Bellmead, TX 76705, United States"
9251,H-E-B Curbside Pickup & Grocery Delivery,31.5875418,-97.10733689999999,"801 N Interstate 35 Frontage Rd, Bellmead, TX 76705, United States"
9253,H-E-B Fuel,31.52429,-97.1379714,"1821 S Valley Mills Dr, Waco, TX 76711, United States"
9257,H-E-B Curbside Pickup & Grocery Delivery,31.5335546,-97.18838400000001,"1301 Wooded Acres Dr, Waco, TX 76710, United States"
9258,H-E-B Fuel,31.5809598,-97.1728143,"3801 N 19th St, Waco, TX 76708, United States"
9261,H-E-B Bakery,31.58770389999999,-97.10750780000001,"Bellmead, TX 76705, United States"
9276,H-E-B Bakery,31.4358303,-97.7431275,"1207 E Main St, Gatesville, TX 76528, United States"
9279,H-E-B Car Wash,31.5858914,-97.10844589999999,"801 N Interstate 35 Frontage Rd, Waco, TX 76705, United States"
9346,H-E-B Pharmacy,31.1189471,-97.86428980000001,"2990 U.S. Hwy 190, Copperas Cove, TX 76522, United States"
9349,H-E-B Bakery,31.0621285,-98.1798589,"Lampasas, TX 76550, United States"
9352,H-E-B,31.11914,-97.89599,"804 E Hwy 190, Copperas Cove, TX 76522, United States"
9372,H-E-B Bakery,29.8816105,-97.6703026,"403 S Colorado St, Lockhart, TX 78644, United States"
9411,H-E-B Pharmacy,29.7320301,-98.0773239,"2965 I-35, New Braunfels, TX 78130, United States"
9476,H-E-B Convenience Store,26.2291833,-98.322975,"2216 N Conway Ave, Mission, TX 78572, United States"
9478,H-E-B! Plus Pharmacy,26.2364743,-98.39056629999999,"6010 W Expy 83, Palmview, TX 78572, United States"
9576,H-E-B Bakery,32.4331664,-99.7584586,"1345 Barrow St, Abilene, TX 79605, United States"
9644,H-E-B Fresh Bites Convenience Store,29.2305843,-98.7894324,"19561 FM2790 Suite 1, Lytle, TX 78052, United States"
9645,H-E-B Pharmacy,29.2308866,-98.79155800000001,"19337 McDonald St, Lytle, TX 78052, United States"
9646,H-E-B Pharmacy,29.360486,-98.53302099999999,"6818 S Zarzamora St, San Antonio, TX 78224, United States"
9648,H-E-B Convenience Store,29.357995,-98.502405,"735 SW Military Dr, San Antonio, TX 78221, United States"
9696,H-E-B Pharmacy,27.7527186,-98.0631602,"1115 E Main St, Alice, TX 78332, United States"
9710,H-E-B Bakery,27.7526254,-98.06355459999999,"1115 E Main St #100, Alice, TX 78332, United States"
9720,H-E-B Bakery,27.7891235,-97.6657243,"308 E Main Ave, Robstown, TX 78380, United States"
9727,H-E-B Fuel,27.7515294,-98.0642062,"1115 E Main St, Alice, TX 78332, United States"
9823,H-E-B Pharmacy,27.5158235,-97.86293979999999,"409 E Kleberg Ave, Kingsville, TX 78363, United States"
9853,H-E-B Pharmacy,29.782306,-98.7341216,"420 W Bandera Rd, Boerne, TX 78006, United States"
9856,H-E-B Pharmacy,28.9794066,-96.64748499999999,"103 Elm St, Edna, TX 77957, United States"
9860,H-E-B Convenience Store,29.55295869999999,-98.66532850000002,"11650 Bandera Rd, San Antonio, TX 78250, United States"
9863,H-E-B Fuel,27.5164477,-97.8643986,"409 E Kleberg Ave, Kingsville, TX 78363, United States"
9987,H-E-B Curbside Pickup & Grocery Delivery,32.4576003,-97.7291223,"3804 East US Hwy 377, Granbury, TX 76049, United States"
10031,H-E-B Pharmacy,30.5822096,-98.27975359999999,"1503 Hwy 1431 West, Marble Falls, TX 78654, United States"
10037,H-E-B Pharmacy,30.4380111,-97.61211589999999,"201 FM 685, Pflugerville, TX 78660, United States"
10107,H-E-B Pharmacy,31.6856494,-96.4774832,"701 E Milam St, Mexia, TX 76667, United States"
10115,H-E-B Bakery,31.6858837,-96.47742,"701 E Milam St, Mexia, TX 76667, United States"
10220,H-E-B Bakery,29.0415428,-95.446269,"110 Ivy Court, Lake Jackson, TX 77566, United States"
10231,H-E-B Curbside Pickup & Grocery Delivery,29.0416747,-95.44561929999999,"97 Oyster Creek Dr, Lake Jackson, TX 77566, United States"
10329,H-E-B Curbside Pickup & Grocery Delivery,28.6269593,-96.6378129,"101 Calhoun Plaza, Port Lavaca, TX 77979, United States"
10346,H-E-B Fuel,28.6264279,-96.6368473,"101 Calhoun Plaza, Port Lavaca, TX 77979, United States"
10498,H-E-B Pharmacy,30.175408,-97.82506599999999,"2110 W Slaughter Ln, Austin, TX 78748, United States"
10504,H-E-B Pharmacy,30.216263,-97.83096499999999,"6900 Brodie Ln, Austin, TX 78745, United States"
10507,H-E-B Curbside & Grocery Delivery,30.1682819,-97.78654279999999,"8801 S Congress Ave, Austin, TX 78745, United States"
10510,H-E-B Curbside Pickup & Grocery Delivery,30.2160888,-97.8309163,"6900 Brodie Ln, Austin, TX 78745, United States"
10581,H-E-B Pharmacy,30.7221053,-95.56063069999999,"1702 11th St, Huntsville, TX 77340, United States"
10626,H-E-B Pharmacy,30.3650335,-97.6977855,"9414 N Lamar Blvd, Austin, TX 78753, United States"
10636,H-E-B Pharmacy,29.5174741,-97.4524014,"1841 Church St, Gonzales, TX 78629, United States"
10644,H-E-B Bakery,29.5178566,-97.4524304,"825 E Sarah DeWitt Dr, Gonzales, TX 78629, United States"
10890,H-E-B Pharmacy,30.003112,-95.638589,"14100 Spring Cypress Rd, Cypress, TX 77429, United States"
11186,H-E-B Pharmacy,30.0222705,-95.5275047,"7310 Louetta Rd, Spring, TX 77379, United States"
11189,H-E-B Pharmacy,29.9958143,-95.5765459,"10919 Louetta Rd, Houston, TX 77070, United States"
11190,H-E-B Pharmacy,29.5691808,-98.23100199999999,"850 FM1103 Suite 100, Cibolo, TX 78108, United States"
11192,H-E-B Bakery,31.0797648,-97.75906289999999,"Killeen, TX 76549, United States"
11396,H-E-B Fuel,31.0618193,-98.18085549999999,"705 S Key Ave, Lampasas, TX 76550, United States"
11538,H-E-B Pharmacy,29.3803293,-98.63608870000002,"302 Valley Hi Dr, San Antonio, TX 78227, United States"
11554,H-E-B Bakery,29.3814689,-98.6369959,"368 Valley Hi Dr, San Antonio, TX 78227, United States"
11688,H-E-B Pharmacy,30.5021318,-97.58300919999999,"5000 Gattis School Rd, Hutto, TX 78634, United States"
11692,H-E-B Convenience Store,30.5029485,-97.5815471,"5008 Gattis School Rd, Hutto, TX 78634, United States"
11860,H-E-B Fuel,28.5357785,-99.85183380000001,"2030 N 1st St, Carrizo Springs, TX 78834, United States"
11885,H-E-B - Closed,28.5245166,-99.8599335,"400 N 5th St, Carrizo Springs, TX 78834, United States"
12087,Flaming Bird By H-E-B,31.5228817,-97.1371155,"1821 S Valley Mills Dr, Waco, TX 76711, United States"
12207,H-E-B Wellness Primary Care,29.4762631,-98.69445189999999,"3922 Wiseman Blvd Building 1, San Antonio, TX 78251, United States"
12572,H-E-B Fresh Bites Convenience Store,30.6323021,-97.8263159,"19344 Ronald Reagan Blvd, Georgetown, TX 78628, United States"
12722,H-E-B Curbside Pickup & Grocery Delivery,27.6074861,-99.4738868,"1911 Bob Bullock Loop, Laredo, TX 78045, United States"
12729,H-E-B Fuel,27.6093905,-99.4750509,"1911 Bob Bullock Loop, Laredo, TX 78045, United States"
12741,Flaming Bird By H-E-B,27.6076605,-99.4742442,"1911 Bob Bullock Loop, Laredo, TX 78045, United States"
12885,H-E-B Bakery,30.1750576,-97.8251179,"2110 W Slaughter Ln, Austin, TX 78748, United States"
12891,H-E-B Pharmacy,30.2025538,-97.8771522,"5800 W Slaughter Ln, Austin, TX 78749, United States"
12894,H-E-B! Plus Pharmacy,30.1742917,-97.82581119999999,"2110 W Slaughter Ln, Austin, TX 78748, United States"
12896,H-E-B Pharmacy,30.1889953,-97.7688264,"6607 S I-35 Frontage Rd, Austin, TX 78744, United States"
12897,H-E-B Bakery,30.2023105,-97.87650479999999,"5800 W Slaughter Ln, Austin, TX 78749, United States"
12901,H-E-B Bakery,30.1887258,-97.76911419999999,"Cannon Mark Way, Austin, TX 78717, United States"
12902,H-E-B Bakery,30.2160756,-97.83096379999999,"Austin, TX 78749, United States"
12905,H-E-B Bakery,30.227116,-97.88756869999999,"64G7+M2, Austin, TX 78749, United States"
13080,H-E-B Pharmacy,29.5541911,-98.6620988,"9238 N Loop 1604 W, San Antonio, TX 78249, United States"
13083,H-E-B Pharmacy,29.4853929,-98.6645046,"9255 FM471, San Antonio, TX 78251, United States"
13087,H-E-B Curbside Pickup & Grocery Delivery,29.5261273,-98.6036816,"5910 Babcock Rd, San Antonio, TX 78240, United States"
13145,H-E-B Car Wash,31.5243029,-97.1369964,"Waco, TX 76711, United States"
13327,H-E-B Curbside Pickup & Grocery Delivery,31.118388,-97.8639522,"2990 U.S. Hwy 190, Copperas Cove, TX 76522, United States"
13331,H-E-B Fuel,31.1202685,-97.86402620000001,"2990 U.S. Hwy 190, Copperas Cove, TX 76522, United States"
13449,H-E-B Bakery,30.5828348,-98.2799517,"1503 HWY 1431 west, Marble Falls, TX 78654, United States"
13644,H-E-B Pharmacy,30.64374,-96.350669,"725 E Villa Maria Rd Ste 1300, Bryan, TX 77802, United States"
13645,H-E-B Pharmacy,30.6124362,-96.3183308,"1900 Texas Ave S, College Station, TX 77840, United States"
13647,H-E-B Pharmacy,30.5835862,-96.3219465,"11675 Farm to Market Rd 2154, College Station, TX 77845, United States"
13648,H-E-B Curbside Pickup & Grocery Delivery,30.6436178,-96.35099129999999,"725 E Villa Maria Rd Ste 1300, Bryan, TX 77802, United States"
13674,H-E-B 544 (Tejas Center),30.6442865,-96.3498285,"725 E Villa Maria Rd, Bryan, TX 77802, United States"
13676,H-E-B Curbside Pickup & Grocery Delivery,30.5827764,-96.32108439999999,"11675 Farm to Market Rd 2154, College Station, TX 77845, United States"
13677,H-E-B Curbside Pickup & Grocery Delivery,30.5595946,-96.26124639999999,"949 William D. Fitch Pkwy, College Station, TX 77845, United States"
13679,H-E-B Fuel,30.6452551,-96.3510203,"725 E Villa Maria Rd, Bryan, TX 77802, United States"
13737,H-E-B Curbside Pickup & Grocery Delivery,32.3467336,-97.39373379999999,"600 W Henderson St, Cleburne, TX 76033, United States"
13752,H-E-B Fuel,32.3464443,-97.3934747,"600 W Henderson St, Cleburne, TX 76033, United States"
13756,H-E-B Fuel,32.4561433,-97.72932039999999,"3804 East US Hwy 377, Granbury, TX 76049, United States"
14131,H-E-B Bakery,29.3214021,-96.0838545,"Wharton, TX 77488, United States"
14403,H-E-B Pharmacy,29.60685449999999,-98.4668672,"18140 San Pedro Ave, San Antonio, TX 78232, United States"
14531,H-E-B Pharmacy,29.548966,-98.40718,"12018 Perrin Beitel, San Antonio, TX 78217, United States"
14537,H-E-B Bakery,29.5490189,-98.4070177,"12018 Perrin Beitel, San Antonio, TX 78217, United States"
14538,H-E-B Bakery,29.7817621,-98.7339306,"420 W Bandera Rd Frozen Foods, Boerne, TX 78006, United States"
14675,H-E-B Fuel,31.4351651,-97.7426979,"1207 E Main St, Gatesville, TX 76528, United States"
14963,H-E-B Pharmacy,29.9273604,-95.7250663,"9722 Fry Rd, Cypress, TX 77433, United States"
14965,H-E-B Pharmacy,30.11019899999999,-97.334357,"104 Hasler Blvd, Bastrop, TX 78602, United States"
14980,H-E-B Bakery,32.2344383,-101.4727162,"2000 S Gregg St, Big Spring, TX 79720, United States"
15000,H-E-B Curbside Pickup & Grocery Delivery,32.2346418,-101.4727266,"2000 S Gregg St, Big Spring, TX 79720, United States"
15018,H-E-B Fuel,32.2354645,-101.4723795,"2000 S Gregg St, Big Spring, TX 79720, United States"
15026,H-E-B Bakery,30.5004553,-97.7229371,"16900 Ranch Rd 620, Round Rock, TX 78681, United States"
15128,H-E-B Pharmacy,30.189535,-98.08130899999999,"598 EHwy US 290, Dripping Springs, TX 78620, United States"
15133,H-E-B Pharmacy,30.3520847,-97.7544526,"7015 Village Center Dr, Austin, TX 78731, United States"
15134,Nutty Brown H-E-B,30.2075845,-97.972115,"12021 US-290, Austin, TX 78737, United States"
15347,H-E-B Fuel,30.6130863,-96.3172191,"1900 Texas Ave, College Station, TX 77840, United States"
15460,H-E-B Pharmacy,29.428623,-98.52425649999999,"108 N Rosillo St, San Antonio, TX 78207, United States"
15472,H-E-B Convenience Store,28.8149257,-97.8590656,"105 N Sunset Strip St, Kenedy, TX 78119, United States"
15473,H-E-B Business Center,30.2066442,-95.4255914,"10200 TX-242, Conroe, TX 77385, United States"
15524,H-E-B Fuel,32.412465,-96.84128559999999,"800 N Hwy 77, Waxahachie, TX 75165, United States"
15539,H-E-B Pharmacy,28.626888,-96.637903,"101 Calhoun Plaza, Port Lavaca, TX 77979, United States"
15543,H-E-B Bakery,28.6267698,-96.63763030000001,"101 Calhoun St, Port Lavaca, TX 77979, United States"
15547,H-E-B Pharmacy,29.198977,-96.26952999999999,"306 N Mechanic St, El Campo, TX 77437, United States"
15555,H-E-B Pharmacy,28.8521607,-96.99520179999999,"6106 N Navarro St, Victoria, TX 77904, United States"
15556,H-E-B Bakery,29.1986767,-96.2697855,"306 N Mechanic St #374, El Campo, TX 77437, United States"
15564,H-E-B Pharmacy,28.805466,-96.988422,"1505 E Rio Grande St, Victoria, TX 77901, United States"
15569,H-E-B Bakery,28.8514589,-96.9950348,"Victoria, TX 77904, United States"
15579,H-E-B Fuel,29.1981214,-96.271489,"306 N Mechanic St, El Campo, TX 77437, United States"
16006,H-E-B Pharmacy,28.0384016,-97.0437857,"1409 Hwy 35 N Business, Rockport, TX 78382, United States"
16026,H-E-B! Plus Pharmacy,28.0384016,-97.0437986,"1409 Hwy 35 N Business, Rockport, TX 78382, United States"
16032,H-E-B Curbside Pickup & Grocery Delivery,28.8526445,-96.9947411,"6106 N Navarro St, Victoria, TX 77904, United States"
16033,H-E-B Bakery,28.8053873,-96.9887274,"Victoria, TX 77901, United States"
16036,H-E-B Pharmacy,27.887542,-97.3170557,"1600 Wildcat Dr, Portland, TX 78374, United States"
16039,H-E-B Curbside Pickup & Grocery Delivery,28.038713,-97.04413970000002,"Business, 1409 Hwy 35 N Business, Rockport, TX 78382, United States"
16117,H-E-B Bakery,30.5190295,-97.6583108,"1700 E Palm Valley Blvd, Round Rock, TX 78664, United States"
16132,H-E-B Pharmacy,30.5001489,-97.7232482,"16900 Ranch Rd 620, Round Rock, TX 78681, United States"
16184,H-E-B Pharmacy,27.7982107,-97.4277797,"3500 Leopard St, Corpus Christi, TX 78408, United States"
16186,H-E-B Bakery,27.7670961,-97.42118909999999,"3033 S Port Ave, Corpus Christi, TX 78405, United States"
16188,H-E-B Bakery,27.8459588,-97.5847271,"Corpus Christi, TX 78410, United States"
16192,H-E-B Bakery,27.7392271,-97.4053856,"4444 Kostoryz Rd Suite 130, Corpus Christi, TX 78415, United States"
16194,H-E-B Bakery,27.7978339,-97.42782539999999,"Corpus Christi, TX 78469, United States"
16196,H-E-B Bakery,27.7566988,-97.39203049999999,"3133 S Alameda St, Corpus Christi, TX 78404, United States"
16198,H-E-B Bakery,27.7063615,-97.3722811,"Corpus Christi, TX 78411, United States"
16238,South Flo Pizza In H-E-B,29.5550787,-98.6627073,"9238 N Loop 1604 W, San Antonio, TX 78249, United States"
16239,South Flo Pizza In H-E-B,30.1637637,-95.4669376,"9595 Six Pines Dr, The Woodlands, TX 77380, United States"
16240,South Flo Pizza In H-E-B,29.6654464,-98.63406379999999,"24165 I-10 Suite 300, San Antonio, TX 78257, United States"
16394,H-E-B Bakery,29.7733236,-95.8226071,"25675 Nelson Way, Katy, TX 77494, United States"
