,borough,block,lot,cd,council,zipcode,address,zonedist1,bldgclass,landuse,ownertype,ownername,Final,lotarea, bldgarea ,comarea,resarea,officearea,retailarea,garagearea,strgearea,factryarea,otherarea,numbldgs,numfloors,unitsres,unitstotal,lotfront,lotdepth,bldgfront,bldgdepth,assessland,assesstot,yearbuilt,yearalter1,yearalter2,histdist,landmark,builtfar,residfar,commfar,facilfar,borocode,bbl,xcoord,ycoord,zonemap,version,latitude,longitude
0,QN,7021,1,408.0,24.0,11366.0,8150A UTOPIA PARKWAY,R4,W6,8.0,X,ST JOHN S UNIVERSITY,ST JOHN'S UNIVERSITY,4112064,4687440,4168578.0,518862.0,0.0,0.0,159440.0,0.0,0.0,4009138.0,31,5.0,6,6,1745.5,1107.42,304.42,171.5,40837500,262101600,1950,2002,2004,,,1.14,0.75,0.0,2.0,4,4070210001,1041191.0,202336.0,14c,22v2,40.721859,-73.7945775
1,BX,3273,1,206.0,15.0,10458.0,441 EAST FORDHAM ROAD,R6,W6,8.0,X,FORDHAM UNIVERSITY,FORDHAM UNIVERSITY,3392065,1743584,947216.0,796368.0,947216.0,0.0,0.0,0.0,0.0,0.0,36,6.0,0,1,677.25,972.33,112.0,94.0,20249550,233383050,1922,1986,0,Individual Landmark,INDIVIDUAL LANDMARK,0.51,2.43,0.0,4.8,2,2032730001,1015968.0,253211.0,3c,22v2,40.8616234,-73.8853325
2,MN,533,1,102.0,1.0,10012.0,1 WASHINGTON SQ VLLGE,C1-7,H8,8.0,P,NEW YORK UNIVERSITY,NEW YORK UNIVERSITY,265237,1485916,140481.0,0.0,4522.0,0.0,121624.0,0.0,0.0,14335.0,5,17.0,1904,1921,606.0,477.0,568.0,63.0,8190450,57647250,1959,1985,0,,,5.6,6.02,2.0,6.5,1,1005330001,985027.0,204534.0,12c,22v2,40.7280752,-73.9971966
3,MN,1973,1,109.0,7.0,10027.0,530 WEST 120 STREET,R8,W6,8.0,X,COLUMBIA UNIVERSITY,COLUMBIA UNIVERSITY,734180,"  1,368,870 ",1368870.0,0.0,1368870.0,0.0,0.0,0.0,0.0,0.0,26,7.0,0,0,947.33,775.0,205.0,54.0,24299550,200433150,1901,2009,1989,Individual Landmark,INDIVIDUAL AND INTERIOR LANDMARK,1.86,6.02,0.0,6.5,1,1019730001,994901.0,233897.0,5c,22v2,40.8086626,-73.961525
4,MN,524,66,102.0,1.0,10012.0,100 BLEECKER STREET,C1-7,W6,8.0,X,NEW YORK UNIVERSITY,NEW YORK UNIVERSITY,188029,1260362,758102.0,0.0,3587.0,0.0,0.0,0.0,0.0,12800.0,3,30.0,0,2,377.0,478.0,71.0,110.0,14760000,151751700,1967,2015,2016,Individual Landmark,INDIVIDUAL LANDMARK,6.7,6.02,2.0,6.5,1,1005240066,984817.0,204067.0,12c,22v2,40.7267934,-73.9979543
5,MN,1132,20,107.0,3.0,10023.0,155 WEST 60 STREET,C4-7,W6,8.0,X,FORDHAM UNIVERSITY,FORDHAM UNIVERSITY,194620,1025320,742820.0,282500.0,0.0,0.0,0.0,0.0,0.0,414820.0,3,20.0,211,212,622.33,431.67,0.0,0.0,65241900,162832500,1950,0,0,,,5.27,10.0,10.0,10.0,1,1011320020,988307.0,220171.0,8c,22v2,40.7709939,-73.985353
6,MN,1457,17,108.0,5.0,10065.0,450 EAST 63 STREET,R8,D6,4.0,,CORNELL UNIVERSITY,CORNELL UNIVERSITY,96300,723578,103842.0,619736.0,22642.0,0.0,81200.0,0.0,0.0,0.0,4,12.0,503,509,481.58,200.83,200.83,85.0,8685000,40519350,1950,0,0,,,7.51,6.02,0.0,6.5,1,1014570017,995597.0,216617.0,8c,22v2,40.7612328,-73.95904
7,MN,1961,1,109.0,7.0,10027.0,1145 AMSTERDAM AVENUE,R8,W6,8.0,X,TRUSTEES OF COLUMBIA UNIVERSITY,COLUMBIA UNIVERSITY,117824,"  710,600 ",710600.0,0.0,0.0,0.0,0.0,0.0,0.0,710600.0,3,9.0,0,1,261.83,450.0,70.0,200.0,3870000,68889600,1923,0,0,,,6.03,6.02,0.0,6.5,1,1019610001,995355.0,233245.0,5c,22v2,40.8068725,-73.959886
8,MN,2138,95,112.0,10.0,10032.0,617 WEST 168 STREET,R8,I1,8.0,X,COLUMBIA UNIVERSITYIN THE CITY OF NEW YO RK TRUSTE,COLUMBIA UNIVERSITY,18000,"  93,600 ",93600.0,0.0,0.0,0.0,0.0,0.0,0.0,93600.0,1,7.0,127,129,100.0,180.0,100.0,180.0,558000,4468500,1931,0,0,,,5.2,6.02,0.0,6.5,1,1021380095,1000741.0,245954.0,3b,22v2,40.8417467,-73.9403993
9,MN,2124,39,112.0,10.0,10032.0,1146 ST NICHOLAS AVENUE,C6-2,I1,8.0,X,COLUMBIA UNIVERSITYETC,COLUMBIA UNIVERSITY,2990,"  49,431 ",49431.0,0.0,49431.0,0.0,0.0,0.0,0.0,0.0,1,9.0,0,1,26.17,114.25,0.0,0.0,105750,6452550,1996,0,0,,,16.53,6.02,6.0,6.5,1,1021240039,1001059.0,245458.0,3b,22v2,40.8403847,-73.9392512
10,MN,1997,1,109.0,7.0,10027.0,2285 12 AVENUE,C6-1,W6,8.0,X,TRUSTEES OF COLUMBIA UNIVERSITY IN THE C ITY OF NEW,COLUMBIA UNIVERSITY,154876,"  478,842 ",478842.0,0.0,0.0,12556.0,0.0,0.0,0.0,466286.0,1,11.0,0,6,199.83,775.0,190.0,305.0,13536000,105875550,2019,2018,0,,,3.09,3.44,6.0,6.5,1,1019970001,995705.0,237248.0,5c,22v2,40.8178592,-73.9586149
11,MN,1975,1,109.0,7.0,10027.0,3040 BROADWAY,R8,W6,8.0,X,TEACHERS COLLEGE COLUMBIA UNIVERITY,COLUMBIA UNIVERSITY,133715,"  476,512 ",476512.0,0.0,0.0,0.0,0.0,0.0,0.0,476512.0,8,9.0,0,1,201.83,650.0,200.0,100.0,5130450,36517950,1910,0,0,,,3.56,6.02,0.0,6.5,1,1019750001,995176.0,234514.0,5c,22v2,40.8103558,-73.9605306
12,MN,535,8,102.0,1.0,10012.0,567 LA GUARDIA PLACE,R7-2,W6,8.0,X,NEW YORK UNIVERSITY,NEW YORK UNIVERSITY,51205,470400,470400.0,0.0,0.0,0.0,0.0,0.0,0.0,470400.0,1,12.0,0,1,209.0,245.0,189.0,209.0,5625000,31195800,1973,0,0,,,9.19,3.44,0.0,6.5,1,1005350008,985045.0,205013.0,12c,22v2,40.7293899,-73.9971316
13,MN,2124,35,112.0,10.0,10032.0,1148 ST NICHOLAS AVENUE,C6-2,I1,8.0,X,THE TRUSTEES OF COLUMBIA UNIVERSITY IN THE CITY OF NEW YORK,COLUMBIA UNIVERSITY,9410,"  49,431 ",49431.0,0.0,49431.0,0.0,0.0,0.0,0.0,0.0,1,9.0,0,1,104.75,103.5,0.0,0.0,330750,15886800,1996,0,0,,,5.25,6.02,6.0,6.5,1,1021240035,1001061.0,245528.0,3b,22v2,40.8405768,-73.9392438
14,MN,559,22,103.0,2.0,10003.0,126 EAST 14 STREET,C6-3X,H8,8.0,,NEW YORK UNIVERSITY,NEW YORK UNIVERSITY,41950,446076,38810.0,0.0,19000.0,19810.0,0.0,0.0,0.0,0.0,1,16.0,0,3,250.0,206.5,250.0,206.0,12375000,25570800,1999,0,0,,,10.63,9.0,6.0,9.0,1,1005590022,987499.0,206441.0,12c,22v2,40.7333089,-73.9882768
15,BK,140,111,302.0,33.0,11201.0,368 JAY STREET,C5-4,W6,8.0,C,NEW YORK UNIVERSITY,NEW YORK UNIVERSITY,42375,444970,444970.0,0.0,0.0,0.0,0.0,0.0,0.0,444970.0,1,13.0,0,0,82.83,356.5,356.5,185.75,2475000,51950250,1970,0,0,,,10.5,10.0,10.0,10.0,3,3001400111,987672.0,191722.0,16c,22v2,40.6929087,-73.98766
16,MN,2139,250,112.0,10.0,10032.0,100 HAVEN AVENUE,R8,I4,8.0,X,THE TRUSTEES OF COLUMBIA UNIVERSITY,COLUMBIA UNIVERSITY,53625,"  1,651,267 ",1651267.0,0.0,0.0,0.0,0.0,0.0,0.0,1651267.0,2,31.0,219,236,100.0,176.0,316.0,62.0,4500000,138648150,1970,1988,0,,,30.79,6.02,0.0,6.5,1,1021390250,1000013.0,247059.0,3b,22v2,40.8447809,-73.9430278
17,MN,547,30,102.0,1.0,10003.0,715 BROADWAY,C6-2G,W6,8.0,X,NEW YORK UNIVERSITY,NEW YORK UNIVERSITY,31892,366268,366268.0,0.0,363768.0,2500.0,0.0,0.0,0.0,0.0,2,12.0,0,4,184.33,200.0,184.33,200.0,5670000,26424900,1896,1988,2001,NoHo Historic District,,11.48,6.02,6.0,6.5,1,1005470030,985946.0,205056.0,12c,22v2,40.7295078,-73.9938807
18,MN,1961,57,109.0,7.0,10027.0,74 MORNINGSIDE DRIVE,R8,D7,4.0,X,TRUSTEES OF COLUMBIA UNIVERSITY,COLUMBIA UNIVERSITY,25228,"  365,100 ",10870.0,354230.0,10870.0,0.0,0.0,0.0,0.0,0.0,1,23.0,157,158,201.83,125.0,200.0,50.0,513000,19473300,1980,0,0,,,14.47,6.02,0.0,6.5,1,1019610057,995614.0,233376.0,5c,22v2,40.8072317,-73.9589503
19,MN,2139,219,112.0,10.0,10032.0,78 HAVEN AVENUE,R8,I4,8.0,X,THE TRUSTEES OF COLUMBIA UNIVERSITY IN T HE CITY OF NEW YORK,COLUMBIA UNIVERSITY,26025,"  807,327 ",807327.0,0.0,0.0,0.0,0.0,0.0,0.0,807327.0,1,31.0,0,1,85.0,200.42,52.0,124.0,2925000,74113200,1970,0,0,,,31.02,6.02,0.0,6.5,1,1021390219,999931.0,246745.0,3b,22v2,40.8439192,-73.9433249
20,BK,142,7502,302.0,33.0,11201.0,6 METROTECH CENTER,C6-4,RA,8.0,,NEW YORK UNIVERSITY,NEW YORK UNIVERSITY,46024,349527,349527.0,0.0,0.0,0.0,0.0,0.0,0.0,349527.0,1,8.0,0,2,263.52,215.0,200.0,200.0,3104100,38298600,1920,0,0,,,7.59,10.0,10.0,10.0,3,3001427502,987962.0,192193.0,12d,22v2,40.6942013,-73.986614
21,MN,1995,63,109.0,7.0,10027.0,564 RIVERSIDE DRIVE,R8,D3,3.0,,TRUSTEES OF COLUMBIA UNIVERSITY,COLUMBIA UNIVERSITY,42200,"  339,104 ",137000.0,202104.0,0.0,0.0,137000.0,0.0,0.0,0.0,1,26.0,182,182,84.17,265.0,84.17,265.0,1048500,10379700,1964,0,0,,,8.04,6.02,0.0,6.5,1,1019950063,995225.0,236888.0,5c,22v2,40.8168717,-73.9603497
22,MN,467,1,103.0,2.0,10003.0,67 3 AVENUE,C6-2A,H8,8.0,,NEW YORK UNIVERSITY,NEW YORK UNIVERSITY,36022,337600,7600.0,0.0,0.0,7600.0,0.0,0.0,0.0,0.0,2,14.0,0,6,206.0,347.0,206.0,190.0,10575000,27703800,1988,2009,0,,,9.37,6.02,6.0,6.5,1,1004670001,987591.0,205773.0,12c,22v2,40.7314754,-73.9879452
23,MN,545,15,102.0,2.0,10003.0,726 BROADWAY,M1-5/R9A,O6,5.0,X,NEW YORK UNIVERSITY,NEW YORK UNIVERSITY,35140,336645,336645.0,0.0,302067.0,34578.0,0.0,0.0,0.0,0.0,1,10.0,0,8,120.83,275.0,120.83,275.0,4275000,36343350,1919,1982,2014,NoHo Historic District,,9.58,0.0,5.0,6.5,1,1005450015,986228.0,204919.0,12c,22v2,40.7291317,-73.9928633
24,MN,532,8,102.0,1.0,10012.0,246 MERCER STREET,C6-2G,H8,8.0,X,NEW YORK UNIVERSITY,NEW YORK UNIVERSITY,40000,307312,,,,,,,,,2,20.0,0,715,200.0,200.0,172.0,174.0,2326500,23673600,1981,0,0,NoHo Historic District,,7.68,6.02,6.0,6.5,1,1005320008,985512.0,204401.0,12c,22v2,40.7277101,-73.9954468
25,MN,535,1,102.0,1.0,10012.0,44 WEST 4 STREET,R7-2,W6,8.0,X,NEW YORK UNIVERSITY,NEW YORK UNIVERSITY,51205,305900,305900.0,0.0,0.0,0.0,0.0,0.0,0.0,305900.0,2,11.0,0,2,245.58,209.0,221.0,209.0,6106050,40043250,1990,0,0,,,5.97,3.44,0.0,6.5,1,1005350001,985277.0,204864.0,12c,22v2,40.7289809,-73.9962946
26,MN,1995,53,109.0,7.0,10027.0,558 RIVERSIDE DRIVE,R8,D3,3.0,X,THE TRUSTEES OF COLUMBIA UNIVERSITY IN T HE,COLUMBIA UNIVERSITY,21075,"  256,528 ",78896.0,177632.0,0.0,0.0,78896.0,0.0,0.0,0.0,1,26.0,146,146,85.0,132.0,85.0,126.0,585000,8769150,1968,0,0,,,12.17,6.02,0.0,6.5,1,1019950053,995349.0,236901.0,5c,22v2,40.8169072,-73.9599017
27,MN,1464,30,108.0,5.0,10021.0,428 YORK AVENUE,R8,H8,8.0,X,CORNELL UNIVERSITY,CORNELL UNIVERSITY,30527,250171,,,,,,,,,1,15.0,0,3,304.0,100.42,376.0,96.0,5076000,21748950,1974,2004,0,,,8.2,6.02,0.0,6.5,1,1014640030,996413.0,218311.0,9a,22v2,40.7658813,-73.9560913
28,MN,843,22,105.0,2.0,10003.0,21 UNION SQUARE,C6-2A,H8,8.0,,NY UNIVERSITY,NEW YORK UNIVERSITY,28125,238204,26683.0,0.0,11500.0,5730.0,9453.0,0.0,0.0,0.0,3,12.0,0,4,89.5,216.83,89.5,216.0,8865000,22910400,1986,0,0,,,8.47,6.02,6.0,6.5,1,1008430022,986603.0,207573.0,12c,22v2,40.7364162,-73.9915094
29,MN,538,40,102.0,1.0,10012.0,566 LA GUARDIA PLACE,R7-2,W6,8.0,X,NEW YORK UNIVERSITY,NEW YORK UNIVERSITY,23402,232930,232930.0,0.0,0.0,0.0,0.0,0.0,0.0,232930.0,1,11.0,0,1,210.0,121.0,119.42,209.0,3159450,53072100,2000,0,0,,,9.95,3.44,0.0,6.5,1,1005380040,984829.0,205156.0,12c,22v2,40.7297825,-73.9979109
30,MN,559,12,103.0,2.0,10003.0,106 EAST 14 STREET,C6-4,H8,8.0,X,NEW YORK UNIVERSITY,NEW YORK UNIVERSITY,18447,216267,1000.0,0.0,0.0,1000.0,0.0,0.0,0.0,0.0,1,20.0,172,173,100.0,206.5,100.0,190.0,5850000,15179850,1998,2018,0,,,11.72,10.0,10.0,10.0,1,1005590012,987230.0,206581.0,12c,22v2,40.7336932,-73.9892473
31,MN,1998,17,109.0,7.0,10027.0,615 WEST 131 STREET,C6-1,O5,5.0,X,TRUSTEES OF COLUMBIA UNIVERSITY IN THE C ITY OF NEW,COLUMBIA UNIVERSITY,34970,"  210,000 ",210000.0,0.0,176400.0,33600.0,0.0,0.0,0.0,0.0,1,6.0,0,6,175.0,199.83,175.0,200.0,945000,22653000,1924,1997,2006,,,6.01,3.44,6.0,6.5,1,1019980017,995915.0,237427.0,5c,22v2,40.8183502,-73.9578559
32,MN,541,1,102.0,1.0,10012.0,40 WASHINGTON SQUARE S,R7-2,W6,8.0,X,NEW YORK UNIVERSITY,NEW YORK UNIVERSITY,41835,202521,202521.0,0.0,0.0,0.0,0.0,0.0,0.0,202521.0,1,5.0,0,1,200.17,209.0,200.16,209.0,4770000,17555400,1951,0,0,South Village Historic District,,4.84,3.44,0.0,6.5,1,1005410001,984392.0,205434.0,12c,22v2,40.7305455,-73.9994876
33,MN,931,24,106.0,2.0,10010.0,339 EAST 25 STREET,R8,W6,8.0,X,NEW YORK UNIVERSITY,NEW YORK UNIVERSITY,24688,198380,198380.0,0.0,28502.0,0.0,0.0,0.0,0.0,0.0,2,6.0,0,3,197.5,125.0,49.42,100.0,5554800,84618900,1921,0,0,,,8.04,6.02,0.0,6.5,1,1009310024,990422.0,208380.0,8d,22v2,40.7386294,-73.9777281
34,BX,3273,75,206.0,15.0,10458.0,685 EAST FORDHAM ROAD,R6,G1,10.0,X,FORDHAM UNIVERSITY,FORDHAM UNIVERSITY,166500,194442,,,,,,,,,1,4.0,0,1,517.75,322.08,200.0,243.0,1498500,3816900,2005,0,0,,,1.17,2.43,0.0,4.8,2,2032730075,1016961.0,252253.0,3c,22v2,40.8589904,-73.8817473
35,MN,1962,19,109.0,7.0,10027.0,88 MORNINGSIDE DRIVE,R8,D9,3.0,,TRUSTEES OF COLUMBIA UNIVERSITY,COLUMBIA UNIVERSITY,17661,"  189,905 ",12785.0,177120.0,0.0,12000.0,0.0,0.0,0.0,785.0,1,15.0,285,288,100.92,175.0,98.0,164.0,508500,11642400,1925,1986,0,,,10.75,6.02,0.0,6.5,1,1019620019,995742.0,233661.0,5c,22v2,40.8080138,-73.9584874
36,MN,1986,65,109.0,7.0,10027.0,3280 BROADWAY,C6-1,O6,5.0,P,THE TRUSTEES OF COLUMBIA UNIVERSITY IN THE CITY OF NEW YORK,COLUMBIA UNIVERSITY,30675,"  184,044 ",184044.0,0.0,134612.0,35332.0,14100.0,0.0,0.0,0.0,1,8.0,0,11,199.83,185.0,199.0,185.0,549000,10720800,1927,1990,1995,,,6.0,3.44,6.0,6.5,1,1019860065,996489.0,237399.0,6a,22v2,40.8182726,-73.9557822
37,MN,556,48,103.0,2.0,10003.0,120 EAST 12 STREET,C6-2A,H8,8.0,X,NEW YORK UNIVERSITY,NEW YORK UNIVERSITY,17645,181380,1380.0,0.0,0.0,0.0,0.0,0.0,0.0,0.0,1,26.0,0,212,125.0,164.6,0.0,0.0,2699550,15285150,2006,0,0,,,10.28,6.02,6.0,6.5,1,1005560048,987225.0,206004.0,12c,22v2,40.7321095,-73.9892656
38,MN,930,20,106.0,2.0,10010.0,345 EAST 24 STREET,R8,W6,8.0,X,NEW YORK UNIVERSITY,NEW YORK UNIVERSITY,23777,180102,180102.0,0.0,180102.0,0.0,0.0,0.0,0.0,0.0,1,11.0,0,4,98.75,225.0,150.0,77.67,3262500,16510050,1977,2009,2009,,,7.57,6.02,0.0,6.5,1,1009300020,990235.0,208145.0,8d,22v2,40.7379845,-73.9784031
39,MN,547,1,102.0,1.0,10003.0,32 WAVERLY PLACE,R7-2,W6,8.0,X,NEW YORK UNIVERSITY,NEW YORK UNIVERSITY,17859,180000,180000.0,0.0,0.0,0.0,0.0,0.0,0.0,180000.0,1,10.0,0,1,180.08,99.17,180.08,99.0,3802500,14557950,1900,1922,0,,,10.08,3.44,0.0,6.5,1,1005470001,985470.0,205357.0,12c,22v2,40.7303341,-73.9955981
40,MN,552,24,102.0,1.0,10011.0,35 WASHINGTON SQUARE W,R7-2,H8,8.0,X,NEW YORK UNIVERSITY,NEW YORK UNIVERSITY,16065,179800,,,,,,,,,1,16.0,0,1,110.0,150.0,110.0,150.0,5099850,12121200,1955,1989,2014,Greenwich Village Historic District,,11.19,3.44,0.0,6.5,1,1005520024,984368.0,205811.0,12c,22v2,40.7315803,-73.9995742
41,MN,1895,55,109.0,7.0,10025.0,2901 BROADWAY,R8,D6,4.0,,TRUSTEES OF COLUMBIA UNIVERSITY,COLUMBIA UNIVERSITY,17592,"  178,897 ",13687.0,165210.0,1687.0,12000.0,0.0,0.0,0.0,0.0,2,12.0,131,141,175.92,100.0,98.0,174.0,1260000,10157400,1910,0,0,,,10.17,6.02,0.0,6.5,1,1018950055,993804.0,233117.0,5c,22v2,40.806523,-73.9654888
42,MN,1881,3,107.0,7.0,10025.0,2824 BROADWAY,R9A,W6,8.0,,TRUSTEES OF COLUMBIA UNIVERSITY,COLUMBIA UNIVERSITY,17104,"  161,502 ",161502.0,0.0,11049.0,11838.0,0.0,0.0,0.0,68762.0,1,12.0,27,29,136.83,125.0,136.83,125.0,2052000,26427150,1998,0,0,,,9.44,7.52,0.0,7.5,1,1018810003,993529.0,232090.0,5d,22v2,40.8037044,-73.9664836
43,MN,540,14,102.0,1.0,10012.0,130 MAC DOUGAL STREET,R7-2,H8,8.0,X,NEW YORK UNIVERSITY,NEW YORK UNIVERSITY,17351,153348,40600.0,0.0,40600.0,0.0,0.0,0.0,0.0,0.0,2,14.0,0,2,90.67,175.0,175.0,116.0,5844150,8551350,1852,0,0,South Village Historic District,,8.84,3.44,0.0,6.5,1,1005400014,984272.0,205267.0,12c,22v2,40.7300871,-73.9999206
44,MN,1975,29,109.0,7.0,10027.0,1220 AMSTERDAM AVENUE,R8,D9,3.0,X,TEACHERS COLLEGE COLUMBIA UNIVERITY,COLUMBIA UNIVERSITY,25125,"  153,000 ",15800.0,137200.0,15800.0,0.0,0.0,0.0,0.0,0.0,2,9.0,356,356,201.83,125.0,201.83,125.0,711000,8361900,1901,1950,0,,,6.09,6.02,0.0,6.5,1,1019750029,995518.0,234319.0,5c,22v2,40.8098201,-73.9592954
45,SI,593,500,501.0,49.0,10301.0,300 HOWARD AVENUE,R3-1,W6,8.0,X,ST JOHNS UNIVERSITY,ST JOHN'S UNIVERSITY,718740,146855,146855.0,0.0,0.0,0.0,0.0,0.0,0.0,146855.0,10,2.0,0,1,2117.0,1161.42,122.0,56.0,9702900,22605750,1959,0,0,,,0.2,0.5,0.0,1.0,5,5005930500,959079.0,165643.0,21b,22v2,40.6212924,-74.090671
46,MN,465,1,103.0,2.0,10003.0,31 3 AVENUE,C6-2A,H8,8.0,,NEW YORK UNIVERSITY,NEW YORK UNIVERSITY,27583,146583,7708.0,0.0,0.0,7708.0,0.0,0.0,0.0,0.0,1,16.0,0,7,184.42,137.0,163.0,122.0,8100000,20538000,1986,0,0,,,5.31,6.02,6.0,6.5,1,1004650001,987306.0,205330.0,12c,22v2,40.7302595,-73.9889737
47,MN,1373,160,108.0,5.0,10044.0,22 NORTH LOOP ROAD,C4-5,H2,5.0,C,CORNELL UNIVERSITY,CORNELL UNIVERSITY,18555,142554,,,,,,,,,1,19.0,0,197,159.47,166.7,113.5,127.0,2688750,13028400,2018,2018,0,,,7.68,3.44,3.4,6.5,1,1013730160,996560.0,214690.0,9b,22v2,40.7559424,-73.9555673
48,MN,568,1,102.0,2.0,10003.0,35 5 AVENUE,R10,H8,8.0,X,NEW YORK UNIVERSITY,NEW YORK UNIVERSITY,10390,141091,19840.0,0.0,0.0,0.0,0.0,0.0,0.0,19840.0,1,15.0,0,1,80.0,124.5,80.0,124.0,2920500,9484650,1925,0,0,Greenwich Village Historic District,,13.58,10.0,0.0,10.0,1,1005680001,985632.0,206494.0,12c,22v2,40.7334548,-73.9950134
49,MN,931,21,106.0,2.0,10010.0,334 EAST 26 STREET,R8,H8,8.0,X,NEW YORK UNIVERSITY,NEW YORK UNIVERSITY,19750,140423,,,,,,,,,1,25.0,0,1,100.0,197.5,60.0,48.0,4446000,16163100,1984,0,0,,,7.11,6.02,0.0,6.5,1,1009310021,990321.0,208436.0,8d,22v2,40.7387832,-73.9780925
50,MN,2139,275,112.0,10.0,10032.0,154 HAVEN AVENUE,R8,I4,8.0,X,TRUSTEES OF COLUMBIA UNIVERSITY,COLUMBIA UNIVERSITY,17043,"  84,442 ",84442.0,0.0,0.0,0.0,0.0,0.0,0.0,84442.0,1,10.0,0,6,176.0,60.0,174.0,60.0,450000,8369100,1974,0,0,,,4.95,6.02,0.0,6.5,1,1021390275,1000071.0,247604.0,3b,22v2,40.8462767,-73.9428169
51,MN,562,30,102.0,2.0,10003.0,787 BROADWAY,C6-1,H8,8.0,X,NEW YORK UNIVERSITY,NEW YORK UNIVERSITY,9150,135910,,,,,,,,,1,16.0,0,1,53.5,168.33,53.5,168.0,2925000,8768700,1929,0,0,,,14.85,3.44,6.0,6.5,1,1005620030,986518.0,205993.0,12c,22v2,40.7320795,-73.9918166
52,MN,1963,60,109.0,7.0,10027.0,1255 AMSTERDAM AVENUE,R8,W6,8.0,X,TRUSTEES OF COLUMBIA UNIVERSITY,COLUMBIA UNIVERSITY,25669,"  130,228 ",130228.0,0.0,0.0,0.0,0.0,0.0,0.0,130228.0,1,11.0,0,2,155.67,100.0,155.0,90.0,1020600,58181400,2013,0,0,,,5.07,6.02,0.0,6.5,1,1019630060,995853.0,234423.0,5c,22v2,40.8101051,-73.9580851
53,MN,552,60,102.0,1.0,10011.0,29 WASHINGTON SQUARE W,R7-2,H8,8.0,,NEW YORK UNIVERSITY,NEW YORK UNIVERSITY,11400,128601,3615.0,0.0,3615.0,0.0,0.0,0.0,0.0,0.0,1,15.0,65,68,123.25,88.25,121.0,90.0,1674000,2981700,1927,1988,0,Greenwich Village Historic District,,11.28,3.44,0.0,6.5,1,1005520060,984525.0,206001.0,12c,22v2,40.7321018,-73.9990077
54,MN,545,6,102.0,2.0,10003.0,708 BROADWAY,M1-5/R9A,O6,5.0,,NEW YORK UNIVERSITY,NEW YORK UNIVERSITY,16740,127143,127143.0,0.0,112143.0,15000.0,0.0,0.0,0.0,0.0,2,10.0,0,18,25.0,275.08,25.0,137.0,2920500,26331750,1896,1989,2018,NoHo Historic District,,7.6,0.0,5.0,6.5,1,1005450006,986132.0,204701.0,12c,22v2,40.7285334,-73.9932098
55,MN,1896,65,109.0,7.0,10025.0,2941 BROADWAY,R8,D6,4.0,,TRUSTEES OF COLUMBIA UNIVERSITY,COLUMBIA UNIVERSITY,12614,"  126,478 ",12184.0,114294.0,0.0,8000.0,0.0,0.0,0.0,4184.0,1,12.0,94,96,100.92,125.0,100.0,112.0,720000,5033250,1912,0,0,,,10.03,6.02,0.0,6.5,1,1018960065,994029.0,233549.0,5c,22v2,40.8077085,-73.9646754
56,MN,570,42,102.0,2.0,10003.0,7 EAST 12 STREET,C6-1,W6,8.0,X,NEW YORK UNIVERSITY,NEW YORK UNIVERSITY,12700,125588,125588.0,0.0,0.0,0.0,0.0,0.0,0.0,125588.0,1,12.0,0,1,100.0,127.25,100.0,100.0,2925000,20677050,1947,1972,0,,,9.89,3.44,6.0,6.5,1,1005700042,986009.0,206891.0,12c,22v2,40.7345444,-73.993653
57,MN,546,11,102.0,1.0,10003.0,35 WEST 4 STREET,R7-2,W6,8.0,X,NEW YORK UNIVERSITY,NEW YORK UNIVERSITY,6750,125450,125450.0,0.0,0.0,0.0,0.0,0.0,0.0,125450.0,1,13.0,0,2,100.0,95.33,100.0,95.0,1138500,10154250,1930,1982,2001,,,18.59,3.44,0.0,6.5,1,1005460011,985390.0,205042.0,12c,22v2,40.7294695,-73.9958868
58,MN,1893,3,107.0,6.0,10025.0,362 RIVERSIDE DRIVE,R8,D3,3.0,,TRUSTEES OF COLUMBIA UNIVERSITY,COLUMBIA UNIVERSITY,15183,"  124,458 ",0.0,124458.0,0.0,0.0,0.0,0.0,0.0,0.0,1,11.0,41,41,151.83,100.0,152.0,100.0,585000,13944600,1905,1985,0,Morningside Heights Historic District,,8.2,6.02,0.0,6.5,1,1018930003,992944.0,232142.0,5d,22v2,40.8038478,-73.9685966
59,MN,1883,59,109.0,7.0,10025.0,2874 BROADWAY,R8,H8,8.0,,TRUSTEES OF COLUMBIA UNIVERSITY,COLUMBIA UNIVERSITY,15771,"  123,205 ",10000.0,0.0,0.0,10000.0,0.0,0.0,0.0,0.0,1,10.0,0,8,126.17,125.0,126.0,114.0,1064700,5671350,1908,0,0,Morningside Heights Historic District,,7.81,6.02,0.0,6.5,1,1018830059,993802.0,232586.0,5c,22v2,40.8050655,-73.9654968
60,MN,541,18,102.0,1.0,10012.0,51 WASHINGTON SQUARE S,R7-2,W6,8.0,X,NEW YORK UNIVERSITY,NEW YORK UNIVERSITY,10637,122500,122500.0,0.0,0.0,0.0,0.0,0.0,0.0,122500.0,2,10.0,1,1,96.08,100.17,71.0,90.0,1912500,16699050,1900,1995,0,Individual Landmark,INDIVIDUAL LANDMARK,11.52,3.44,0.0,6.5,1,1005410018,984611.0,205355.0,12c,22v2,40.7303287,-73.9986975
61,MN,962,108,106.0,4.0,10016.0,540 1 AVENUE,R8,I5,8.0,,NEW YORK UNIVERSITY,NEW YORK UNIVERSITY,58156,413850,413850.0,0.0,413850.0,0.0,0.0,0.0,0.0,0.0,1,24.0,0,1,291.96,254.0,0.0,0.0,10939050,55058850,1963,0,0,,,7.12,6.02,0.0,6.5,1,1009620108,991425.0,209624.0,8d,22v2,40.7420431,-73.9741074
62,MN,535,36,102.0,1.0,10012.0,17 WEST 3 STREET,R7-2,W6,8.0,X,NEW YORK UNIVERSITY,NEW YORK UNIVERSITY,21945,119170,119170.0,0.0,0.0,0.0,0.0,0.0,0.0,119170.0,1,13.0,0,3,105.0,209.0,105.0,209.0,2421000,13457250,1975,0,0,,,5.43,3.44,0.0,6.5,1,1005350036,985450.0,204752.0,12c,22v2,40.7286735,-73.9956704
63,MN,544,50,102.0,2.0,10003.0,16 COOPER SQUARE,M1-6/R10,W9,8.0,,NEW YORK UNIVERSITY,NEW YORK UNIVERSITY,17375,117391,117391.0,0.0,0.0,22000.0,0.0,0.0,0.0,95391.0,1,7.0,0,2,126.0,176.0,126.0,176.0,1471500,13951800,1901,1966,2006,NoHo Historic District,,6.76,10.0,10.0,10.0,1,1005440050,986534.0,204476.0,12c,22v2,40.7279157,-73.9917594
64,MN,548,4,102.0,1.0,10003.0,5 UNIVERSITY PLACE,R7-2,H8,8.0,X,NEW YORK UNIVERSITY,NEW YORK UNIVERSITY,22220,116237,,,,,,,,,1,9.0,0,302,132.67,175.0,132.0,170.0,4999500,9168300,1962,0,0,,,5.23,3.44,0.0,6.5,1,1005480004,985689.0,205580.0,12c,22v2,40.7309461,-73.9948079
65,MN,546,15,102.0,1.0,10003.0,14 WASHINGTON PLACE,R7-2,H8,8.0,,NEW YORK UNIVERSITY,NEW YORK UNIVERSITY,10997,115694,6600.0,0.0,0.0,6600.0,0.0,0.0,0.0,0.0,1,14.0,151,155,114.25,96.25,114.0,96.0,585000,2959200,1931,0,0,,,10.52,3.44,0.0,6.5,1,1005460015,985574.0,205041.0,12c,22v2,40.7294667,-73.9952229
66,BK,131,25,302.0,33.0,11201.0,101 TECH PLACE,C6-4,H8,8.0,X,NEW YORK UNIVERSITY,NEW YORK UNIVERSITY,19176,115591,,,,,,,,,1,18.0,0,222,126.88,144.0,120.0,50.0,1066500,9046800,2002,0,0,,,6.03,10.0,10.0,10.0,3,3001310025,988041.0,192563.0,12d,22v2,40.6952169,-73.9863289
67,MN,576,46,102.0,3.0,10011.0,60 5 AVENUE,C6-4,O3,5.0,X,NEW YORK UNIVERSITY,NEW YORK UNIVERSITY,12885,113500,113500.0,0.0,113500.0,0.0,0.0,0.0,0.0,0.0,1,8.0,0,1,103.08,125.0,103.08,125.0,2214000,17572950,1924,1986,2015,,,8.81,10.0,10.0,10.0,1,1005760046,985693.0,207061.0,12c,22v2,40.7350111,-73.9947932
68,MN,552,26,102.0,1.0,10011.0,37 WASHINGTON SQUARE W,R7-2,H8,8.0,,NEW YORK UNIVERSITY,NEW YORK UNIVERSITY,8250,110447,4260.0,0.0,4260.0,0.0,0.0,0.0,0.0,0.0,1,16.0,63,67,82.5,116.0,82.5,92.0,819000,2794500,1929,0,0,Greenwich Village Historic District,,13.39,3.44,0.0,6.5,1,1005520026,984339.0,205715.0,12c,22v2,40.7313168,-73.9996789
69,MN,1962,56,109.0,7.0,10027.0,90 MORNINGSIDE DRIVE,R8,D9,3.0,,TRUSTEES OF COLUMBIA UNIVERSITY,COLUMBIA UNIVERSITY,22456,"  110,280 ",13900.0,96380.0,10900.0,3000.0,0.0,0.0,0.0,0.0,1,6.0,66,69,163.33,127.5,160.0,130.0,427950,3270150,1910,1988,0,,,4.91,6.02,0.0,6.5,1,1019620056,995840.0,233821.0,5c,22v2,40.8084528,-73.9581331
70,MN,1895,39,109.0,7.0,10025.0,410 RIVERSIDE DRIVE,R8,D3,3.0,,TRUSTEES OF COLUMBIA UNIVERSITY,COLUMBIA UNIVERSITY,9942,"  108,401 ",0.0,108401.0,0.0,0.0,0.0,0.0,0.0,0.0,1,12.0,57,57,104.33,112.0,104.0,102.0,351000,2791800,1910,1989,0,Morningside Heights Historic District,,10.9,6.02,0.0,6.5,1,1018950039,993432.0,233283.0,5c,22v2,40.806979,-73.9668323
71,MN,1963,19,109.0,7.0,10027.0,106 MORNINGSIDE DRIVE,R8,D3,3.0,,TEACHERS COLLEGE COLUMBIA UNIVERITY,COLUMBIA UNIVERSITY,17584,"  108,400 ",0.0,108400.0,0.0,0.0,0.0,0.0,0.0,0.0,1,9.0,87,87,101.83,167.17,99.0,155.0,369900,4252950,1912,0,0,,,6.16,6.02,0.0,6.5,1,1019630019,995945.0,234147.0,5c,22v2,40.8093475,-73.9577532
72,MN,546,21,102.0,1.0,10003.0,19 WEST 4TH STREET,R7-2,O6,5.0,X,NEW YORK UNIVERSITY,NEW YORK UNIVERSITY,11047,100628,100628.0,0.0,95628.0,5000.0,0.0,0.0,0.0,0.0,1,8.0,0,2,192.5,71.42,192.5,75.42,1017000,9479250,1900,1981,2006,,,9.11,3.44,0.0,6.5,1,1005460021,985636.0,204927.0,12c,22v2,40.7291538,-73.9949993
73,MN,1995,44,109.0,7.0,10027.0,628 WEST 125 STREET,R8,W6,8.0,X,THE TRUSTEES OF COLUMBIA UNIVERSITY IN T HE CITY OF,COLUMBIA UNIVERSITY,27609,"  95,974 ",95974.0,0.0,0.0,0.0,0.0,0.0,0.0,95974.0,1,4.0,0,2,184.08,150.0,184.0,150.0,918000,6667650,1934,1982,0,,,3.48,6.02,0.0,6.5,1,1019950044,995445.0,236744.0,5c,22v2,40.8164762,-73.9595551
74,MN,1867,9,109.0,7.0,10025.0,411 WEST 114 STREET,R8,I5,8.0,,TRUSTEES OF COLUMBIA UNIVERSITY IN THE CITY OF NEW YORK,COLUMBIA UNIVERSITY,10092,"  42,672 ",42672.0,0.0,0.0,0.0,0.0,0.0,0.0,42672.0,1,6.0,24,24,100.0,100.92,100.0,86.0,409500,2531250,1910,0,0,,,4.23,6.02,0.0,6.5,1,1018670009,995068.0,232674.0,5c,22v2,40.8053056,-73.9609237
75,MN,547,8,102.0,1.0,10003.0,23 WASHINGTON PLACE,R7-2,W6,8.0,X,NEW YORK UNIVERSITY,NEW YORK UNIVERSITY,10067,91402,91402.0,0.0,0.0,0.0,0.0,0.0,0.0,91402.0,1,10.0,0,1,100.67,100.0,100.67,100.0,2097450,8288550,1901,0,0,Individual Landmark,INDIVIDUAL LANDMARK,9.08,3.44,0.0,6.5,1,1005470008,985533.0,205264.0,12c,22v2,40.7300788,-73.9953708
76,MN,1884,61,109.0,7.0,10025.0,2890 BROADWAY,R8,H8,8.0,,THE TRUSTEES OF COLUMBIA UNIVERSITY IN T HE,COLUMBIA UNIVERSITY,12615,"  91,116 ",11606.0,0.0,0.0,11606.0,0.0,0.0,0.0,0.0,1,8.0,0,4,100.92,125.0,101.0,112.0,1506150,6098850,1908,0,0,Morningside Heights Historic District,,7.22,6.02,0.0,6.5,1,1018840061,993932.0,232820.0,5c,22v2,40.8057077,-73.9650269
77,MN,1963,1,109.0,7.0,10027.0,1221 AMSTERDAM AVENUE,R8,D6,4.0,,TRUSTEES OF COLUMBIA UNIVERSITY,COLUMBIA UNIVERSITY,12615,"  90,827 ",3697.0,87130.0,0.0,3697.0,0.0,0.0,0.0,0.0,1,10.0,78,80,100.92,125.0,100.0,115.0,311850,3783150,1914,1984,0,,,7.2,6.02,0.0,6.5,1,1019630001,995681.0,234175.0,5c,22v2,40.8094247,-73.9587069
78,MN,1464,21,108.0,5.0,10021.0,1293 YORK AVENUE,R10,H8,8.0,X,CORNELL UNIVERSITY,CORNELL UNIVERSITY,16561,89250,,,,,,,,,1,10.0,0,1,164.92,100.42,100.0,141.0,2515500,8595000,1954,1988,0,,,5.39,10.0,0.0,10.0,1,1014640021,996601.0,218087.0,9a,22v2,40.7652662,-73.9554131
79,MN,1895,23,109.0,7.0,10025.0,2891 BROADWAY,R8,D7,4.0,,TRUSTEES OF COLUMBIA UNIVERSITY,COLUMBIA UNIVERSITY,10092,"  88,332 ",5000.0,83332.0,0.0,5000.0,0.0,0.0,0.0,0.0,1,13.0,250,255,100.92,100.0,100.0,88.0,1170000,8145450,1911,1988,0,Morningside Heights Historic District,,8.75,6.02,0.0,6.5,1,1018950023,993712.0,232947.0,5c,22v2,40.8060565,-73.9658214
80,MN,1962,70,109.0,7.0,10027.0,1211 AMSTERDAM AVENUE,R8,D6,4.0,,TRUSTEES OF COLUMBIA UNIVERSITY,COLUMBIA UNIVERSITY,12138,"  87,979 ",6159.0,81820.0,0.0,6159.0,0.0,0.0,0.0,0.0,1,10.0,111,115,80.92,150.0,80.0,142.0,312300,5364000,1913,0,0,,,7.25,6.02,0.0,6.5,1,1019620070,995601.0,234005.0,5c,22v2,40.8089582,-73.9589961
81,MN,930,34,106.0,2.0,10010.0,421 1 AVENUE,R8,W5,8.0,X,NEW YORK UNIVERSITY,NEW YORK UNIVERSITY,12350,87515,87515.0,0.0,87515.0,0.0,0.0,0.0,0.0,0.0,2,11.0,0,3,125.0,98.75,97.0,122.0,1687500,8195850,1929,1984,0,,,7.09,6.02,0.0,6.5,1,1009300034,990323.0,208199.0,8d,22v2,40.7381327,-73.9780855
82,MN,1962,38,109.0,7.0,10027.0,1201 AMSTERDAM AVENUE,R8,D6,4.0,,TRUSTEES OF COLUMBIA UNIVERSITY,COLUMBIA UNIVERSITY,12138,"  87,271 ",4023.0,83248.0,0.0,4023.0,0.0,0.0,0.0,0.0,1,11.0,116,119,80.92,150.0,81.0,135.0,214200,6065550,1912,1987,0,,,7.19,6.02,0.0,6.5,1,1019620038,995560.0,233932.0,5c,22v2,40.8087579,-73.9591444
83,MN,550,13,102.0,1.0,10003.0,1 1/2 5 AVENUE,R6,H8,8.0,,NEW YORK UNIVERSITY,NEW YORK UNIVERSITY,33275,83277,,,,,,,,,10,5.0,92,92,218.42,142.17,219.0,65.0,972000,1694250,1932,0,0,Greenwich Village Historic District,,2.5,2.43,0.0,4.8,1,1005500013,985278.0,205751.0,12c,22v2,40.7314155,-73.9962908
84,MN,1867,42,109.0,7.0,10025.0,1125 AMSTERDAM AVENUE,R8,W5,8.0,X,TRUSTEES OF COLUMBIA UNIVERSITY,COLUMBIA UNIVERSITY,10068,"  83,170 ",83170.0,0.0,0.0,0.0,0.0,0.0,0.0,83170.0,1,10.0,0,1,100.68,100.0,100.68,100.0,351450,19206900,1997,0,0,,,8.26,6.02,0.0,6.5,1,1018670042,995018.0,233001.0,5c,22v2,40.8062032,-73.9611038
85,MN,1976,20,109.0,7.0,10027.0,509 WEST 121 STREET,R8,D3,3.0,X,TEACHERS COLLEGE COLUMBIA UNIVERITY,COLUMBIA UNIVERSITY,14525,"  81,632 ",0.0,81632.0,0.0,0.0,0.0,0.0,0.0,0.0,1,8.0,110,110,150.0,101.0,150.0,79.0,337500,5267700,1911,1989,0,,,5.62,6.02,0.0,6.5,1,1019760020,995451.0,234598.0,5c,22v2,40.810586,-73.959537
86,QN,7021,100,408.0,24.0,11432.0,81-50D UTOPIA PARKWAY,R4,W6,8.0,X,ST JOHN'S UNIVERSITY,ST JOHN'S UNIVERSITY,23944,80000,80000.0,0.0,0.0,0.0,0.0,0.0,0.0,80000.0,1,4.0,0,0,146.0,164.0,122.0,162.0,558000,11034450,1972,1987,0,,,3.34,0.75,0.0,2.0,4,4070210100,1041940.0,202319.0,14c,22v2,40.7218075,-73.7918755
87,MN,1884,11,109.0,7.0,10025.0,531 WEST 112 STREET,R8,D3,3.0,,TRUSTEES OF COLUMBIA UNIVERSITY,COLUMBIA UNIVERSITY,10100,"  75,569 ",1301.0,74268.0,0.0,0.0,0.0,0.0,0.0,1301.0,1,8.0,41,41,100.0,100.92,100.0,85.0,351450,1423350,1912,0,0,,,7.48,6.02,0.0,6.5,1,1018840011,994071.0,232626.0,5c,22v2,40.805175,-73.9645251
88,BX,3273,209,206.0,15.0,10458.0,2540 BELMONT AVENUE,C4-5D,W6,8.0,X,FORDHAM UNIVERSITY,FORDHAM UNIVERSITY,39123,75065,75065.0,0.0,0.0,0.0,0.0,0.0,0.0,75065.0,1,5.0,0,1,207.0,189.17,125.0,100.0,330750,6225750,1931,2017,2018,,,1.92,4.2,4.2,4.2,2,2032730209,1016648.0,252024.0,3c,22v2,40.858363,-73.8828799
89,MN,1990,29,109.0,7.0,10027.0,39 CLAREMONT AVENUE,R8,D3,3.0,,TRUSTEES OF COLUMBIA UNIVERSITY,COLUMBIA UNIVERSITY,10000,"  74,634 ",0.0,74634.0,0.0,0.0,0.0,0.0,0.0,0.0,1,11.0,44,44,100.0,100.0,100.0,80.0,232650,2212650,1911,1988,0,Morningside Heights Historic District,,7.46,6.02,0.0,6.5,1,1019900029,994179.0,234382.0,5c,22v2,40.8099946,-73.9641324
90,MN,1896,74,109.0,7.0,10027.0,602 WEST 116 STREET,R8,D3,3.0,,THE TRUSTEES OF COLUMBIA UNIVERSITY OF THE CITY OF NEW YORK,COLUMBIA UNIVERSITY,7569,"  73,800 ",0.0,73800.0,0.0,0.0,0.0,0.0,0.0,0.0,1,12.0,45,45,75.0,100.92,73.0,80.0,405000,1616850,1908,1985,0,Morningside Heights Historic District,,9.75,6.02,0.0,6.5,1,1018960074,994012.0,233679.0,5c,22v2,40.8080653,-73.9647367
91,MN,1963,48,109.0,7.0,10027.0,110 MORNINGSIDE DRIVE,R8,D1,3.0,,TRUSTEES OF COLUMBIA UNIVERSITY,COLUMBIA UNIVERSITY,16381,"  72,222 ",0.0,72222.0,0.0,0.0,0.0,0.0,0.0,0.0,1,6.0,52,52,105.33,176.75,105.0,152.0,298800,3100500,1910,1986,0,,,4.41,6.02,0.0,6.5,1,1019630048,996002.0,234293.0,5c,22v2,40.8097481,-73.9575471
92,MN,547,20,102.0,1.0,10003.0,15 WASHINGTON PLACE,R7-2,W6,8.0,,NEW YORK UNIVERSITY,NEW YORK UNIVERSITY,15000,71270,71270.0,0.0,0.0,0.0,0.0,0.0,0.0,71270.0,1,6.0,0,1,150.0,100.0,144.0,80.0,675000,1831500,1941,0,0,,,4.75,3.44,0.0,6.5,1,1005470020,985699.0,205156.0,12c,22v2,40.7297824,-73.9947719
93,MN,546,10,102.0,1.0,10003.0,18 WASHINGTON PLACE,R7-2,W6,8.0,X,NEW YORK UNIVERSITY,NEW YORK UNIVERSITY,8779,69800,69800.0,0.0,0.0,7158.0,0.0,0.0,0.0,62642.0,1,8.0,0,3,90.5,97.08,90.5,97.0,1480500,10228500,1910,2014,0,,,7.95,3.44,0.0,6.5,1,1005460010,985448.0,205123.0,12c,22v2,40.7296918,-73.9956775
94,MN,1962,61,109.0,7.0,10027.0,414 WEST 120 STREET,R8,D1,3.0,,TRUSTEES OF COLUMBIA UNIVERSITY,COLUMBIA UNIVERSITY,15000,"  64,842 ",0.0,64842.0,0.0,0.0,0.0,0.0,0.0,0.0,1,6.0,87,87,150.0,100.0,150.0,87.0,292050,2750400,1926,1987,0,,,4.32,6.02,0.0,6.5,1,1019620061,995730.0,233920.0,5c,22v2,40.8087247,-73.9585303
95,MN,531,20,102.0,1.0,10003.0,383 LAFAYETTE STREET,M1-5/R9A,O2,5.0,X,NEW YORK UNIVERSITY,NEW YORK UNIVERSITY,14030,64347,64347.0,0.0,64347.0,0.0,0.0,0.0,0.0,0.0,1,4.0,0,4,79.0,170.67,79.0,171.0,1354500,7931700,1913,1988,2015,NoHo Historic District,,4.59,0.0,5.0,6.5,1,1005310020,986228.0,204326.0,12c,22v2,40.7275041,-73.9928635
96,MN,1994,72,109.0,7.0,10027.0,195 CLAREMONT AVENUE,R8,D7,4.0,,TRUSTEES OF COLUMBIA UNIVERSITY,COLUMBIA UNIVERSITY,13650,"  63,194 ",1422.0,61772.0,0.0,1422.0,0.0,0.0,0.0,0.0,1,6.0,58,59,150.0,91.0,140.0,90.0,314550,3031650,1925,1988,0,,,4.63,6.02,0.0,6.5,1,1019940072,995268.0,236333.0,5c,22v2,40.8153483,-73.9601952
97,BK,142,50,302.0,33.0,11201.0,315 JAY STREET,C6-4,W6,8.0,X,NEW YORK UNIVERSITY,NEW YORK UNIVERSITY,27312,63000,63000.0,0.0,0.0,0.0,0.0,0.0,0.0,63000.0,1,,0,1,150.42,215.0,150.0,215.0,1885050,8378550,1930,0,0,,,2.31,10.0,10.0,10.0,3,3001420050,987944.0,192362.0,12d,22v2,40.6946652,-73.9866788
98,MN,1896,87,109.0,7.0,10025.0,435 RIVERSIDE DRIVE,R8,D3,3.0,,TRUSTEES OF COLUMBIA UNIVERSITY,COLUMBIA UNIVERSITY,5750,"  61,819 ",0.0,61819.0,0.0,0.0,0.0,0.0,0.0,0.0,1,12.0,35,35,102.0,103.0,103.0,93.0,360000,1663200,1910,1989,0,Morningside Heights Historic District,,10.75,6.02,0.0,6.5,1,1018960087,993746.0,233841.0,5c,22v2,40.8085102,-73.9656973
99,MN,546,33,102.0,1.0,10003.0,713 BROADWAY,C6-2G,W6,8.0,X,NEW YORK UNIVERSITY,NEW YORK UNIVERSITY,4975,61582,61582.0,0.0,0.0,0.0,0.0,0.0,0.0,61582.0,1,10.0,0,1,49.75,100.0,49.75,100.0,841500,5407650,1971,0,0,NoHo Historic District,,12.38,6.02,6.0,6.5,1,1005460033,985877.0,204874.0,12c,22v2,40.7290083,-73.9941297
100,MN,1990,64,109.0,7.0,10027.0,448 RIVERSIDE DRIVE,R8,D3,3.0,,TRUSTEES OF COLUMBIA UNIVERSITY,COLUMBIA UNIVERSITY,7615,"  60,576 ",0.0,60576.0,0.0,0.0,0.0,0.0,0.0,0.0,1,12.0,25,25,58.75,135.42,59.0,108.0,174600,1578600,1910,1988,0,Morningside Heights Historic District,,7.95,6.02,0.0,6.5,1,1019900064,993933.0,234113.0,5c,22v2,40.8092566,-73.9650214
101,MN,1990,13,109.0,7.0,10027.0,25 CLAREMONT AVENUE,R8,D3,3.0,X,TRUSTEES OF COLUMBIA UNIVERSITY,COLUMBIA UNIVERSITY,7815,"  60,104 ",0.0,60104.0,0.0,0.0,0.0,0.0,0.0,0.0,1,11.0,32,32,78.08,100.0,78.0,80.0,175050,1816200,1910,1988,0,Morningside Heights Historic District,,7.69,6.02,0.0,6.5,1,1019900013,994081.0,234205.0,5c,22v2,40.8095089,-73.9644866
102,MN,1895,16,109.0,7.0,10025.0,2881 BROADWAY,R8,D7,4.0,,TRUSTEES OF COLUMBIA UNIVERSITY,COLUMBIA UNIVERSITY,10092,"  59,131 ",8158.0,50973.0,0.0,8158.0,0.0,0.0,0.0,0.0,1,7.0,38,43,100.92,100.92,101.0,92.0,967500,4315050,1902,0,0,Morningside Heights Historic District,,5.86,6.02,0.0,6.5,1,1018950016,993660.0,232854.0,5c,22v2,40.8058013,-73.9660093
103,MN,1884,1,109.0,7.0,10025.0,2880 BROADWAY,R8,O6,5.0,,TRUSTEES OF COLUMBIA UNIVERSITY,COLUMBIA UNIVERSITY,10092,"  59,018 ",59018.0,0.0,47489.0,5529.0,0.0,0.0,0.0,6000.0,1,7.0,0,6,100.92,100.0,101.0,95.0,720000,5274900,1904,0,0,Morningside Heights Historic District,,5.85,6.02,0.0,6.5,1,1018840001,993870.0,232737.0,5c,22v2,40.8054799,-73.965251
104,MN,1963,16,109.0,7.0,10027.0,100 MORNINGSIDE DRIVE,R8,D3,3.0,X,TRUSTEES OF COLUMBIA UNIVERSITY,COLUMBIA UNIVERSITY,13275,"  58,860 ",0.0,58860.0,0.0,0.0,0.0,0.0,0.0,0.0,1,6.0,70,70,101.83,138.33,102.0,116.0,387000,3159000,1910,1974,0,,,4.43,6.02,0.0,6.5,1,1019630016,995928.0,234037.0,5c,22v2,40.8090456,-73.9578149
105,MN,1990,61,109.0,7.0,10027.0,450 RIVERSIDE DRIVE,R8,D3,3.0,,TRUSTEES OF COLUMBIA UNIVERSITY,COLUMBIA UNIVERSITY,8400,"  58,840 ",1644.0,57196.0,1644.0,0.0,0.0,0.0,0.0,0.0,1,10.0,31,32,84.0,100.0,84.0,80.0,193500,1847700,1909,1988,0,Morningside Heights Historic District,,7.0,6.02,0.0,6.5,1,1019900061,993953.0,234183.0,5c,22v2,40.8094487,-73.9649491
106,MN,1990,10,109.0,7.0,10027.0,21 CLAREMONT AVENUE,R8,D3,3.0,,TRUSTEES OF COLUMBIA UNIVERSITY,COLUMBIA UNIVERSITY,8400,"  58,750 ",2000.0,56750.0,2000.0,0.0,0.0,0.0,0.0,0.0,1,10.0,47,47,84.0,100.0,84.0,94.0,194400,2266200,1910,1988,1993,Morningside Heights Historic District,,6.99,6.02,0.0,6.5,1,1019900010,994042.0,234134.0,5c,22v2,40.8093141,-73.9646276
107,MN,1885,43,109.0,7.0,10025.0,520 WEST 114 STREET,R8,D3,3.0,,TRUSTEES OF COLUMBIA UNIVERSITY,COLUMBIA UNIVERSITY,7575,"  57,430 ",0.0,57430.0,0.0,0.0,0.0,0.0,0.0,0.0,1,8.0,37,37,75.0,101.0,75.0,84.0,274050,1462950,1921,0,0,,,7.58,6.02,0.0,6.5,1,1018850043,994434.0,232843.0,5c,22v2,40.8057702,-73.9632135
108,MN,1885,40,109.0,7.0,10025.0,514 WEST 114 STREET,R8,D3,3.0,,TRUSTEES OF COLUMBIA UNIVERSITY,COLUMBIA UNIVERSITY,7575,"  57,300 ",0.0,57300.0,0.0,0.0,0.0,0.0,0.0,0.0,1,8.0,49,49,75.0,101.0,75.0,82.0,360000,2560050,1920,1962,0,,,7.56,6.02,0.0,6.5,1,1018850040,994500.0,232807.0,5c,22v2,40.8056713,-73.9629752
109,MN,1884,48,109.0,7.0,10025.0,536 WEST 113 STREET,R8,D3,3.0,,TRUSTEES OF COLUMBIA UNIVERSITY,COLUMBIA UNIVERSITY,7575,"  56,780 ",0.0,56780.0,0.0,0.0,0.0,0.0,0.0,0.0,1,8.0,48,48,75.0,100.92,75.0,81.0,495000,2292300,1919,0,0,,,7.5,6.02,0.0,6.5,1,1018840048,994198.0,232673.0,5c,22v2,40.8053039,-73.9640663
110,MN,546,26,102.0,1.0,10012.0,21 WEST 4 STREET,R7-2,O2,5.0,X,NEW YORK UNIVERSITY,NEW YORK UNIVERSITY,9900,56684,56684.0,0.0,56684.0,0.0,0.0,0.0,0.0,0.0,1,6.0,0,1,102.83,96.25,102.84,96.0,783000,4585950,1920,1980,0,,,5.73,3.44,0.0,6.5,1,1005460026,985538.0,204946.0,12c,22v2,40.729206,-73.9953529
111,MN,1962,44,109.0,7.0,10027.0,421 WEST 119 STREET,R8,D9,3.0,,TRUSTEES OF COLUMBIA UNIVERSITY,COLUMBIA UNIVERSITY,9275,"  56,423 ",0.0,56423.0,0.0,0.0,0.0,0.0,0.0,0.0,1,9.0,80,80,150.0,61.83,150.0,47.0,166050,3127500,1920,0,0,,,6.08,6.02,0.0,6.5,1,1019620044,995689.0,233847.0,5c,22v2,40.8085244,-73.9586785
112,MN,1990,5,109.0,7.0,10027.0,15 CLAREMONT AVENUE,R8,D3,3.0,,TRUSTEES OF COLUMBIA UNIVERSITY,COLUMBIA UNIVERSITY,8400,"  55,960 ",0.0,55960.0,0.0,0.0,0.0,0.0,0.0,0.0,1,10.0,27,27,119.75,64.5,119.75,53.0,194400,1620900,1909,0,0,Morningside Heights Historic District,,6.66,6.02,0.0,6.5,1,1019900005,994002.0,234039.0,5c,22v2,40.8090534,-73.9647723
113,MN,1995,31,109.0,7.0,10027.0,3207 BROADWAY,C6-1,W6,8.0,X,THE TRUSTEES OF COLUMBIA UNIVERSITY,COLUMBIA UNIVERSITY,17798,"  55,890 ",55890.0,0.0,55890.0,0.0,0.0,0.0,0.0,0.0,1,3.0,0,1,299.67,132.79,237.75,132.79,1800450,10494900,2016,0,0,,,3.14,3.44,6.0,6.5,1,1019950031,995740.0,236696.0,5c,22v2,40.816344,-73.9584894
114,MN,548,9,102.0,1.0,10003.0,13 UNIVERSITY PLACE,C1-7,O5,5.0,X,NEW YORK UNIVERSITY,NEW YORK UNIVERSITY,9370,55224,55224.0,0.0,50185.0,5039.0,0.0,0.0,0.0,0.0,1,6.0,0,4,118.33,75.17,118.33,75.16,1080000,5222250,1930,2000,0,,,5.89,6.02,2.0,6.5,1,1005480009,985709.0,205706.0,12c,22v2,40.731292,-73.9947357
115,MN,1867,67,109.0,7.0,10027.0,420 WEST 116 STREET,R8,O6,5.0,X,TRUSTEES OF COLUMBIA UNIVERSITY,COLUMBIA UNIVERSITY,7569,"  55,067 ",55067.0,0.0,15750.0,0.0,0.0,0.0,0.0,39317.0,2,10.0,65,66,75.0,100.92,75.0,99.0,302850,4136850,1907,1989,1996,,,7.28,6.02,0.0,6.5,1,1018670067,995257.0,232991.0,5c,22v2,40.8061755,-73.9602405
116,MN,1990,67,109.0,7.0,10027.0,445 RIVERSIDE DRIVE,R8,D3,3.0,X,TRUSTEES OF COLUMBIA UNIVERSITY,COLUMBIA UNIVERSITY,6935,"  55,056 ",0.0,55056.0,0.0,0.0,0.0,0.0,0.0,0.0,1,12.0,25,25,58.75,123.83,59.0,98.0,147150,2052000,1910,1988,0,Morningside Heights Historic District,,7.94,6.02,0.0,6.5,1,1019900067,993899.0,234064.0,5c,22v2,40.8091221,-73.9651443
117,MN,546,31,102.0,1.0,10003.0,4 WASHINGTON PLACE,C6-2G,W6,8.0,X,NEW YORK UNIVERSITY,NEW YORK UNIVERSITY,4975,54725,54725.0,0.0,0.0,0.0,0.0,0.0,0.0,54725.0,1,11.0,0,1,49.75,100.0,49.75,100.0,837000,4441050,1904,0,0,NoHo Historic District,,11.0,6.02,6.0,6.5,1,1005460031,985790.0,204930.0,12c,22v2,40.729162,-73.9944436
118,MN,1884,15,109.0,7.0,10025.0,523 WEST 112 STREET,R8,D3,3.0,,TRUSTEES OF COLUMBIA UNIVERSITY,COLUMBIA UNIVERSITY,7569,"  54,567 ",0.0,54567.0,0.0,0.0,0.0,0.0,0.0,0.0,1,8.0,49,49,75.0,100.92,75.0,85.0,360000,2402100,1925,0,0,,,7.21,6.02,0.0,6.5,1,1018840015,994148.0,232583.0,5c,22v2,40.8050569,-73.964247
119,MN,1962,26,109.0,7.0,10027.0,414 WEST 119 STREET,R8,D7,4.0,,TRUSTEES OF COLUMBIA UNIVERSITY,COLUMBIA UNIVERSITY,12615,"  54,100 ",4400.0,49700.0,0.0,4400.0,0.0,0.0,0.0,0.0,1,6.0,56,57,125.0,100.92,124.0,86.0,221850,1761300,1925,1986,0,,,4.29,6.02,0.0,6.5,1,1019620026,995610.0,233734.0,5c,22v2,40.8082143,-73.9589641
120,MN,547,5,102.0,1.0,10003.0,24 WAVERLY PLACE,R7-2,W6,8.0,X,NEW YORK UNIVERSITY,NEW YORK UNIVERSITY,5104,53482,53482.0,0.0,0.0,0.0,0.0,0.0,0.0,53482.0,1,11.0,0,1,62.75,81.33,62.75,81.0,841500,4680000,1906,1989,0,,,10.48,3.44,0.0,6.5,1,1005470005,985602.0,205335.0,12c,22v2,40.7302737,-73.9951219
121,MN,1994,81,109.0,7.0,10027.0,549 RIVERSIDE DRIVE,R8,D7,4.0,,TRUSTEES OF COLUMBIA UNIVERSITY,COLUMBIA UNIVERSITY,11020,"  53,418 ",573.0,52845.0,0.0,573.0,0.0,0.0,0.0,0.0,1,6.0,60,61,116.0,95.0,104.0,95.0,255150,2006100,1925,1988,0,,,4.85,6.02,0.0,6.5,1,1019940081,995194.0,236394.0,5c,22v2,40.8155158,-73.9604625
122,MN,1962,31,109.0,7.0,10027.0,424 WEST 119 STREET,R8,D1,3.0,,TRUSTEES OF COLUMBIA UNIVERSITY,COLUMBIA UNIVERSITY,11396,"  53,352 ",0.0,53352.0,0.0,0.0,0.0,0.0,0.0,0.0,1,6.0,47,47,100.0,127.0,100.0,111.0,200700,2007000,1925,0,0,,,4.68,6.02,0.0,6.5,1,1019620031,995506.0,233783.0,5c,22v2,40.808349,-73.9593397
123,MN,1999,36,109.0,7.0,10027.0,3291 BROADWAY,C6-1,D7,4.0,P,TRUSTEES OF COLUMBIA UNIVERSITY IN THE C ITY OF NEW,COLUMBIA UNIVERSITY,10625,"  53,340 ",3650.0,49690.0,0.0,3650.0,0.0,0.0,0.0,0.0,1,6.0,50,55,74.92,125.0,73.0,112.0,206100,2067300,1905,1998,0,,,5.02,3.44,6.0,6.5,1,1019990036,996266.0,237596.0,5c,22v2,40.8188136,-73.9565875
124,MN,547,14,102.0,1.0,10003.0,18 WAVERLY PLACE,R7-2,W5,8.0,X,NEW YORK UNIVERSITY,NEW YORK UNIVERSITY,13624,51044,51044.0,0.0,0.0,0.0,0.0,0.0,0.0,51044.0,2,6.0,0,2,83.33,81.5,83.33,82.0,1057500,4071150,1900,0,0,,,3.75,3.44,0.0,6.5,1,1005470014,985701.0,205270.0,12c,22v2,40.7300953,-73.9947647
125,MN,1976,36,109.0,7.0,10027.0,1254 AMSTERDAM AVENUE,R8,D7,4.0,,TRUSTEES OF COLUMBIA UNIVERSITY,COLUMBIA UNIVERSITY,9092,"  50,916 ",4820.0,46096.0,3000.0,1820.0,0.0,0.0,0.0,0.0,1,6.0,52,53,90.92,100.0,91.0,86.0,613800,2446200,1926,1982,0,,,5.6,6.02,0.0,6.5,1,1019760036,995679.0,234591.0,5c,22v2,40.8105665,-73.9587134
126,MN,1990,50,109.0,7.0,10027.0,460 RIVERSIDE DRIVE,R8,D3,3.0,,TRUSTEES OF COLUMBIA UNIVERSITY,COLUMBIA UNIVERSITY,6250,"  50,120 ",0.0,50120.0,0.0,0.0,0.0,0.0,0.0,0.0,1,12.0,25,25,62.5,100.0,63.0,78.0,136350,1581300,1910,0,0,Morningside Heights Historic District,,8.02,6.02,0.0,6.5,1,1019900050,994082.0,234415.0,5c,22v2,40.8100853,-73.9644827
127,MN,1990,44,109.0,7.0,10027.0,464 RIVERSIDE DRIVE,R8,D3,3.0,,TRUSTEES OF COLUMBIA UNIVERSITY,COLUMBIA UNIVERSITY,6250,"  50,120 ",0.0,50120.0,0.0,0.0,0.0,0.0,0.0,0.0,1,12.0,25,25,62.5,100.0,63.0,78.0,135450,1364850,1910,1989,0,Morningside Heights Historic District,,8.02,6.02,0.0,6.5,1,1019900044,994112.0,234469.0,5c,22v2,40.8102335,-73.9643743
128,MN,543,53,102.0,1.0,10012.0,139 MAC DOUGAL STREET,R7-2,W9,8.0,X,NEW YORK UNIVERSITY,NEW YORK UNIVERSITY,8431,49757,49757.0,0.0,0.0,0.0,0.0,0.0,0.0,49757.0,1,6.0,0,1,96.5,86.0,97.0,85.0,2430000,6722100,2011,0,0,South Village Historic District,,5.9,3.44,0.0,6.5,1,1005430053,984242.0,205557.0,12c,22v2,40.7308831,-74.0000289
129,MN,1464,28,108.0,5.0,10021.0,1301 YORK AVENUE,R8,I9,8.0,X,CORNELL UNIVERSITY,CORNELL UNIVERSITY,19984,352000,352000.0,0.0,352000.0,0.0,0.0,0.0,0.0,0.0,1,15.0,0,1,100.42,199.0,115.0,100.0,3742366,43274700,2004,0,0,,,17.61,6.02,0.0,6.5,1,1014640028,996638.0,218187.0,9a,22v2,40.7655406,-73.9552793
130,MN,2139,210,112.0,10.0,10032.0,52 HAVEN AVENUE,R8,I9,8.0,X,TRUSTEES OF COLUMBIA UNIVERSITY IN THE CITY OF NEW YORK,COLUMBIA UNIVERSITY,28960,"  136,608 ",136608.0,0.0,0.0,0.0,0.0,0.0,0.0,136608.0,1,11.0,0,1,180.58,143.92,175.0,80.0,675000,13442400,1919,0,0,,,4.72,6.02,0.0,6.5,1,1021390210,999940.0,246544.0,3b,22v2,40.8433675,-73.9432928
131,MN,1990,54,109.0,7.0,10027.0,452 RIVERSIDE DRIVE,R8,D3,3.0,,TRUSTEES OF COLUMBIA UNIVERSITY,COLUMBIA UNIVERSITY,7815,"  49,101 ",0.0,49100.0,0.0,0.0,0.0,0.0,0.0,0.0,1,9.0,54,54,78.08,100.0,78.0,82.0,174600,1729800,1910,1988,0,Morningside Heights Historic District,,6.28,6.02,0.0,6.5,1,1019900054,993993.0,234254.0,5c,22v2,40.8096435,-73.9648045
132,MN,1884,18,109.0,7.0,10025.0,521 WEST 112 STREET,R8,D3,3.0,,TRUSTEES OF COLUMBIA UNIVERSITY,COLUMBIA UNIVERSITY,9375,"  47,731 ",0.0,47731.0,0.0,0.0,0.0,0.0,0.0,0.0,1,8.0,44,44,75.0,125.33,75.0,98.0,675000,2321550,1920,0,0,,,5.09,6.02,0.0,6.5,1,1018840018,994216.0,232548.0,5c,22v2,40.8049608,-73.9640014
133,MN,1990,52,109.0,7.0,10027.0,456 RIVERSIDE DRIVE,R8,D3,3.0,,TRUSTEES OF COLUMBIA UNIVERSITY,COLUMBIA UNIVERSITY,5668,"  47,327 ",0.0,47327.0,0.0,0.0,0.0,0.0,0.0,0.0,1,12.0,45,45,56.67,100.0,57.0,80.0,135900,1546650,1911,1988,0,Morningside Heights Historic District,,8.35,6.02,0.0,6.5,1,1019900052,994053.0,234363.0,5c,22v2,40.8099426,-73.9645876
134,MN,1867,23,109.0,7.0,10025.0,402 WEST 115 STREET,R8,D7,4.0,,TRUSTEES OF COLUMBIA UNIVERSITY,COLUMBIA UNIVERSITY,10417,"  47,145 ",7145.0,40000.0,7145.0,0.0,0.0,0.0,0.0,0.0,1,6.0,32,36,100.0,104.17,76.0,96.0,360000,1407150,1920,1988,0,,,4.53,6.02,0.0,6.5,1,1018670023,995263.0,232680.0,5c,22v2,40.8053218,-73.9602193
135,MN,1990,53,109.0,7.0,10027.0,454 RIVERSIDE DRIVE,R8,D3,3.0,,TRUSTEES OF COLUMBIA UNIVERSITY,COLUMBIA UNIVERSITY,5668,"  46,922 ",0.0,46922.0,0.0,0.0,0.0,0.0,0.0,0.0,1,12.0,36,36,56.67,100.0,57.0,82.0,135450,1452150,1911,1987,0,Morningside Heights Historic District,,8.28,6.02,0.0,6.5,1,1019900053,994025.0,234313.0,5c,22v2,40.8098054,-73.9646888
136,MN,550,1,102.0,1.0,10003.0,1 WASHINGTON SQUARE N,R6,W6,8.0,X,NEW YORK UNIVERSITY,NEW YORK UNIVERSITY,13736,46077,46077.0,0.0,22825.0,0.0,0.0,0.0,0.0,0.0,5,4.0,0,8,168.42,83.19,55.0,96.0,1562400,11966400,1900,1986,0,Greenwich Village Historic District,,3.35,2.43,0.0,4.8,1,1005500001,985480.0,205629.0,12c,22v2,40.7310807,-73.995562
137,MN,1976,29,109.0,7.0,10027.0,1240 AMSTERDAM AVENUE,R8,D7,4.0,,TRUSTEES OF COLUMBIA UNIVERSITY,COLUMBIA UNIVERSITY,10092,"  45,210 ",4000.0,41210.0,0.0,4000.0,0.0,0.0,0.0,0.0,1,6.0,36,41,100.92,100.0,101.0,86.0,223200,1998900,1926,1987,0,,,4.48,6.02,0.0,6.5,1,1019760029,995629.0,234502.0,5c,22v2,40.8103223,-73.9588942
138,MN,1883,18,109.0,7.0,10025.0,521 WEST 111 STREET,R8,D1,3.0,,TRUSTEES OF COLUMBIA UNIVERSITY IN NEW YORK CITY,COLUMBIA UNIVERSITY,10092,"  44,780 ",2040.0,42740.0,0.0,0.0,0.0,0.0,0.0,2040.0,1,6.0,40,40,100.0,100.92,100.0,85.0,273150,1140750,1904,0,0,Morningside Heights Historic District,,4.44,6.02,0.0,6.5,1,1018830018,994098.0,232312.0,5d,22v2,40.8043132,-73.964428
139,MN,1994,93,109.0,7.0,10027.0,530 RIVERSIDE DRIVE,R8,D1,3.0,,TRUSTEES OF COLUMBIA UNIVERSITY,COLUMBIA UNIVERSITY,10320,"  44,052 ",0.0,44052.0,0.0,0.0,0.0,0.0,0.0,0.0,1,6.0,52,52,120.0,86.0,120.0,73.0,221400,1814400,1926,1987,0,,,4.27,6.02,0.0,6.5,1,1019940093,995026.0,236100.0,5c,22v2,40.8147091,-73.9610699
140,MN,1993,53,109.0,7.0,10027.0,146 CLAREMONT AVENUE,R8,D1,3.0,,TRUSTEES OF COLUMBIA UNIVERSITY,COLUMBIA UNIVERSITY,10725,"  43,560 ",0.0,43560.0,0.0,0.0,0.0,0.0,0.0,0.0,1,6.0,48,48,100.0,102.5,100.0,96.0,229050,1966950,1940,1984,0,,,4.06,6.02,0.0,6.5,1,1019930053,995046.0,235565.0,5c,22v2,40.8132406,-73.9609985
141,MN,1883,14,109.0,7.0,10025.0,529 WEST 111 STREET,R8,D1,3.0,,TRUSTEES OF COLUMBIA UNIVERSITY,COLUMBIA UNIVERSITY,10092,"  43,540 ",0.0,43540.0,0.0,0.0,0.0,0.0,0.0,0.0,1,6.0,37,37,100.0,100.92,100.0,85.0,360000,2189250,1903,0,0,Morningside Heights Historic District,,4.31,6.02,0.0,6.5,1,1018830014,994010.0,232361.0,5d,22v2,40.8044477,-73.9647458
142,MN,462,25,103.0,2.0,10003.0,107 2 AVENUE,R7A,W6,8.0,,NEW YORK UNIVERSITY,NEW YORK UNIVERSITY,9008,43214,43214.0,0.0,0.0,8500.0,0.0,0.0,0.0,34714.0,1,5.0,0,2,90.08,100.0,90.0,100.0,810000,1433700,1928,0,2012,East Village / Lower East Side Historic District,,4.8,4.0,0.0,4.0,1,1004620025,987400.0,204445.0,12c,22v2,40.7278304,-73.9886349
143,MN,1884,6,109.0,7.0,10025.0,539 WEST 112 STREET,R8,D1,3.0,,TRUSTEES OF COLUMBIA UNIVERSITY,COLUMBIA UNIVERSITY,10092,"  43,050 ",0.0,43050.0,0.0,0.0,0.0,0.0,0.0,0.0,1,6.0,43,43,100.0,100.92,100.0,84.0,405000,1614600,1920,0,0,,,4.27,6.02,0.0,6.5,1,1018840006,993959.0,232688.0,5c,22v2,40.8053453,-73.9649295
144,MN,1882,42,109.0,7.0,10025.0,518 WEST 111 STREET,R8,D1,3.0,,TRUSTEES OF COLUMBIA UNIVERSITY,COLUMBIA UNIVERSITY,9948,"  43,002 ",0.0,43002.0,0.0,0.0,0.0,0.0,0.0,0.0,1,6.0,32,32,108.33,91.83,108.0,79.0,315000,1409850,1909,1988,0,Morningside Heights Historic District,,4.32,6.02,0.0,6.5,1,1018820042,994056.0,232160.0,5d,22v2,40.803896,-73.9645799
145,MN,1994,84,109.0,7.0,10027.0,548 RIVERSIDE DRIVE,R8,D1,3.0,,TRUSTEES OF COLUMBIA UNIVERSITY,COLUMBIA UNIVERSITY,10260,"  42,762 ",0.0,42762.0,0.0,0.0,0.0,0.0,0.0,0.0,1,6.0,25,25,108.0,95.0,108.0,80.0,219150,1575900,1926,1988,0,,,4.17,6.02,0.0,6.5,1,1019940084,995139.0,236294.0,5c,22v2,40.8152414,-73.9606613
146,QN,6889,37,411.0,20.0,11365.0,175-05 HORACE HARDING EXPWY,R3-2,W8,8.0,X,"ST. JOHN'S UNIVERSITY, NEW YORK",ST JOHN'S UNIVERSITY,35123,42750,42750.0,0.0,42750.0,0.0,0.0,0.0,0.0,0.0,1,2.0,0,1,159.51,170.65,190.0,75.0,347850,2533950,1969,1996,0,,,1.22,0.5,0.0,1.0,4,4068890037,1041205.0,208805.0,10d,22v2,40.7396147,-73.7944722
147,MN,1990,22,109.0,7.0,10027.0,29 CLAREMONT AVENUE,R8,D3,3.0,,TRUSTEES OF COLUMBIA UNIVERSITY,COLUMBIA UNIVERSITY,5668,"  42,691 ",0.0,42691.0,0.0,0.0,0.0,0.0,0.0,0.0,1,11.0,22,22,56.67,100.0,57.0,80.0,135900,1297350,1910,0,0,Morningside Heights Historic District,,7.53,6.02,0.0,6.5,1,1019900022,994114.0,234264.0,5c,22v2,40.8096708,-73.9643673
148,MN,1990,25,109.0,7.0,10027.0,35 CLAREMONT AVENUE,R8,D3,3.0,,TRUSTEES OF COLUMBIA UNIVERSITY,COLUMBIA UNIVERSITY,5668,"  42,691 ",0.0,42691.0,0.0,0.0,0.0,0.0,0.0,0.0,1,11.0,22,22,56.67,100.0,54.0,80.0,108900,1490850,1910,0,0,Morningside Heights Historic District,,7.53,6.02,0.0,6.5,1,1019900025,994142.0,234314.0,5c,22v2,40.809808,-73.9642661
149,MN,2139,229,112.0,10.0,10032.0,104 HAVEN AVENUE,R8,I9,8.0,X,THE TRUSTEES OF COLUMBIA UNIVERSITY,COLUMBIA UNIVERSITY,12940,"  98,430 ",98430.0,0.0,0.0,0.0,0.0,0.0,0.0,98430.0,1,15.0,0,1,125.0,103.92,125.0,103.0,931500,16317900,2014,0,0,,,7.61,6.02,0.0,6.5,1,1021390229,1000106.0,247051.0,3b,22v2,40.8447588,-73.9426917
150,MN,1885,24,109.0,7.0,10025.0,511 WEST 113 STREET,R8,D3,3.0,,TRUSTEES OF COLUMBIA UNIVERSITY,COLUMBIA UNIVERSITY,7556,"  42,360 ",0.0,42360.0,0.0,0.0,0.0,0.0,0.0,0.0,1,8.0,42,42,75.0,100.75,75.0,82.0,495000,1912950,1910,1988,0,,,5.61,6.02,0.0,6.5,1,1018850024,994472.0,232704.0,5c,22v2,40.8053887,-73.9630765
151,MN,1885,11,109.0,7.0,10025.0,541 WEST 113 STREET,R8,D1,3.0,,COLUMBIA UNIVERSITY,COLUMBIA UNIVERSITY,10092,"  42,265 ",0.0,42265.0,0.0,0.0,0.0,0.0,0.0,0.0,1,6.0,33,33,100.0,100.92,100.0,86.0,585000,1316250,1925,1986,0,,,4.19,6.02,0.0,6.5,1,1018850011,994199.0,232855.0,5c,22v2,40.8058034,-73.9640624
152,MN,547,15,102.0,1.0,10003.0,12 WAVERLY PLACE,R7-2,W5,8.0,X,NEW YORK UNIVERSITY,NEW YORK UNIVERSITY,7542,42264,42264.0,0.0,0.0,0.0,0.0,0.0,0.0,42264.0,3,8.0,1,6,91.67,82.0,90.0,82.0,1035000,10492650,1800,2001,2008,,,5.6,3.44,0.0,6.5,1,1005470015,985777.0,205221.0,12c,22v2,40.7299607,-73.9944905
153,MN,1994,88,109.0,7.0,10027.0,547 RIVERSIDE DRIVE,R8,D1,3.0,,TRUSTEES OF COLUMBIA UNIVERSITY,COLUMBIA UNIVERSITY,9988,"  41,967 ",0.0,41967.0,0.0,0.0,0.0,0.0,0.0,0.0,1,6.0,36,36,108.17,95.0,108.0,80.0,214200,1854900,1926,1984,0,,,4.2,6.02,0.0,6.5,1,1019940088,995085.0,236199.0,5c,22v2,40.8149807,-73.9608566
154,MN,1895,52,109.0,7.0,10025.0,607 WEST 113 STREET,R8,D3,3.0,,TRUSTEES OF COLUMBIA UNIVERSITY,COLUMBIA UNIVERSITY,7500,"  41,884 ",1870.0,40014.0,1870.0,0.0,0.0,0.0,0.0,0.0,1,8.0,23,24,75.0,100.0,75.0,82.0,270000,1291950,1910,1987,0,,,5.58,6.02,0.0,6.5,1,1018950052,993707.0,233129.0,5c,22v2,40.806556,-73.9658392
155,MN,1976,61,109.0,7.0,10027.0,3074 BROADWAY,R8,D7,4.0,,TRUSTEES OF COLUMBIA UNIVERSITY,COLUMBIA UNIVERSITY,9200,"  41,184 ",3000.0,38184.0,0.0,3000.0,0.0,0.0,0.0,0.0,1,6.0,34,35,92.0,100.0,92.0,88.0,310500,1782900,1926,1989,0,,,4.48,6.02,0.0,6.5,1,1019760061,995079.0,234921.0,5c,22v2,40.811473,-73.9608803
156,MN,546,5,102.0,1.0,10003.0,82 WASHINGTON SQUARE E,R7-2,W6,8.0,X,NEW YORK UNIVERSITY,NEW YORK UNIVERSITY,5960,40467,40467.0,0.0,0.0,0.0,0.0,0.0,0.0,40467.0,1,7.0,0,3,79.83,74.58,79.84,74.58,859500,3553200,1900,0,0,,,6.79,3.44,0.0,6.5,1,1005460005,985351.0,205196.0,12c,22v2,40.7298922,-73.9960275
157,QN,6712,81,408.0,24.0,11367.0,152-11 UNION TURNPIKE,R4,D6,4.0,X,"ST. JOHN'S UNIVERSITY, NEW YORK",ST JOHN'S UNIVERSITY,20246,40200,10200.0,30000.0,10200.0,0.0,0.0,0.0,0.0,0.0,1,4.0,30,34,200.0,98.67,150.0,65.0,454500,2161800,2004,0,0,,,1.99,0.75,0.0,2.0,4,4067120081,1036600.0,201511.0,14c,22v2,40.7196229,-73.8111465
158,MN,1976,56,109.0,7.0,10027.0,532 WEST 122 STREET,R8,G1,10.0,,TRUSTEES OF COLUMBIA UNIVERSITY,COLUMBIA UNIVERSITY,9092,"  40,160 ",40160.0,0.0,0.0,0.0,40160.0,0.0,0.0,0.0,1,4.0,0,1,100.0,90.92,100.0,86.0,207000,1381950,1926,2006,0,,,4.42,6.02,0.0,6.5,1,1019760056,995171.0,234871.0,5c,22v2,40.8113356,-73.9605481
159,MN,1884,43,109.0,7.0,10025.0,526 WEST 113 STREET,R8,D3,3.0,,TRUSTEES OF COLUMBIA UNIVERSITY,COLUMBIA UNIVERSITY,7569,"  39,680 ",0.0,39680.0,0.0,0.0,0.0,0.0,0.0,0.0,1,8.0,39,39,75.0,100.92,75.0,87.0,495000,1923750,1910,0,0,,,5.24,6.02,0.0,6.5,1,1018840043,994309.0,232615.0,5c,22v2,40.8051446,-73.9636654
160,MN,546,1,102.0,1.0,10003.0,79 WASHINGTON SQUARE E,R7-2,H8,8.0,X,NEW YORK UNIVERSITY,NEW YORK UNIVERSITY,11242,38899,5040.0,0.0,2520.0,2520.0,0.0,0.0,0.0,0.0,1,7.0,93,95,112.42,100.0,112.0,100.0,1350000,2965050,1900,0,0,,,3.46,3.44,0.0,6.5,1,1005460001,985308.0,205104.0,12c,22v2,40.7296397,-73.9961827
161,MN,930,38,106.0,2.0,10010.0,334 EAST 25 STREET,R8,H8,8.0,X,NEW YORK UNIVERSITY,NEW YORK UNIVERSITY,7406,37800,,,,,,,,,1,6.0,0,1,75.0,98.75,75.0,84.25,1665000,2899800,1920,1986,0,,,5.1,6.02,0.0,6.5,1,1009300038,990211.0,208261.0,8d,22v2,40.7383029,-73.9784896
162,MN,1962,18,109.0,7.0,10027.0,80 MORNINGSIDE DRIVE,R8,D9,3.0,,TRUSTEES OF COLUMBIA UNIVERSITY,COLUMBIA UNIVERSITY,9082,"  37,722 ",2540.0,35182.0,2540.0,0.0,0.0,0.0,0.0,0.0,1,6.0,32,33,100.92,90.0,88.0,78.0,159750,1220850,1926,1986,0,,,4.15,6.02,0.0,6.5,1,1019620018,995731.0,233549.0,5c,22v2,40.8077064,-73.9585273
163,MN,1963,56,109.0,7.0,10027.0,130 MORNINGSIDE DRIVE,R8,D1,3.0,,TRUSTEES OF COLUMBIA UNIVERSITY,COLUMBIA UNIVERSITY,9050,"  37,248 ",0.0,37248.0,0.0,0.0,0.0,0.0,0.0,0.0,1,6.0,25,25,100.0,90.92,76.0,100.0,87750,1858950,1910,0,0,,,4.12,6.02,0.0,6.5,1,1019630056,995934.0,234446.0,5c,22v2,40.8101682,-73.9577925
164,MN,1867,70,109.0,7.0,10027.0,430 WEST 116 STREET,R8,D7,4.0,X,TRUSTEES OF COLUMBIA UNIVERSITY,COLUMBIA UNIVERSITY,10092,"  36,664 ",5000.0,31664.0,0.0,5000.0,0.0,0.0,0.0,0.0,1,7.0,22,23,100.0,100.92,100.0,89.0,450000,2292750,1925,1986,0,,,3.63,6.02,0.0,6.5,1,1018670070,995160.0,233045.0,5c,22v2,40.8063238,-73.9605908
165,MN,1867,74,109.0,7.0,10025.0,1129 AMSTERDAM AVENUE,R8,D7,4.0,,TRUSTEES OF COLUMBIA UNIVERSITY,COLUMBIA UNIVERSITY,10092,"  36,664 ",5000.0,31664.0,0.0,5000.0,0.0,0.0,0.0,0.0,1,7.0,45,48,100.92,100.0,85.0,98.0,720000,2753550,1925,0,0,,,3.63,6.02,0.0,6.5,1,1018670074,995071.0,233094.0,5c,22v2,40.8064584,-73.9609122
166,MN,1895,8,109.0,7.0,10025.0,611 WEST 112 STREET,R8,H6,3.0,,TRUSTEES OF COLUMBIA UNIVERSITY IN THE C ITY OF NEW,COLUMBIA UNIVERSITY,8831,"  36,580 ",,,,,,,,,1,6.0,0,1,87.5,100.92,88.0,87.0,1235700,1534050,1904,2014,0,Morningside Heights Historic District,,4.14,6.02,0.0,6.5,1,1018950008,993497.0,232943.0,5c,22v2,40.8060457,-73.966598
167,MN,1962,1,109.0,7.0,10027.0,1181 AMSTERDAM AVENUE,R8,D7,4.0,,TRUSTEES OF COLUMBIA UNIVERSITY,COLUMBIA UNIVERSITY,7483,"  36,553 ",5890.0,30663.0,1987.0,3903.0,0.0,0.0,0.0,0.0,1,6.0,42,45,74.83,100.0,73.0,90.0,155700,2196000,1925,1986,0,,,4.88,6.02,0.0,6.5,1,1019620001,995411.0,233711.0,5c,22v2,40.8081515,-73.959683
168,MN,1896,77,109.0,7.0,10027.0,610 WEST 116 STREET,R8,D3,3.0,,TRUSTEES OF COLUMBIA UNIVERSITY,COLUMBIA UNIVERSITY,5046,"  33,486 ",0.0,33486.0,0.0,0.0,0.0,0.0,0.0,0.0,1,10.0,45,45,50.0,100.92,50.0,84.0,272250,1558800,1908,1985,0,Morningside Heights Historic District,,6.64,6.02,0.0,6.5,1,1018960077,993957.0,233709.0,5c,22v2,40.8081477,-73.9649353
169,MN,2176,5,112.0,10.0,10033.0,390 FT WASHINGTON AVENUE,R7-2,D7,4.0,X,TRUSTEES OF COLUMBIA UNIVERSITY,COLUMBIA UNIVERSITY,5041,"  32,813 ",5000.0,27813.0,0.0,0.0,0.0,0.0,0.0,5000.0,1,12.0,46,47,50.0,100.83,50.0,60.0,77400,1390050,2000,0,0,,,6.51,3.44,0.0,6.5,1,1021760005,1001112.0,248297.0,3b,22v2,40.8481768,-73.9390525
170,MN,533,10,102.0,1.0,10012.0,543 LA GUARDIA PLACE,C1-7,K1,5.0,,NEW YORK UNIVERSITY,NEW YORK UNIVERSITY,22276,32700,32700.0,0.0,0.0,32700.0,0.0,0.0,0.0,0.0,1,1.0,0,6,215.0,148.17,191.0,78.0,1539000,4982850,1960,0,0,,,1.47,6.02,2.0,6.5,1,1005330010,984799.0,204683.0,12c,22v2,40.7284842,-73.9980192
171,MN,551,16,102.0,1.0,10011.0,27 WASHINGTON SQUARE N,R6,D9,3.0,,NEW YORK UNIVERSITY,NEW YORK UNIVERSITY,6345,32409,800.0,31609.0,800.0,0.0,0.0,0.0,0.0,0.0,1,7.0,27,28,55.5,123.08,56.0,122.0,508500,2831850,1898,0,0,Greenwich Village Historic District,,5.11,2.43,0.0,4.8,1,1005510016,984723.0,206091.0,12c,22v2,40.7323488,-73.9982933
172,MN,1895,72,109.0,7.0,10025.0,626 WEST 114 STREET,R8,H8,8.0,X,TRUSTEES OF COLUMBIA UNIVERSITY FACILITI ES MANAGEMENT,COLUMBIA UNIVERSITY,7569,"  31,906 ",,,,,,,,,1,6.0,124,124,75.0,100.92,74.0,86.0,270000,1428300,1905,0,0,Morningside Heights Historic District,,4.22,6.02,0.0,6.5,1,1018950072,993559.0,233328.0,5c,22v2,40.8071024,-73.9663735
173,MN,1884,46,109.0,7.0,10025.0,530 WEST 113 STREET,R8,D3,3.0,,TRUSTEES OF COLUMBIA UNIVERSITY,COLUMBIA UNIVERSITY,5659,"  31,851 ",0.0,31851.0,0.0,0.0,0.0,0.0,0.0,0.0,1,8.0,24,24,50.0,113.17,50.0,99.0,175500,863550,1910,0,0,,,5.63,6.02,0.0,6.5,1,1018840046,994251.0,232643.0,5c,22v2,40.8052215,-73.9638749
174,MN,1393,1,108.0,4.0,10075.0,970 5 AVENUE,R10,W5,8.0,X,NEW YORK UNIVERSITY,NEW YORK UNIVERSITY,13325,31089,31089.0,0.0,0.0,0.0,0.0,0.0,0.0,31089.0,1,3.5,0,3,82.17,150.0,70.0,140.0,9675000,14374350,1912,0,0,Metropolitan Museum Historic District,INDIVIDUAL LANDMARK,2.33,10.0,0.0,10.0,1,1013930001,994299.0,222115.0,8c,22v2,40.7763249,-73.9637172
175,MN,548,12,102.0,1.0,10003.0,36 EAST 8 STREET,C1-7,J9,5.0,,NEW YORK UNIVERSITY,NEW YORK UNIVERSITY,11151,30575,19365.0,11210.0,2000.0,3450.0,0.0,0.0,0.0,13915.0,1,3.0,7,13,100.17,114.92,100.16,114.92,1125000,3393900,1940,1984,0,,,2.74,6.02,2.0,6.5,1,1005480012,985793.0,205667.0,12c,22v2,40.7311849,-73.9944326
176,MN,1896,32,109.0,7.0,10025.0,608 WEST 115 STREET,R8,D3,3.0,,TRUSTEES OF COLUMBIA UNIVERSITY,COLUMBIA UNIVERSITY,5046,"  30,568 ",0.0,30568.0,0.0,0.0,0.0,0.0,0.0,0.0,1,9.0,35,35,50.0,100.92,50.0,80.0,315000,1561950,1912,0,0,Morningside Heights Historic District,,6.06,6.02,0.0,6.5,1,1018960032,993829.0,233478.0,5c,22v2,40.8075138,-73.965398
177,MN,1976,26,109.0,7.0,10027.0,503 WEST 121 STREET,R8,D1,3.0,X,TRUSTEES OF COLUMBIA UNIVERSITY,COLUMBIA UNIVERSITY,7194,"  30,498 ",0.0,30498.0,0.0,0.0,0.0,0.0,0.0,0.0,1,6.0,30,30,75.0,95.92,75.0,81.0,135000,2560500,1910,1988,0,,,4.24,6.02,0.0,6.5,1,1019760026,995550.0,234542.0,5c,22v2,40.8104322,-73.9591795
178,MN,548,21,102.0,1.0,10003.0,25 WAVERLY PLACE,R7-2,W6,8.0,X,NEW YORK UNIVERSITY,NEW YORK UNIVERSITY,3300,30042,30042.0,0.0,0.0,0.0,0.0,0.0,0.0,30042.0,1,9.0,0,2,33.5,100.67,33.5,100.67,495000,2635200,1900,0,0,,,9.1,3.44,0.0,6.5,1,1005480021,985694.0,205450.0,12c,22v2,40.7305893,-73.9947899
179,MN,1994,45,109.0,7.0,10027.0,528 RIVERSIDE DRIVE,R8,D1,3.0,,TRUSTEES OF COLUMBIA UNIVERSITY,COLUMBIA UNIVERSITY,7393,"  29,274 ",0.0,29274.0,0.0,0.0,0.0,0.0,0.0,0.0,1,6.0,33,33,80.0,95.0,80.0,80.0,161100,1224900,1926,0,0,,,3.96,6.02,0.0,6.5,1,1019940045,994980.0,236010.0,5c,22v2,40.8144621,-73.9612362
180,MN,1976,48,109.0,7.0,10027.0,520 WEST 122 STREET,R8,D1,3.0,,TRUSTEES OF COLUMBIA UNIVERSITY,COLUMBIA UNIVERSITY,6819,"  29,094 ",0.0,29094.0,0.0,0.0,0.0,0.0,0.0,0.0,1,6.0,23,23,75.0,90.92,75.0,75.0,116550,1320300,1926,1988,0,,,4.27,6.02,0.0,6.5,1,1019760048,995358.0,234768.0,5c,22v2,40.8110527,-73.9598727
181,MN,524,9,102.0,1.0,10012.0,509 LA GUARDIA PLACE,C1-7,K1,5.0,,"NEW YORK UNIVERSITY,A NY EDUCATION CORPO RATION",NEW YORK UNIVERSITY,16235,29000,29000.0,0.0,0.0,29000.0,0.0,0.0,0.0,0.0,1,1.0,0,1,130.0,124.58,130.0,115.0,2790000,5059350,1961,0,0,,,1.79,6.02,2.0,6.5,1,1005240009,984600.0,204354.0,12c,22v2,40.7275812,-73.9987372
182,MN,1976,16,109.0,7.0,10027.0,519 WEST 121 STREET,R8,D1,3.0,,TRUSTEES OF COLUMBIA UNIVERSITY,COLUMBIA UNIVERSITY,6728,"  28,668 ",0.0,28668.0,0.0,0.0,0.0,0.0,0.0,0.0,1,6.0,34,34,66.67,100.92,67.0,86.0,108900,1149750,1926,1988,0,,,4.26,6.02,0.0,6.5,1,1019760016,995312.0,234676.0,5c,22v2,40.8108002,-73.960039
183,MN,1976,10,109.0,7.0,10027.0,527 WEST 121 STREET,R8,D1,3.0,,TRUSTEES OF COLUMBIA UNIVERSITY,COLUMBIA UNIVERSITY,6728,"  28,668 ",0.0,28668.0,0.0,0.0,0.0,0.0,0.0,0.0,1,6.0,24,24,66.67,100.92,67.0,86.0,108900,1024650,1926,1988,0,,,4.26,6.02,0.0,6.5,1,1019760010,995195.0,234741.0,5c,22v2,40.8109788,-73.9604616
184,MN,547,4,102.0,1.0,10003.0,28 WAVERLY PLACE,R7-2,W6,8.0,X,NEW YORK UNIVERSITY,NEW YORK UNIVERSITY,3048,28641,28641.0,0.0,0.0,0.0,0.0,0.0,0.0,28641.0,1,10.0,0,1,37.75,80.75,37.75,76.0,607500,2507850,1900,1985,0,,,9.4,3.44,0.0,6.5,1,1005470004,985558.0,205364.0,12c,22v2,40.7303533,-73.9952806
185,MN,547,26,102.0,1.0,10003.0,3 WASHINGTON PLACE,C6-2G,W6,8.0,X,NEW YORK UNIVERSITY,NEW YORK UNIVERSITY,4062,28572,28572.0,0.0,0.0,0.0,0.0,0.0,0.0,28572.0,1,6.0,0,2,52.0,91.58,52.0,91.58,580500,3995550,1891,0,0,NoHo Historic District,,7.03,6.02,6.0,6.5,1,1005470026,985845.0,205055.0,12c,22v2,40.7295051,-73.9942452
186,MN,1884,21,109.0,7.0,10025.0,511 WEST 112 STREET,R8,D1,3.0,,TRUSTEES OF COLUMBIA UNIVERSITY,COLUMBIA UNIVERSITY,6661,"  28,374 ",0.0,28374.0,0.0,0.0,0.0,0.0,0.0,0.0,1,6.0,24,24,66.0,100.92,66.0,92.0,270000,1918350,1925,1987,0,,,4.26,6.02,0.0,6.5,1,1018840021,994275.0,232513.0,5c,22v2,40.8048647,-73.9637884
187,QN,7021,75,408.0,24.0,11366.0,81-50C UTOPIA PARKWAY,R4,W6,8.0,X,ST JOHN'S UNIVERSITY,ST JOHN'S UNIVERSITY,48675,28244,,,,,,,,,1,1.0,0,0,165.0,295.0,110.0,245.0,981000,4171500,1971,0,0,,,0.58,0.75,0.0,2.0,4,4070210075,1041496.0,202830.0,14c,22v2,40.7232129,-73.7934729
188,MN,1896,53,109.0,7.0,10025.0,629 WEST 115 STREET,R8,D3,3.0,,TRUSTEES OF COLUMBIA UNIVERSITY,COLUMBIA UNIVERSITY,5046,"  28,224 ",0.0,28224.0,0.0,0.0,0.0,0.0,0.0,0.0,1,8.0,32,32,50.0,100.92,50.0,81.0,175500,1181700,1910,1987,0,Morningside Heights Historic District,,5.59,6.02,0.0,6.5,1,1018960053,993774.0,233688.0,5c,22v2,40.8080903,-73.9655964
189,MN,1867,46,109.0,7.0,10025.0,419 WEST 115 STREET,R8,D1,3.0,X,TRUSTEES OF COLUMBIA UNIVERSITY,COLUMBIA UNIVERSITY,6728,"  28,188 ",0.0,28188.0,0.0,0.0,0.0,0.0,0.0,0.0,1,6.0,24,24,66.67,100.92,67.0,84.0,432450,2383200,1925,1985,0,,,4.19,6.02,0.0,6.5,1,1018670046,995093.0,232960.0,5c,22v2,40.8060906,-73.9608329
190,MN,1867,52,109.0,7.0,10025.0,411 WEST 115 STREET,R8,D1,3.0,,TRUSTEES OF COLUMBIA UNIVERSITY,COLUMBIA UNIVERSITY,6728,"  28,188 ",0.0,28188.0,0.0,0.0,0.0,0.0,0.0,0.0,1,6.0,24,24,66.67,100.92,67.0,84.0,450000,1812600,1925,1985,0,,,4.19,6.02,0.0,6.5,1,1018670052,995209.0,232895.0,5c,22v2,40.805912,-73.960414
191,MN,1867,49,109.0,7.0,10025.0,415 WEST 115 STREET,R8,D1,3.0,,TRUSTEES OF COLUMBIA UNIVERSITY,COLUMBIA UNIVERSITY,6728,"  28,188 ",0.0,28188.0,0.0,0.0,0.0,0.0,0.0,0.0,1,6.0,24,24,66.67,100.92,67.0,84.0,390600,2189700,1920,1985,0,,,4.19,6.02,0.0,6.5,1,1018670049,995151.0,232928.0,5c,22v2,40.8060027,-73.9606235
192,MN,1986,6,109.0,7.0,10027.0,573 WEST 131 STREET,C6-1,E7,6.0,X,TRUSTEES OF COLUMBIA UNIVERSITY,COLUMBIA UNIVERSITY,6811,"  28,000 ",28000.0,0.0,0.0,0.0,0.0,28000.0,0.0,0.0,1,4.0,0,1,68.17,99.92,68.0,99.0,306450,1538550,1917,2008,0,,,4.11,3.44,6.0,6.5,1,1019860006,996392.0,237106.0,6a,22v2,40.8174685,-73.9561332
193,MN,1867,54,109.0,7.0,10025.0,403 WEST 115 STREET,R8,D1,3.0,,TRUSTEES OF COLUMBIA UNIVERSITY,COLUMBIA UNIVERSITY,6560,"  27,821 ",0.0,27821.0,0.0,0.0,0.0,0.0,0.0,0.0,1,6.0,30,30,65.0,100.92,65.0,86.0,372150,2197350,1920,1987,0,,,4.24,6.02,0.0,6.5,1,1018670054,995266.0,232863.0,5c,22v2,40.8058241,-73.9602082
194,MN,1885,15,109.0,7.0,10025.0,533 WEST 113 STREET,R8,D3,3.0,,TRUSTEES OF COLUMBIA UNIVERSITY,COLUMBIA UNIVERSITY,5046,"  27,509 ",0.0,27509.0,0.0,0.0,0.0,0.0,0.0,0.0,1,8.0,32,32,50.0,100.92,50.0,88.0,315000,1693800,1915,1986,0,,,5.45,6.02,0.0,6.5,1,1018850015,994265.0,232819.0,5c,22v2,40.8057045,-73.963824
195,MN,1896,28,109.0,7.0,10025.0,604 WEST 115 STREET,R8,D1,3.0,,TRUSTEES OF COLUMBIA UNIVERSITY,COLUMBIA UNIVERSITY,5046,"  26,950 ",0.0,26950.0,0.0,0.0,0.0,0.0,0.0,0.0,1,7.0,28,28,50.0,100.92,50.0,90.0,184050,1397700,1925,1987,0,,,5.34,6.02,0.0,6.5,1,1018960028,993917.0,233430.0,5c,22v2,40.807382,-73.9650802
196,MN,1990,33,109.0,7.0,10027.0,47 CLAREMONT AVENUE,R8,W6,8.0,X,TRUSTEES OF COLUMBIA UNIVERSITY,COLUMBIA UNIVERSITY,6250,"  26,302 ",26302.0,0.0,0.0,0.0,0.0,0.0,0.0,26302.0,1,6.0,0,1,62.5,100.0,62.5,87.0,183150,2734200,1906,0,0,Morningside Heights Historic District,,4.21,6.02,0.0,6.5,1,1019900033,994219.0,234453.0,5c,22v2,40.8101895,-73.9639878
197,MN,1962,11,109.0,7.0,10027.0,415 WEST 118 STREET,R8,D1,3.0,,TRUSTEES OF COLUMBIA UNIVERSITY,COLUMBIA UNIVERSITY,5046,"  25,900 ",0.0,25900.0,0.0,0.0,0.0,0.0,0.0,0.0,1,7.0,28,28,50.0,100.92,50.0,84.0,112500,1576800,1926,0,0,,,5.13,6.02,0.0,6.5,1,1019620011,995616.0,233612.0,5c,22v2,40.8078795,-73.9589426
198,MN,465,37,103.0,2.0,10003.0,28 STUYVESANT STREET,R8B,W4,8.0,X,NEW YORK UNIVERSITY,NEW YORK UNIVERSITY,4932,25800,25800.0,0.0,0.0,0.0,0.0,0.0,0.0,25800.0,1,6.0,0,1,98.0,70.0,95.0,72.0,553500,4313250,1920,1986,0,,,5.23,4.0,0.0,4.0,1,1004650037,987544.0,205150.0,12c,22v2,40.7297654,-73.988115
199,MN,1962,13,109.0,7.0,10027.0,405 WEST 118 STREET,R8,D1,3.0,,TRUSTEES OF COLUMBIA UNIVERSITY,COLUMBIA UNIVERSITY,6055,"  25,603 ",0.0,25602.0,0.0,0.0,0.0,0.0,0.0,0.0,1,6.0,24,24,60.0,100.92,60.0,87.0,204300,1054800,1926,0,0,,,4.23,6.02,0.0,6.5,1,1019620013,995665.0,233585.0,5c,22v2,40.8078053,-73.9587657
200,MN,1867,64,109.0,7.0,10027.0,404 WEST 116 STREET,R8,D1,3.0,,TRUSTEES OF COLUMBIA UNIVERSITY,COLUMBIA UNIVERSITY,6055,"  25,380 ",4541.0,20839.0,4541.0,0.0,0.0,0.0,0.0,0.0,1,6.0,16,16,60.0,100.92,60.0,81.0,91350,990000,1915,1998,0,,,4.19,6.02,0.0,6.5,1,1018670064,995317.0,232958.0,5c,22v2,40.8060848,-73.9600238
201,MN,1884,40,109.0,7.0,10025.0,506 WEST 113 STREET,R8,D1,3.0,,TRUSTEES OF COLUMBIA UNIVERSITY,COLUMBIA UNIVERSITY,5458,"  24,446 ",0.0,24446.0,0.0,0.0,0.0,0.0,0.0,0.0,1,6.0,22,22,54.08,100.92,45.0,85.0,225000,904950,1925,0,0,,,4.48,6.02,0.0,6.5,1,1018840040,994412.0,232555.0,5c,22v2,40.8049798,-73.9632934
202,MN,1884,39,109.0,7.0,10025.0,502 WEST 113 STREET,R8,D1,3.0,,COLUMBIA UNIVERSITY,COLUMBIA UNIVERSITY,5458,"  22,914 ",0.0,22914.0,0.0,0.0,0.0,0.0,0.0,0.0,1,6.0,24,24,54.08,100.92,54.0,85.0,176850,866250,1910,1987,0,,,4.2,6.02,0.0,6.5,1,1018840039,994460.0,232528.0,5c,22v2,40.8049056,-73.9631201
203,MN,462,18,103.0,2.0,10003.0,38 EAST 7 STREET,R8B,H8,8.0,X,NEW YORK UNIVERSITY,NEW YORK UNIVERSITY,8652,22224,,,,,,,,,1,3.0,0,1,95.25,90.83,95.0,82.0,819000,1521450,1920,1967,0,,,2.57,4.0,0.0,4.0,1,1004620018,987335.0,204530.0,12c,22v2,40.7280637,-73.9888694
204,MN,550,32,102.0,1.0,10003.0,22 EAST 8 STREET,C1-7,H8,8.0,,NEW YORK UNIVERSITY,NEW YORK UNIVERSITY,9099,22083,6072.0,0.0,6072.0,0.0,0.0,0.0,0.0,0.0,5,6.0,10,14,79.58,120.25,80.0,51.0,210600,1167300,1920,2004,2012,Greenwich Village Historic District,,2.43,6.02,2.0,6.5,1,1005500032,985581.0,205778.0,12c,22v2,40.7314896,-73.9951975
205,MN,1883,57,109.0,7.0,10025.0,540 WEST 112 STREET,R8,D1,3.0,,TRUSTEES OF COLUMBIA UNIVERSITY,COLUMBIA UNIVERSITY,5046,"  21,573 ",0.0,21573.0,0.0,0.0,0.0,0.0,0.0,0.0,1,6.0,24,24,50.0,100.92,50.0,83.0,196200,1325700,1920,0,0,,,4.28,6.02,0.0,6.5,1,1018830057,993887.0,232549.0,5c,22v2,40.8049639,-73.9651898
206,MN,546,20,102.0,1.0,10003.0,10 WASHINGTON PLACE,R7-2,W6,8.0,X,NEW YORK UNIVERSITY,NEW YORK UNIVERSITY,4080,21549,21549.0,0.0,0.0,0.0,0.0,0.0,0.0,21549.0,1,6.0,0,1,42.33,96.25,42.33,86.0,607500,1890450,1900,0,0,,,5.28,3.44,0.0,6.5,1,1005460020,985640.0,204998.0,12c,22v2,40.7293487,-73.9949848
207,MN,1962,7,109.0,7.0,10027.0,419 WEST 118 STREET,R8,D1,3.0,,TRUSTEES OF COLUMBIA UNIVERSITY,COLUMBIA UNIVERSITY,5046,"  21,216 ",0.0,21216.0,0.0,0.0,0.0,0.0,0.0,0.0,1,6.0,24,24,50.0,100.92,50.0,85.0,170100,1341450,1926,0,0,,,4.2,6.02,0.0,6.5,1,1019620007,995528.0,233661.0,5c,22v2,40.8080141,-73.9592604
208,MN,1962,9,109.0,7.0,10027.0,417 WEST 118 STREET,R8,D1,3.0,,TRUSTEES OF COLUMBIA UNIVERSITY,COLUMBIA UNIVERSITY,5046,"  21,181 ",0.0,21180.0,0.0,0.0,0.0,0.0,0.0,0.0,1,6.0,21,21,50.0,100.92,50.0,84.0,92250,1250550,1926,1985,0,,,4.2,6.02,0.0,6.5,1,1019620009,995572.0,233637.0,5c,22v2,40.8079482,-73.9591015
209,MN,1883,48,109.0,7.0,10025.0,522 WEST 112 STREET,R8,C1,2.0,,TRUSTEES OF COLUMBIA UNIVERSITY,COLUMBIA UNIVERSITY,5046,"  21,180 ",0.0,21180.0,0.0,0.0,0.0,0.0,0.0,0.0,1,6.0,24,24,50.0,100.92,50.0,87.0,180000,1201950,1907,0,0,,,4.2,6.02,0.0,6.5,1,1018830048,994083.0,232440.0,5c,22v2,40.8046645,-73.964482
210,MN,1469,21,108.0,5.0,10021.0,1393 YORK AVENUE,R10,M1,8.0,X,CORNELL UNIVERSITY,CORNELL UNIVERSITY,12771,21000,21000.0,0.0,0.0,0.0,0.0,0.0,0.0,21000.0,1,2.0,0,1,102.17,125.0,102.17,100.0,2533500,5202450,1938,0,0,,,1.64,10.0,0.0,10.0,1,1014690021,997268.0,219268.0,9a,22v2,40.7685068,-73.9530029
211,MN,1962,5,109.0,7.0,10027.0,421 WEST 118 STREET,R8,C1,2.0,X,TRUSTEES OF COLUMBIA UNIVERSITY,COLUMBIA UNIVERSITY,5046,"  20,976 ",0.0,20976.0,0.0,0.0,0.0,0.0,0.0,0.0,1,6.0,24,24,50.0,100.92,50.0,84.0,109350,1222650,1926,0,0,,,4.16,6.02,0.0,6.5,1,1019620005,995484.0,233685.0,5c,22v2,40.80808,-73.9594193
212,MN,1976,37,109.0,7.0,10027.0,502 WEST 122 STREET,R8,D1,3.0,,TRUSTEES OF COLUMBIA UNIVERSITY,COLUMBIA UNIVERSITY,4796,"  20,566 ",0.0,20566.0,0.0,0.0,0.0,0.0,0.0,0.0,1,6.0,24,24,50.0,95.92,50.0,82.0,73800,679500,1926,1988,0,,,4.29,6.02,0.0,6.5,1,1019760037,995610.0,234626.0,5c,22v2,40.8106626,-73.9589626
213,MN,547,18,102.0,1.0,10003.0,10 WAVERLY PLACE,R7-2,W9,8.0,X,NEW YORK UNIVERSITY,NEW YORK UNIVERSITY,2068,20550,20550.0,0.0,18700.0,1850.0,0.0,0.0,0.0,0.0,1,10.0,0,14,25.0,82.75,25.0,82.75,176400,1656900,1910,0,0,,,9.94,3.44,0.0,6.5,1,1005470018,985829.0,205188.0,12c,22v2,40.7298702,-73.9943029
214,MN,1994,60,109.0,7.0,10027.0,181 CLAREMONT AVENUE,R8,D1,3.0,X,TRUSTEES OF COLUMBIA UNIVERSITY,COLUMBIA UNIVERSITY,5000,"  20,484 ",0.0,20484.0,0.0,0.0,0.0,0.0,0.0,0.0,1,6.0,24,24,50.0,100.0,50.0,85.0,123750,1097550,1926,0,0,,,4.1,6.02,0.0,6.5,1,1019940060,995093.0,236026.0,5c,22v2,40.8145059,-73.960828
215,MN,1976,41,109.0,7.0,10027.0,512 WEST 122 STREET,R8,D1,3.0,X,TEACHERS COLLEGE COLUMBIA UNIVERITY,COLUMBIA UNIVERSITY,4796,"  20,378 ",0.0,20378.0,0.0,0.0,0.0,0.0,0.0,0.0,1,6.0,24,24,50.0,95.92,50.0,82.67,85500,1182150,1910,0,0,,,4.25,6.02,0.0,6.5,1,1019760041,995521.0,234675.0,5c,22v2,40.8107972,-73.959284
216,MN,1976,43,109.0,7.0,10027.0,514 WEST 122 STREET,R8,D1,3.0,X,TEACHERS COLLEGE COLUMBIA UNIVERITY,COLUMBIA UNIVERSITY,4796,"  20,378 ",0.0,20378.0,0.0,0.0,0.0,0.0,0.0,0.0,1,6.0,24,24,50.0,95.92,50.0,82.67,85500,1158750,1910,0,0,,,4.25,6.02,0.0,6.5,1,1019760043,995476.0,234700.0,5c,22v2,40.8108659,-73.9594465
217,MN,1976,39,109.0,7.0,10027.0,506 WEST 122 STREET,R8,D1,3.0,,TRUSTEES OF COLUMBIA UNIVERSITY,COLUMBIA UNIVERSITY,4796,"  20,238 ",0.0,20238.0,0.0,0.0,0.0,0.0,0.0,0.0,1,6.0,29,29,50.0,95.92,50.0,82.0,205200,896850,1910,0,0,,,4.22,6.02,0.0,6.5,1,1019760039,995565.0,234652.0,5c,22v2,40.8107341,-73.9591251
218,MN,1998,61,109.0,7.0,10027.0,2311 12 AVENUE,C6-1,G9,7.0,,TRUSTEES OF COLUMBIA UNIVERSITY IN THE C ITY OF NEW,COLUMBIA UNIVERSITY,9992,"  19,984 ",19984.0,0.0,0.0,0.0,19984.0,0.0,0.0,0.0,1,2.0,0,2,99.92,100.0,99.0,100.0,225000,1093050,1912,0,0,,,2.0,3.44,6.0,6.5,1,1019980061,995554.0,237685.0,5c,22v2,40.8190588,-73.9591597
219,MN,547,25,102.0,1.0,10003.0,21 WASHINGTON PLACE,R7-2,W6,8.0,X,NEW YORK UNIVERSITY,NEW YORK UNIVERSITY,2500,19936,19936.0,0.0,0.0,0.0,0.0,0.0,0.0,19936.0,1,8.0,0,1,25.0,100.0,25.0,100.0,416250,2081250,1900,0,0,,,7.97,3.44,0.0,6.5,1,1005470025,985623.0,205205.0,12c,22v2,40.7299169,-73.9950461
220,MN,575,40,102.0,3.0,10011.0,24 WEST 12 STREET,R6,W9,8.0,X,NY UNIVERSITY,NEW YORK UNIVERSITY,3252,19924,19924.0,0.0,0.0,0.0,0.0,0.0,0.0,19924.0,1,5.0,0,1,28.5,103.25,28.5,97.0,616500,1957050,1852,1989,0,Greenwich Village Historic District,,6.13,2.43,0.0,4.8,1,1005750040,985409.0,207030.0,12c,22v2,40.7349261,-73.9958179
221,MN,1895,28,109.0,7.0,10025.0,610 WEST 113 STREET,R8,D1,3.0,,TRUSTEES OF COLUMBIA UNIVERSITY,COLUMBIA UNIVERSITY,4239,"  18,120 ",0.0,18120.0,0.0,0.0,0.0,0.0,0.0,0.0,1,6.0,18,18,42.0,100.92,42.0,84.0,25650,837000,1905,1987,0,Morningside Heights Historic District,,4.27,6.02,0.0,6.5,1,1018950028,993579.0,233020.0,5c,22v2,40.806257,-73.9663017
222,MN,1998,10,109.0,7.0,10027.0,641 WEST 131 STREET,C6-1,G1,10.0,,TRUSTEES OF COLUMBIA UNIVERSITY IN THE C ITY OF NEW,COLUMBIA UNIVERSITY,14988,"  17,800 ",17800.0,0.0,5000.0,0.0,12800.0,0.0,0.0,0.0,1,2.0,0,1,150.0,99.92,150.0,99.92,270000,1573650,1926,0,0,,,1.19,3.44,6.0,6.5,1,1019980010,995663.0,237510.0,5c,22v2,40.8185783,-73.9587662
223,MN,546,8,102.0,1.0,10003.0,26 WASHINGTON PLACE,R7-2,W6,8.0,X,NEW YORK UNIVERSITY,NEW YORK UNIVERSITY,2787,17163,17163.0,0.0,0.0,0.0,0.0,0.0,0.0,17163.0,1,7.0,0,1,34.83,80.0,34.84,80.0,449100,1504350,1900,0,0,,,6.16,3.44,0.0,6.5,1,1005460008,985398.0,205166.0,12c,22v2,40.7298098,-73.9958579
224,MN,1998,13,109.0,7.0,10027.0,635 WEST 131 STREET,C6-1,G1,10.0,,TRUSTEES OF COLUMBIA UNIVERSITY IN THE C ITY OF NEW,COLUMBIA UNIVERSITY,7494,"  16,000 ",16000.0,0.0,0.0,0.0,16000.0,0.0,0.0,0.0,1,2.0,0,2,75.0,99.92,75.0,95.0,135000,1590750,1940,2002,0,,,2.14,3.44,6.0,6.5,1,1019980013,995761.0,237456.0,5c,22v2,40.81843,-73.9584123
225,MN,551,11,102.0,1.0,10011.0,22 WASHINGTON SQUARE N,R6,O2,5.0,X,NEW YORK UNIVERSITY,NEW YORK UNIVERSITY,3735,15430,15430.0,0.0,15430.0,0.0,0.0,0.0,0.0,0.0,2,3.5,0,1,27.92,134.58,27.94,126.0,540000,1935900,1925,2008,0,Greenwich Village Historic District,,4.13,2.43,0.0,4.8,1,1005510011,984852.0,206016.0,12c,22v2,40.7321429,-73.9978279
226,MN,1976,51,109.0,7.0,10027.0,524 WEST 122 STREET,R8,C1,2.0,,TRUSTEES OF COLUMBIA UNIVERSITY,COLUMBIA UNIVERSITY,3789,"  15,156 ",0.0,15156.0,0.0,0.0,0.0,0.0,0.0,0.0,1,6.0,23,23,41.67,90.92,42.0,76.0,74700,840600,1910,0,0,,,4.0,6.02,0.0,6.5,1,1019760051,995306.0,234797.0,5c,22v2,40.8111324,-73.9600605
227,MN,1884,24,109.0,7.0,10025.0,509 WEST 112 STREET,R8,D1,3.0,X,TRUSTEES OF COLUMBIA UNIVERSITY,COLUMBIA UNIVERSITY,3431,"  15,102 ",0.0,15102.0,0.0,0.0,0.0,0.0,0.0,0.0,1,6.0,18,18,34.0,100.92,34.0,87.0,77850,753300,1925,0,0,,,4.4,6.02,0.0,6.5,1,1018840024,994318.0,232489.0,5c,22v2,40.8047987,-73.9636331
228,MN,1976,53,109.0,7.0,10027.0,526 WEST 122 STREET,R8,C1,2.0,,TRUSTEES OF COLUMBIA UNIVERSITY,COLUMBIA UNIVERSITY,3789,"  14,856 ",0.0,14856.0,0.0,0.0,0.0,0.0,0.0,0.0,1,6.0,23,23,41.67,90.92,42.0,76.0,74250,954900,1905,1986,0,,,3.92,6.02,0.0,6.5,1,1019760053,995270.0,234817.0,5c,22v2,40.8111873,-73.9601905
229,MN,1987,9,109.0,7.0,10027.0,547 WEST 133 STREET,R7A,G2,7.0,,TRUSTEES OF COLUMBIA UNIVERSITY IN THE C ITY OF NY,COLUMBIA UNIVERSITY,7494,"  14,238 ",14238.0,0.0,0.0,0.0,14238.0,0.0,0.0,0.0,1,2.0,0,2,75.0,99.92,75.0,100.0,121500,623700,1970,0,0,,,1.9,4.0,0.0,4.0,1,1019870009,996711.0,237521.0,6a,22v2,40.8186071,-73.9549799
230,QN,7021,50,408.0,24.0,11432.0,81-50B UTOPIA PARKWAY,R4,W6,8.0,X,ST JOHN'S UNIVERSITY,ST JOHN'S UNIVERSITY,36000,14000,14000.0,0.0,0.0,0.0,0.0,0.0,0.0,14000.0,1,1.0,0,0,234.0,194.0,112.0,125.0,697500,2381400,1973,0,0,,,0.39,0.75,0.0,2.0,4,4070210050,1040894.0,202464.0,14c,22v2,40.7222122,-73.7956479
231,MN,1881,1,107.0,7.0,10025.0,2820 BROADWAY,R9A,C7,4.0,,TRUSTEES OF COLUMBIA UNIVERSITY,COLUMBIA UNIVERSITY,3010,"  13,600 ",3000.0,10600.0,0.0,3000.0,0.0,0.0,0.0,0.0,1,5.0,12,14,35.0,86.0,34.0,86.0,180000,741150,1925,0,0,,,4.52,7.52,0.0,7.5,1,1018810001,993468.0,232024.0,5d,22v2,40.8035234,-73.966704
232,BX,3273,293,206.0,15.0,10458.0,561 EAST FORDHAM ROAD,C4-5D,G1,10.0,,FORDHAM UNIVERSITY,FORDHAM UNIVERSITY,8800,13450,13450.0,0.0,0.0,0.0,13450.0,0.0,0.0,0.0,2,2.0,0,1,100.0,83.0,50.0,83.0,99000,320400,1931,2010,0,,,1.53,4.2,4.2,4.2,2,2032730293,1015795.0,252311.0,3c,22v2,40.8591538,-73.8859622
233,MN,550,30,102.0,1.0,10003.0,18 EAST 8 STREET,C1-7,H8,8.0,,NEW YORK UNIVERSITY,NEW YORK UNIVERSITY,6000,13100,,,,,,,,,3,6.0,0,15,50.0,120.0,50.0,48.0,270000,526050,1900,0,0,Greenwich Village Historic District,,2.18,6.02,2.0,6.5,1,1005500030,985524.0,205809.0,12c,22v2,40.7315747,-73.9954032
234,MN,2004,72,109.0,7.0,10027.0,2308 JOE DIMAGGIO HIGHWAY,M1-2,K2,5.0,,TRUSTEES OF COLUMBIA UNIVERSITY IN THE C ITY OF NEW,COLUMBIA UNIVERSITY,6677,"  13,058 ",13058.0,0.0,0.0,6677.0,0.0,6381.0,0.0,0.0,2,2.0,0,1,84.83,83.25,84.0,80.0,99000,1722150,1940,1993,0,,,1.96,0.0,2.0,4.8,1,1020040072,995397.0,237778.0,5c,22v2,40.8193143,-73.9597268
235,BX,3273,265,206.0,15.0,10458.0,585 EAST FORDHAM ROAD,C4-5D,K4,4.0,,FORDHAM UNIVERSITY,FORDHAM UNIVERSITY,6475,12946,12946.0,0.0,0.0,6473.0,0.0,6473.0,0.0,0.0,1,2.0,0,2,78.0,83.0,78.0,83.5,145800,343350,1931,0,0,,,2.0,4.2,4.2,4.2,2,2032730265,1015950.0,252202.0,3c,22v2,40.8588541,-73.8854024
236,MN,550,27,102.0,1.0,10003.0,12 EAST 8 STREET,C1-7,H8,8.0,,NEW YORK UNIVERSITY,NEW YORK UNIVERSITY,6000,12628,,,,,,,,,3,6.0,4,15,50.0,120.0,50.0,48.0,144000,764550,1930,0,0,Greenwich Village Historic District,,2.1,6.02,2.0,6.5,1,1005500027,985459.0,205845.0,12c,22v2,40.7316735,-73.9956377
237,MN,1883,54,109.0,7.0,10025.0,534 WEST 112 STREET,R8,K2,5.0,X,TRUSTEES OF COLUMBIA UNIVERSITY,COLUMBIA UNIVERSITY,7569,"  12,375 ",12375.0,0.0,0.0,12375.0,0.0,0.0,0.0,0.0,1,2.0,0,2,75.0,100.92,75.0,100.0,342000,1094850,1997,0,0,,,1.63,6.02,0.0,6.5,1,1018830054,993940.0,232519.0,5c,22v2,40.8048815,-73.9649984
238,MN,1896,79,109.0,7.0,10027.0,612 WEST 116 STREET,R8,W6,8.0,X,TRUSTEES OF COLUMBIA UNIVERSITY,COLUMBIA UNIVERSITY,2523,"  12,218 ",12218.0,0.0,0.0,0.0,0.0,0.0,0.0,12218.0,1,5.0,0,1,25.0,100.92,25.0,84.0,109350,659700,1906,0,0,Morningside Heights Historic District,,4.84,6.02,0.0,6.5,1,1018960079,993925.0,233727.0,5c,22v2,40.8081971,-73.9650509
239,MN,550,24,102.0,1.0,10003.0,6 EAST 8 STREET,C1-7,H8,8.0,,NEW YORK UNIVERSITY,NEW YORK UNIVERSITY,4600,12000,630.0,0.0,630.0,0.0,0.0,0.0,0.0,0.0,1,6.0,11,12,50.0,92.0,50.0,46.0,107550,381600,1930,0,0,Greenwich Village Historic District,,2.61,6.02,2.0,6.5,1,1005500024,985400.0,205895.0,12c,22v2,40.7318108,-73.9958506
240,MN,1895,62,109.0,7.0,10025.0,2915 BROADWAY,R8,C7,4.0,,TRUSTEES OF COLUMBIA UNIVERSITY,COLUMBIA UNIVERSITY,2523,"  11,748 ",1000.0,10748.0,0.0,1000.0,0.0,0.0,0.0,0.0,1,5.0,9,10,25.0,100.92,25.0,94.0,742500,1471950,1916,0,0,,,4.66,6.02,0.0,6.5,1,1018950062,993854.0,233207.0,5c,22v2,40.80677,-73.9653081
241,BK,2047,7,302.0,33.0,11201.0,307 BRIDGE STREET,C6-1A,W6,8.0,X,NEW YORK UNIVERSITY,NEW YORK UNIVERSITY,7522,11550,11550.0,0.0,11550.0,0.0,0.0,0.0,0.0,0.0,1,2.0,0,1,75.0,100.25,55.0,70.0,264600,1208700,1847,1996,0,Individual Landmark,INDIVIDUAL LANDMARK,1.54,2.43,6.0,4.8,3,3020470007,988442.0,192238.0,12d,22v2,40.6943246,-73.984883
242,MN,1884,10,109.0,7.0,10025.0,535 WEST 112 STREET,R8,D9,3.0,X,TRUSTEES OF COLUMBIA UNIVERSITY,COLUMBIA UNIVERSITY,2523,"  11,433 ",0.0,11433.0,0.0,0.0,0.0,0.0,0.0,0.0,1,6.0,12,12,25.0,100.92,25.0,87.92,90000,521550,1906,0,0,,,4.53,6.02,0.0,6.5,1,1018840010,994015.0,232656.0,5c,22v2,40.8052574,-73.9647273
243,MN,550,4,102.0,1.0,10003.0,4 WASHINGTON SQUARE N,R6,W6,8.0,X,NEW YORK UNIVERSITY,NEW YORK UNIVERSITY,4470,10495,10495.0,0.0,0.0,0.0,0.0,0.0,0.0,10495.0,2,3.5,0,2,27.67,161.0,27.67,146.0,429300,923400,1900,0,0,Greenwich Village Historic District,,2.35,2.43,0.0,4.8,1,1005500004,985431.0,205659.0,12c,22v2,40.731163,-73.9957388
244,MN,1896,56,109.0,7.0,10025.0,617 WEST 115 STREET,R8,C4,2.0,X,TRUSTEES OF COLUMBIA UNIVERSITY,COLUMBIA UNIVERSITY,2523,"  10,270 ",0.0,10270.0,0.0,0.0,0.0,0.0,0.0,0.0,1,6.0,12,12,25.0,100.92,25.0,82.0,15300,568350,1909,0,0,Morningside Heights Historic District,,4.07,6.02,0.0,6.5,1,1018960056,993830.0,233658.0,5c,22v2,40.8080079,-73.9653941
245,MN,1392,163,108.0,4.0,10075.0,14 EAST 78 STREET,R8B,W6,8.0,X,NEW YORK UNIVERSITY,NEW YORK UNIVERSITY,2043,10262,10262.0,0.0,0.0,0.0,0.0,0.0,0.0,10262.0,1,5.0,0,1,20.0,102.17,20.0,73.17,1170000,2605950,1887,1983,0,Metropolitan Museum Historic District,,5.02,4.0,0.0,4.0,1,1013920163,994363.0,221906.0,8c,22v2,40.7757512,-73.9634865
246,MN,541,33,102.0,1.0,10012.0,249 SULLIVAN STREET,R7-2,W6,8.0,X,NEW YORK UNIVERSITY,NEW YORK UNIVERSITY,2500,10000,10000.0,0.0,0.0,0.0,0.0,0.0,0.0,10000.0,1,4.0,0,1,100.0,25.42,76.0,25.0,303750,1229850,1972,0,0,South Village Historic District,,4.0,3.44,0.0,6.5,1,1005410033,984557.0,205392.0,12c,22v2,40.7304302,-73.9988923
247,MN,546,30,102.0,1.0,10003.0,31 WEST 4 STREET,R7-2,W6,8.0,,NEW YORK UNIVERSITY,NEW YORK UNIVERSITY,2497,9980,9980.0,0.0,7480.0,2500.0,0.0,0.0,0.0,0.0,1,4.0,0,3,25.92,96.25,25.92,96.0,297900,1504350,1900,1999,0,,,4.0,3.44,0.0,6.5,1,1005460030,985484.0,204981.0,12c,22v2,40.7293021,-73.9955477
248,MN,547,19,102.0,1.0,10003.0,7 WASHINGTON PLACE,R7-2,O2,5.0,X,NEW YORK UNIVERSITY,NEW YORK UNIVERSITY,2500,9800,9800.0,0.0,9800.0,0.0,0.0,0.0,0.0,0.0,1,4.0,0,1,25.0,100.0,25.0,100.0,197550,792000,1900,0,0,,,3.92,3.44,0.0,6.5,1,1005470019,985776.0,205107.0,12c,22v2,40.7296478,-73.9944941
249,MN,930,41,106.0,2.0,10010.0,330 EAST 25 STREET,R8,H8,8.0,X,NEW YORK UNIVERSITY,NEW YORK UNIVERSITY,2469,9595,,,,,,,,,2,5.0,0,1,25.0,98.75,25.0,70.0,553500,808200,1910,0,0,,,3.89,6.02,0.0,6.5,1,1009300041,990166.0,208286.0,8d,22v2,40.7383716,-73.9786519
250,MN,2094,29,109.0,7.0,10031.0,3589 BROADWAY,R8,K1,5.0,,THE TRUSTEES OF COLUMBIA UNIVERSITY IN T HE CITY OF,COLUMBIA UNIVERSITY,8570,"  9,000 ",9000.0,0.0,0.0,9000.0,0.0,0.0,0.0,0.0,1,1.0,0,6,26.2,125.0,26.0,125.0,204750,576000,1969,0,0,,,1.05,6.02,0.0,6.5,1,1020940029,998134.0,240992.0,3b,22v2,40.8281319,-73.9498316
251,BX,5752,121,208.0,11.0,10463.0,2 RIVER AVENUE,R1-1,A3,1.0,X,NEW YORK UNIVERSITYSCHOOL OF LAW FOUNDAT ION,NEW YORK UNIVERSITY,41439,8563,0.0,6767.0,0.0,0.0,0.0,0.0,0.0,0.0,2,2.75,1,1,179.22,231.6,48.0,58.0,78300,363360,1905,2003,0,,,0.21,0.5,0.0,1.0,2,2057520121,1006277.0,261964.0,1b,22v2,40.8856772,-73.9203388
252,MN,1471,27,108.0,5.0,10075.0,444 EAST 77 STREET,R10,C5,2.0,X,CORNELL UNIVERSITY,CORNELL UNIVERSITY,2071,8405,0.0,8405.0,0.0,0.0,0.0,0.0,0.0,0.0,1,5.0,16,16,25.0,82.83,25.0,67.0,202950,1008000,1954,1987,0,,,4.06,10.0,0.0,10.0,1,1014710027,997602.0,219819.0,9a,22v2,40.7700186,-73.951796
253,MN,1471,28,108.0,5.0,10075.0,442 EAST 77 STREET,R10,C5,2.0,X,CORNELL UNIVERSITY,CORNELL UNIVERSITY,2071,8405,0.0,8405.0,0.0,0.0,0.0,0.0,0.0,0.0,1,5.0,16,16,25.0,82.83,25.0,67.0,202950,1008000,1954,1987,0,,,4.06,10.0,0.0,10.0,1,1014710028,997579.0,219832.0,9a,22v2,40.7700543,-73.951879
254,MN,1895,78,109.0,7.0,10025.0,415 RIVERSIDE DRIVE,R8,C5,2.0,,TRUSTEES OF COLUMBIA UNIVERSITY,COLUMBIA UNIVERSITY,2403,"  8,200 ",0.0,8200.0,0.0,0.0,0.0,0.0,0.0,0.0,1,5.0,9,9,25.75,93.33,25.0,78.0,330750,1850850,1898,0,0,Morningside Heights Historic District,,3.41,6.02,0.0,6.5,1,1018950078,993464.0,233363.0,5c,22v2,40.8071985,-73.9667166
255,MN,1885,46,109.0,7.0,10025.0,524 WEST 114 STREET,R8,C4,2.0,X,TRUSTEES OF COLUMBIA UNIVERSITY,COLUMBIA UNIVERSITY,2523,"  8,040 ",0.0,8040.0,0.0,0.0,0.0,0.0,0.0,0.0,1,4.0,10,10,25.0,100.92,25.0,68.0,279000,1814850,1920,1988,0,,,3.19,6.02,0.0,6.5,1,1018850046,994391.0,232867.0,5c,22v2,40.8058362,-73.9633688
256,MN,551,7,102.0,1.0,10011.0,19 WASHINGTON SQUARE N,R6,O2,5.0,,NEW YORK UNIVERSITY,NEW YORK UNIVERSITY,3997,7868,7868.0,0.0,7868.0,0.0,0.0,0.0,0.0,0.0,2,3.5,0,1,28.17,144.0,28.0,112.0,362250,925650,1890,2009,0,Greenwich Village Historic District,,1.97,2.43,0.0,4.8,1,1005510007,984940.0,205964.0,12c,22v2,40.7320002,-73.9975104
257,MN,1986,10,109.0,7.0,10027.0,555 WEST 131 STREET,C6-1,G2,7.0,,TRUSTEES OF COLUMBIA UNIVERSITY IN THE CITY OF NEW YORK,COLUMBIA UNIVERSITY,7524,"  7,800 ",7800.0,0.0,0.0,0.0,7800.0,0.0,0.0,0.0,1,1.0,0,1,75.0,100.33,75.0,100.0,101250,490050,1925,0,0,,,1.04,3.44,6.0,6.5,1,1019860010,996453.0,237072.0,6a,22v2,40.8173751,-73.9559128
258,MN,551,10,102.0,1.0,10011.0,21 WASHINGTON SQUARE N,R6,C1,2.0,,NEW YORK UNIVERSITY,NEW YORK UNIVERSITY,3440,7785,0.0,7785.0,0.0,0.0,0.0,0.0,0.0,0.0,3,3.5,7,7,25.0,136.75,25.0,86.0,380250,3503250,1900,1985,0,Greenwich Village Historic District,,2.26,2.43,0.0,4.8,1,1005510010,984874.0,206003.0,12c,22v2,40.7321073,-73.9977485
259,MN,550,6,102.0,1.0,10003.0,6 WASHINGTON SQUARE N,R6,W6,8.0,X,NEW YORK UNIVERSITY,NEW YORK UNIVERSITY,4375,7724,7724.0,0.0,0.0,0.0,0.0,0.0,0.0,7724.0,2,3.5,0,2,27.67,157.25,27.67,104.0,351450,654300,1900,0,0,Greenwich Village Historic District,,1.77,2.43,0.0,4.8,1,1005500006,985384.0,205687.0,12c,22v2,40.7312399,-73.9959084
260,MN,1998,57,109.0,7.0,10027.0,640 WEST 132 STREET,C6-1,G9,7.0,,TRUSTEES OF COLUMBIA UNIVERSITY IN THE C ITY OF NEW,COLUMBIA UNIVERSITY,9992,"  7,500 ",7500.0,0.0,0.0,0.0,7500.0,0.0,0.0,0.0,1,1.0,0,1,100.0,99.92,75.0,100.0,189000,1371150,1910,0,0,,,0.75,3.44,6.0,6.5,1,1019980057,995645.0,237634.0,5c,22v2,40.8189187,-73.958831
261,MN,568,32,102.0,2.0,10003.0,7 EAST 10 STREET,R7-2,W6,8.0,X,NEW YORK UNIVERSITY,NEW YORK UNIVERSITY,2321,7410,7410.0,0.0,0.0,0.0,0.0,0.0,0.0,7410.0,1,5.0,0,1,24.5,94.75,25.0,58.0,648000,1504350,1887,1983,0,Greenwich Village Historic District,,3.19,3.44,0.0,6.5,1,1005680032,985742.0,206440.0,12c,22v2,40.7333066,-73.9946165
262,MN,1895,27,109.0,7.0,10025.0,608 WEST 113 STREET,R8,C4,2.0,X,TRUSTEES OF COLUMBIA UNIVERSITY,COLUMBIA UNIVERSITY,2523,"  7,210 ",0.0,7210.0,0.0,0.0,0.0,0.0,0.0,0.0,1,4.0,11,11,25.0,100.92,25.0,58.0,90000,580500,1897,1987,0,Morningside Heights Historic District,,2.86,6.02,0.0,6.5,1,1018950027,993608.0,233004.0,5c,22v2,40.806213,-73.966197
263,MN,1867,69,109.0,7.0,10027.0,424 WEST 116 STREET,R8,O2,5.0,X,TRUSTEES OF COLUMBIA UNIVERSITY,COLUMBIA UNIVERSITY,2523,"  7,050 ",7050.0,0.0,7050.0,0.0,0.0,0.0,0.0,0.0,1,3.0,0,2,25.0,100.92,25.0,80.0,76050,614250,1915,0,0,,,2.79,6.02,0.0,6.5,1,1018670069,995215.0,233014.0,5c,22v2,40.8062386,-73.9603921
264,MN,1884,52,109.0,7.0,10025.0,544 WEST 113 STREET,R8,C7,4.0,,TRUSTEES OF COLUMBIA UNIVERSITY,COLUMBIA UNIVERSITY,1892,"  7,040 ",1430.0,5610.0,0.0,1430.0,0.0,0.0,0.0,0.0,1,4.0,8,9,18.75,100.92,19.0,67.0,255150,922950,1920,0,0,,,3.72,6.02,0.0,6.5,1,1018840052,994124.0,232714.0,5c,22v2,40.8054165,-73.9643335
265,MN,1993,39,109.0,7.0,10027.0,124 LA SALLE STREET,R8,C4,2.0,X,TRUSTEES OF COLUMBIA UNIVERSITY,COLUMBIA UNIVERSITY,1800,"  6,995 ",0.0,6995.0,0.0,0.0,0.0,0.0,0.0,0.0,1,5.0,14,14,18.0,100.92,18.0,87.0,20700,441450,1901,1988,0,,,3.89,6.02,0.0,6.5,1,1019930039,995217.0,235758.0,5c,22v2,40.8137702,-73.9603804
266,MN,550,29,102.0,1.0,10003.0,16 EAST 8 STREET,C1-7,H8,8.0,,NEW YORK UNIVERSITY,NEW YORK UNIVERSITY,3000,6850,1175.0,0.0,0.0,1175.0,0.0,0.0,0.0,0.0,2,6.0,1,13,25.0,120.0,25.0,78.0,207000,917550,1930,0,0,Greenwich Village Historic District,,2.28,6.02,2.0,6.5,1,1005500029,985492.0,205827.0,12c,22v2,40.7316241,-73.9955187
267,MN,550,5,102.0,1.0,10003.0,5 WASHINGTON SQUARE N,R6,W6,8.0,X,NEW YORK UNIVERSITY,NEW YORK UNIVERSITY,4430,6715,6715.0,0.0,0.0,0.0,0.0,0.0,0.0,6715.0,2,3.5,0,2,27.67,159.08,27.67,159.08,418500,721800,1920,1984,0,Greenwich Village Historic District,,1.52,2.43,0.0,4.8,1,1005500005,985407.0,205673.0,12c,22v2,40.7312014,-73.9958254
268,MN,1885,119,109.0,7.0,10025.0,525 WEST 113 STREET,R8,C4,2.0,,TRUSTEES OF COLUMBIA UNIVERSITY,COLUMBIA UNIVERSITY,2018,"  6,570 ",0.0,6570.0,0.0,0.0,0.0,0.0,0.0,0.0,1,5.0,10,10,20.0,100.92,20.0,70.0,181800,1482750,1915,1980,0,,,3.26,6.02,0.0,6.5,1,1018850119,994347.0,232773.0,5c,22v2,40.8055782,-73.9635279
269,MN,1885,54,109.0,7.0,10025.0,544 WEST 114 STREET,R8,C4,2.0,X,TRUSTEES OF COLUMBIA UNIVERSITY,COLUMBIA UNIVERSITY,2018,"  6,230 ",0.0,6230.0,0.0,0.0,0.0,0.0,0.0,0.0,1,4.0,9,9,20.0,100.92,20.0,64.0,174150,1405800,1900,1987,0,,,3.09,6.02,0.0,6.5,1,1018850054,994210.0,232967.0,5c,22v2,40.8061108,-73.9640225
270,MN,1885,58,109.0,7.0,10025.0,554 WEST 114 STREET,R8,C4,2.0,X,TRUSTEES OF COLUMBIA UNIVERSITY,COLUMBIA UNIVERSITY,2018,"  6,033 ",0.0,6033.0,0.0,0.0,0.0,0.0,0.0,0.0,1,5.0,10,10,20.0,100.92,20.0,66.0,194400,1593450,1900,0,0,,,2.99,6.02,0.0,6.5,1,1018850058,994125.0,233014.0,5c,22v2,40.8062399,-73.9643294
271,MN,1895,129,109.0,7.0,10025.0,614 WEST 113 STREET,R8,H8,8.0,X,TRUSTEES OF COLUMBIA UNIVERSITY,COLUMBIA UNIVERSITY,1817,"  5,910 ",,,,,,,,,1,5.0,0,1,18.0,100.92,18.0,69.0,216900,409050,1897,0,0,Morningside Heights Historic District,,3.25,6.02,0.0,6.5,1,1018950129,993553.0,233035.0,5c,22v2,40.8062982,-73.9663956
272,MN,1885,48,109.0,7.0,10025.0,528 WEST 114 STREET,R8,C5,2.0,X,TRUSTEES OF COLUMBIA UNIVERSITY,COLUMBIA UNIVERSITY,2018,"  5,800 ",0.0,5800.0,0.0,0.0,0.0,0.0,0.0,0.0,1,4.0,7,7,20.0,100.92,20.0,68.0,67500,1309050,1920,1987,2009,,,2.87,6.02,0.0,6.5,1,1018850048,994350.0,232889.0,5c,22v2,40.8058966,-73.9635169
273,MN,1885,52,109.0,7.0,10025.0,538 WEST 114 STREET,R8,C5,2.0,X,TRUSTEES OF COLUMBIA UNIVERSITY,COLUMBIA UNIVERSITY,2018,"  5,800 ",0.0,5800.0,0.0,0.0,0.0,0.0,0.0,0.0,1,4.0,13,13,20.0,100.92,20.0,64.0,135000,541350,1900,0,0,,,2.87,6.02,0.0,6.5,1,1018850052,994262.0,232938.0,5c,22v2,40.8060312,-73.9638347
274,MN,1884,58,109.0,7.0,10025.0,560 WEST 113 STREET,R8,W6,8.0,X,TRUSTEES OF COLUMBIA UNIVERSITY,COLUMBIA UNIVERSITY,1917,"  5,773 ",5773.0,0.0,0.0,0.0,0.0,0.0,0.0,5773.0,1,4.0,0,2,19.0,100.92,19.0,70.0,63900,600750,1900,1985,0,,,3.01,6.02,0.0,6.5,1,1018840058,993997.0,232785.0,5c,22v2,40.8056115,-73.9647921
275,MN,1884,53,109.0,7.0,10025.0,546 WEST 113 STREET,R8,C5,2.0,,TRUSTEES OF COLUMBIA UNIVERSITY,COLUMBIA UNIVERSITY,1892,"  5,710 ",0.0,5710.0,0.0,0.0,0.0,0.0,0.0,0.0,1,4.0,8,8,18.75,100.92,19.0,74.0,241200,1442250,1920,0,0,,,3.02,6.02,0.0,6.5,1,1018840053,994108.0,232723.0,5c,22v2,40.8054412,-73.9643913
276,MN,1884,51,109.0,7.0,10025.0,540 WEST 113 STREET,R8,C4,2.0,X,TRUSTEES OF COLUMBIA UNIVERSITY,COLUMBIA UNIVERSITY,1892,"  5,710 ",0.0,5710.0,0.0,0.0,0.0,0.0,0.0,0.0,1,4.0,10,10,18.75,100.92,19.0,67.0,205650,1507950,1920,0,0,,,3.02,6.02,0.0,6.5,1,1018840051,994157.0,232696.0,5c,22v2,40.8053671,-73.9642143
277,MN,1884,57,109.0,7.0,10025.0,558 WEST 113 STREET,R8,C5,2.0,X,TRUSTEES OF COLUMBIA UNIVERSITY,COLUMBIA UNIVERSITY,1917,"  5,625 ",0.0,5625.0,0.0,0.0,0.0,0.0,0.0,0.0,1,5.0,9,9,19.0,100.92,19.0,67.0,236250,1485450,1920,0,0,,,2.93,6.02,0.0,6.5,1,1018840057,994014.0,232775.0,5c,22v2,40.8055841,-73.9647307
278,MN,1885,148,109.0,7.0,10025.0,530 WEST 114 STREET,R8,C4,2.0,,TRUSTEES OF COLUMBIA UNIVERSITY,COLUMBIA UNIVERSITY,2018,"  5,620 ",0.0,5620.0,0.0,0.0,0.0,0.0,0.0,0.0,1,4.0,9,9,20.0,100.92,20.0,64.0,148500,1484550,1900,1988,0,,,2.78,6.02,0.0,6.5,1,1018850148,994331.0,232900.0,5c,22v2,40.8059268,-73.9635855
279,MN,1884,151,109.0,7.0,10025.0,542 WEST 113 STREET,R8,C4,2.0,X,TRUSTEES OF COLUMBIA UNIVERSITY,COLUMBIA UNIVERSITY,1892,"  5,610 ",0.0,5610.0,0.0,0.0,0.0,0.0,0.0,0.0,1,4.0,9,9,18.75,100.92,19.0,67.0,220950,1481850,1920,0,0,,,2.97,6.02,0.0,6.5,1,1018840151,994140.0,232705.0,5c,22v2,40.8053918,-73.9642757
280,MN,1896,51,109.0,7.0,10025.0,635 WEST 115 STREET,R8,W6,8.0,X,TRUSTEES OF COLUMBIA UNIVERSITY,COLUMBIA UNIVERSITY,2523,"  5,525 ",5525.0,0.0,0.0,0.0,0.0,0.0,0.0,5525.0,1,4.0,0,1,25.0,100.92,25.0,47.0,94500,575100,1893,0,0,Morningside Heights Historic District,,2.19,6.02,0.0,6.5,1,1018960051,993716.0,233720.0,5c,22v2,40.8081781,-73.9658058
281,MN,1884,156,109.0,7.0,10025.0,556 WEST 113 STREET,R8,C5,2.0,X,TRUSTEES OF COLUMBIA UNIVERSITY,COLUMBIA UNIVERSITY,1817,"  5,250 ",0.0,5250.0,0.0,0.0,0.0,0.0,0.0,0.0,1,4.0,12,12,18.0,100.92,18.0,67.0,90000,413550,1920,0,0,,,2.89,6.02,0.0,6.5,1,1018840156,994030.0,232766.0,5c,22v2,40.8055593,-73.964673
282,MN,1884,56,109.0,7.0,10025.0,554 WEST 113 STREET,R8,C5,2.0,X,TRUSTEES OF COLUMBIA UNIVERSITY,COLUMBIA UNIVERSITY,1817,"  5,250 ",0.0,5250.0,0.0,0.0,0.0,0.0,0.0,0.0,1,4.0,8,8,18.0,100.92,18.0,65.0,172350,1386450,1920,0,0,,,2.89,6.02,0.0,6.5,1,1018840056,994046.0,232757.0,5c,22v2,40.8055346,-73.9646152
283,MN,1884,54,109.0,7.0,10025.0,548 WEST 113 STREET,R8,W6,8.0,X,TRUSTEES OF COLUMBIA UNIVERSITY,COLUMBIA UNIVERSITY,1716,"  5,235 ",5235.0,0.0,0.0,0.0,0.0,0.0,0.0,5235.0,1,4.0,9,9,17.0,100.92,17.0,70.0,109350,544500,1910,0,0,,,3.05,6.02,0.0,6.5,1,1018840054,994092.0,232732.0,5c,22v2,40.805466,-73.9644491
284,BX,3273,252,206.0,15.0,10458.0,619 EAST FORDHAM ROAD,C4-5D,GU,5.0,,FORDHAM UNIVERSITY,FORDHAM UNIVERSITY,6758,5000,5000.0,0.0,0.0,500.0,4500.0,0.0,0.0,0.0,1,1.0,0,1,50.75,129.42,50.0,100.0,121500,408150,1923,1983,0,,,0.74,4.2,4.2,4.2,2,2032730252,1016261.0,252082.0,3c,22v2,40.8585236,-73.8842787
285,MN,1998,6,109.0,7.0,10027.0,653 WEST 131 STREET,C6-1,G1,10.0,,TRUSTEES OF COLUMBIA UNIVERSITY IN THE C ITY OF NEW,COLUMBIA UNIVERSITY,4996,"  4,996 ",4996.0,0.0,0.0,0.0,4996.0,0.0,0.0,0.0,1,1.0,0,1,50.0,99.92,50.0,100.0,137250,624150,1930,0,0,,,1.0,3.44,6.0,6.5,1,1019980006,995575.0,237559.0,5c,22v2,40.8187129,-73.9590841
286,MN,1884,55,109.0,7.0,10025.0,552 WEST 113 STREET,R8,W6,8.0,X,TRUSTEES OF COLUMBIA UNIVERSITY,COLUMBIA UNIVERSITY,1716,"  4,975 ",4975.0,0.0,0.0,0.0,0.0,0.0,0.0,4975.0,1,4.0,10,10,17.0,100.92,17.0,64.0,59850,162000,1910,0,0,,,2.9,6.02,0.0,6.5,1,1018840055,994061.0,232749.0,5c,22v2,40.8055126,-73.964561
287,MN,1881,6,107.0,7.0,10025.0,253 WEST 109 STREET,R8B,C2,2.0,,TRUSTEES OF COLUMBIA UNIVERSITY,COLUMBIA UNIVERSITY,1365,"  4,946 ",0.0,4946.0,0.0,0.0,0.0,0.0,0.0,0.0,1,5.0,5,5,39.0,35.0,39.0,35.0,153450,1306350,1920,0,0,,,3.62,4.0,0.0,4.0,1,1018810006,993524.0,231993.0,5d,22v2,40.8034382,-73.9665018
288,BX,3273,208,206.0,15.0,10458.0,2546 BELMONT AVENUE,C4-5D,W6,8.0,X,FORDHAM UNIVERSITY,FORDHAM UNIVERSITY,1877,4687,4687.0,0.0,0.0,0.0,0.0,0.0,0.0,4687.0,1,3.0,0,1,25.0,75.08,25.0,75.0,17550,162900,1931,0,0,,,2.5,4.2,4.2,4.2,2,2032730208,1016687.0,252123.0,3c,22v2,40.8586346,-73.8827385
289,MN,2139,166,112.0,10.0,10032.0,83 HAVEN AVENUE,R8,K2,5.0,,THE TRUSTEES OF COLUMBIA UNIVERSITY IN THE CITY OF NEW YORK,COLUMBIA UNIVERSITY,2325,"  4,653 ",4653.0,0.0,0.0,4653.0,0.0,0.0,0.0,0.0,1,2.0,0,2,25.83,95.92,25.83,94.0,23850,549900,1926,0,0,,,2.0,6.02,0.0,6.5,1,1021390166,1000214.0,246865.0,3b,22v2,40.8442481,-73.9423018
290,MN,2094,32,109.0,7.0,10031.0,3581 BROADWAY,R8,M9,8.0,,THE TRUSTEES OF COLUMBIA UNIVERSITY IN T HE CITY OF,COLUMBIA UNIVERSITY,3985,"  4,200 ",4200.0,0.0,0.0,0.0,0.0,0.0,0.0,0.0,1,1.0,0,1,74.92,54.67,74.0,54.0,94950,206100,1969,0,0,,,1.05,6.02,0.0,6.5,1,1020940032,998173.0,240947.0,3b,22v2,40.8280083,-73.9496908
291,MN,573,13,102.0,3.0,10011.0,58 WEST 10 STREET,R6,W9,8.0,X,NEW YORK UNIVERSITY,NEW YORK UNIVERSITY,1983,4090,4090.0,0.0,4090.0,0.0,0.0,0.0,0.0,0.0,1,3.0,0,1,21.5,92.25,21.5,40.0,356850,659700,1836,0,0,Greenwich Village Historic District,,2.06,2.43,0.0,4.8,1,1005730013,984792.0,206792.0,12c,22v2,40.7342729,-73.9980443
292,MN,1895,67,109.0,7.0,10025.0,616 WEST 114 STREET,R8,H8,8.0,X,TRUSTEES OF COLUMBIA UNIVERSITY,COLUMBIA UNIVERSITY,1514,"  3,900 ",,,,,,,,,1,4.0,0,1,15.0,100.92,15.0,75.0,180900,265950,1896,1988,0,Morningside Heights Historic District,,2.58,6.02,0.0,6.5,1,1018950067,993686.0,233259.0,5c,22v2,40.8069129,-73.9659149
293,MN,1895,163,109.0,7.0,10025.0,604 WEST 114 STREET,R8,H8,8.0,X,TRUSTEES OF COLUMBIA UNIVERSITY,COLUMBIA UNIVERSITY,1514,"  3,900 ",,,,,,,,,1,4.0,0,1,15.0,100.92,15.0,75.0,124648,179550,1896,2006,0,Morningside Heights Historic District,,2.58,6.02,0.0,6.5,1,1018950163,993761.0,233217.0,5c,22v2,40.8067975,-73.965644
294,MN,621,67,102.0,3.0,10014.0,63 CHARLES STREET,R6,A4,1.0,X,NEW YORK UNIVERSITYSCHOOL OF LAW FOUNDAT ION,NEW YORK UNIVERSITY,1905,3840,0.0,2880.0,0.0,0.0,0.0,0.0,0.0,0.0,1,3.0,1,1,20.0,95.25,20.0,48.0,169020,780780,1866,1999,0,Greenwich Village Historic District,,2.02,2.43,0.0,4.8,1,1006210067,983210.0,207059.0,12a,22v2,40.7350057,-74.0037527
295,MN,1895,164,109.0,7.0,10025.0,608 WEST 114 STREET,R8,C5,2.0,,TRUSTEES OF COLUMBIA UNIVERSITY,COLUMBIA UNIVERSITY,1413,"  3,688 ",0.0,3688.0,0.0,0.0,0.0,0.0,0.0,0.0,1,4.0,9,9,14.0,100.92,14.0,76.0,199800,974250,1896,1987,0,Morningside Heights Historic District,,2.61,6.02,0.0,6.5,1,1018950164,993736.0,233231.0,5c,22v2,40.806836,-73.9657343
296,MN,1895,66,109.0,7.0,10025.0,614 WEST 114 STREET,R8,H8,8.0,X,TRUSTEES OF COLUMBIA UNIVERSITY,COLUMBIA UNIVERSITY,1413,"  3,688 ",,,,,,,,,1,4.0,0,1,14.0,100.92,14.0,76.0,168750,288000,1896,0,0,Morningside Heights Historic District,,2.61,6.02,0.0,6.5,1,1018950066,993698.0,233252.0,5c,22v2,40.8068936,-73.9658715
297,MN,1895,165,109.0,7.0,10025.0,612 WEST 114 STREET,R8,H8,8.0,X,TRUSTEES OF COLUMBIA UNIVERSITY,COLUMBIA UNIVERSITY,1413,"  3,688 ",,,,,,,,,1,4.0,0,1,14.0,100.92,14.0,75.0,168750,207000,1896,0,0,Morningside Heights Historic District,,2.61,6.02,0.0,6.5,1,1018950165,993711.0,233245.0,5c,22v2,40.8068744,-73.9658246
298,MN,1895,65,109.0,7.0,10025.0,610 WEST 114 STREET,R8,H8,8.0,X,TRUSTEES OF COLUMBIA UNIVERSITY,COLUMBIA UNIVERSITY,1413,"  3,688 ",,,,,,,,,1,4.0,0,1,14.0,100.92,14.0,75.0,168750,276300,1896,0,0,Morningside Heights Historic District,,2.61,6.02,0.0,6.5,1,1018950065,993723.0,233238.0,5c,22v2,40.8068552,-73.9657812
299,MN,1895,64,109.0,7.0,10025.0,606 WEST 114 STREET,R8,H8,8.0,X,TRUSTEES OF COLUMBIA UNIVERSITY,COLUMBIA UNIVERSITY,1413,"  3,688 ",,,,,,,,,1,4.0,0,1,14.0,100.92,14.0,75.0,65250,182700,1896,0,0,Morningside Heights Historic District,,2.61,6.02,0.0,6.5,1,1018950064,993748.0,233224.0,5c,22v2,40.8068167,-73.9656909
300,QN,6715,27,408.0,24.0,11367.0,147-28 UNION TURNPIKE,R4,C0,2.0,X,ST JOHN'S UNIVERSITY,ST JOHN'S UNIVERSITY,1430,3430,0.0,3430.0,0.0,0.0,0.0,0.0,0.0,0.0,1,3.0,3,3,22.0,65.0,22.0,55.0,23700,86520,2004,0,0,,,2.4,0.75,0.0,2.0,4,4067150027,1035784.0,201019.0,14c,22v2,40.7182773,-73.814094
301,QN,6715,37,408.0,24.0,11367.0,147-04 UNION TURNPIKE,R4,C0,2.0,X,ST JOHN'S UNIVERSITY,ST JOHN'S UNIVERSITY,1430,3430,0.0,3430.0,0.0,0.0,0.0,0.0,0.0,0.0,1,3.0,3,3,22.0,65.0,22.0,55.0,23700,90960,2004,0,0,,,2.4,0.75,0.0,2.0,4,4067150037,1035519.0,200922.0,14c,22v2,40.7180126,-73.8150507
302,QN,6715,28,408.0,24.0,11367.0,147-26 UNION TURNPIKE,R4,C0,2.0,X,ST JOHN'S UNIVERSITY,ST JOHN'S UNIVERSITY,1430,3430,0.0,3430.0,0.0,0.0,0.0,0.0,0.0,0.0,1,3.0,3,3,22.0,65.0,22.0,55.0,23700,86520,2004,0,0,,,2.4,0.75,0.0,2.0,4,4067150028,1035764.0,201011.0,14c,22v2,40.7182555,-73.8141662
303,QN,6715,26,408.0,24.0,11367.0,147-30 UNION TURNPIKE,R4,C0,2.0,X,ST JOHN'S UNIVERSITY,ST JOHN'S UNIVERSITY,1430,3430,0.0,3430.0,0.0,0.0,0.0,0.0,0.0,0.0,1,3.0,3,3,22.0,65.0,22.0,55.0,23700,90960,2004,0,0,,,2.4,0.75,0.0,2.0,4,4067150026,1035805.0,201026.0,14c,22v2,40.7182964,-73.8140182
304,QN,6715,35,408.0,24.0,11367.0,147-08 UNION TURNPIKE,R4,C0,2.0,X,ST JOHN'S UNIVERSITY,ST JOHN'S UNIVERSITY,1430,3430,0.0,3430.0,0.0,0.0,0.0,0.0,0.0,0.0,1,3.0,3,3,22.0,65.0,22.0,55.0,23700,86520,2004,0,0,,,2.4,0.75,0.0,2.0,4,4067150035,1035561.0,200937.0,14c,22v2,40.7180535,-73.8148991
305,QN,6715,36,408.0,24.0,11367.0,147-06 UNION TURNPIKE,R4,C0,2.0,X,"ST. JOHN'S UNIVERSITY, NEW YORK",ST JOHN'S UNIVERSITY,1430,3430,0.0,3430.0,0.0,0.0,0.0,0.0,0.0,0.0,1,3.0,3,3,22.0,65.0,22.0,55.0,23700,86520,2004,0,0,,,2.4,0.75,0.0,2.0,4,4067150036,1035540.0,200929.0,14c,22v2,40.7180317,-73.8149749
306,QN,6715,30,408.0,24.0,11367.0,147-22 UNION TURNPIKE,R4,C0,2.0,X,ST JOHN'S UNIVERSITY,ST JOHN'S UNIVERSITY,1494,3412,0.0,3412.0,0.0,0.0,0.0,0.0,0.0,0.0,1,3.0,3,3,29.0,51.5,29.0,41.5,23700,88200,2004,0,0,,,2.28,0.75,0.0,2.0,4,4067150030,1035710.0,200999.0,14c,22v2,40.7182228,-73.8143611
307,QN,6715,32,408.0,24.0,11367.0,147-20 UNION TURNPIKE,R4,C0,2.0,X,ST JOHN'S UNIVERSITY,ST JOHN'S UNIVERSITY,1494,3412,0.0,3412.0,0.0,0.0,0.0,0.0,0.0,0.0,1,3.0,3,3,29.0,51.5,29.0,41.5,23700,88200,2004,0,0,,,2.28,0.75,0.0,2.0,4,4067150032,1035637.0,200972.0,14c,22v2,40.7181492,-73.8146246
308,QN,6715,34,408.0,24.0,11367.0,147-10 UNION TURNPIKE,R4,C0,2.0,X,ST JOHN'S UNIVERSITY,ST JOHN'S UNIVERSITY,1494,3412,0.0,3412.0,0.0,0.0,0.0,0.0,0.0,0.0,1,3.0,3,3,29.0,51.5,29.0,41.5,23700,88200,2004,0,0,,,2.28,0.75,0.0,2.0,4,4067150034,1035582.0,200952.0,14c,22v2,40.7180946,-73.8148232
309,QN,6715,33,408.0,24.0,11367.0,147-12 UNION TURNPIKE,R4,C0,2.0,X,ST JOHN'S UNIVERSITY,ST JOHN'S UNIVERSITY,1494,3412,0.0,3412.0,0.0,0.0,0.0,0.0,0.0,0.0,1,3.0,3,3,29.0,51.5,29.0,41.5,23700,88200,2004,0,0,,,2.28,0.75,0.0,2.0,4,4067150033,1035610.0,200962.0,14c,22v2,40.7181219,-73.8147221
310,QN,6715,29,408.0,24.0,11367.0,147-24 UNION TURNPIKE,R4,C0,2.0,X,ST JOHN'S UNIVERSITY,ST JOHN'S UNIVERSITY,1494,3412,0.0,3412.0,0.0,0.0,0.0,0.0,0.0,0.0,1,3.0,3,3,29.0,51.5,29.0,41.5,23700,88200,2004,0,0,,,2.28,0.75,0.0,2.0,4,4067150029,1035737.0,201009.0,14c,22v2,40.7182501,-73.8142636
311,QN,6715,31,408.0,24.0,11367.0,147-20 UNION TURNPIKE,R4,C0,2.0,X,"ST. JOHN'S UNIVERSITY, NEW YORK",ST JOHN'S UNIVERSITY,1494,3412,0.0,3412.0,0.0,0.0,0.0,0.0,0.0,0.0,1,3.0,3,3,29.0,51.5,29.0,41.5,23700,88200,2004,0,0,,,2.28,0.75,0.0,2.0,4,4067150031,1035683.0,200989.0,14c,22v2,40.7181956,-73.8144586
312,QN,9889,1,408.0,24.0,11432.0,84-01 HOMELAWN STREET,R1-2,A1,1.0,X,ST JOHN'S UNIVERSITYNY,ST JOHN'S UNIVERSITY,8120,3382,0.0,3382.0,0.0,0.0,0.0,0.0,0.0,0.0,1,2.5,1,1,70.0,116.0,28.0,56.0,20700,103980,1930,0,0,,,0.42,0.5,0.0,1.0,4,4098890001,1041919.0,200420.0,14c,22v2,40.7165953,-73.7919675
313,MN,640,68,102.0,3.0,10014.0,28 BETHUNE STREET,R6,C0,2.0,X,NEW YORK UNIVERSITYSCHOOL OF LAW FOUNDAT ION,NEW YORK UNIVERSITY,1689,3360,0.0,2520.0,0.0,0.0,0.0,0.0,0.0,0.0,1,3.0,3,3,21.0,80.42,21.0,40.0,174960,587700,1845,0,0,Greenwich Village Historic District,,1.99,2.43,0.0,4.8,1,1006400068,982235.0,207836.0,12a,22v2,40.7371382,-74.0072711
314,BK,2118,4,302.0,35.0,11217.0,107 SOUTH OXFORD STREET,R6B,B9,1.0,,NEW YORK UNIVERSITY SCHOOL OF LAW FOUNDA TION,NEW YORK UNIVERSITY,2000,3200,0.0,2400.0,0.0,0.0,0.0,0.0,0.0,0.0,1,3.0,2,2,20.0,100.0,20.0,40.0,40680,258540,1900,2004,0,,,1.6,2.0,0.0,2.0,3,3021180004,991693.0,189353.0,16c,22v2,40.6864038,-73.9731627
315,BX,3273,204,206.0,15.0,10458.0,2535 CAMBRELENG AVENUE,C4-5D,C0,2.0,,FORDHAM UNIVERSITY,FORDHAM UNIVERSITY,2500,2400,0.0,1600.0,0.0,0.0,0.0,0.0,0.0,0.0,1,2.0,3,3,25.0,100.0,20.0,40.0,11280,51060,1920,0,0,,,0.96,4.2,4.2,4.2,2,2032730204,1016742.0,251998.0,3c,22v2,40.8582913,-73.8825402
316,QN,7021,137,408.0,24.0,11432.0,170-25 GRAND CENTRAL PKWY,R3X,A1,1.0,X,ST JOHN'S UNIVERSITY,ST JOHN'S UNIVERSITY,6000,2368,0.0,2368.0,0.0,0.0,0.0,0.0,0.0,0.0,1,2.0,1,1,60.0,100.0,36.0,37.0,23820,80820,1950,0,0,,,0.39,0.5,0.0,1.0,4,4070210137,1041052.0,201295.0,14c,22v2,40.7190026,-73.7950877
317,BX,3273,207,206.0,15.0,10458.0,2541 CAMBRELENG AVENUE,C4-5D,B2,1.0,X,FORDHAM UNIVERSITY,FORDHAM UNIVERSITY,2508,2320,0.0,2320.0,0.0,0.0,0.0,0.0,0.0,0.0,1,2.0,2,2,25.08,100.0,20.0,58.0,10680,51660,1920,0,0,,,0.93,4.2,4.2,4.2,2,2032730207,1016783.0,252061.0,3c,22v2,40.858464,-73.8823917
318,QN,9889,72,408.0,24.0,11432.0,84-15 KENDRICK PLACE,R1-2,A1,1.0,X,ST JOHNS UNIVERSITY,ST JOHN'S UNIVERSITY,6850,2110,0.0,2110.0,0.0,0.0,0.0,0.0,0.0,0.0,2,2.5,1,1,50.0,137.0,28.0,36.0,21120,64920,1930,0,0,,,0.31,0.5,0.0,1.0,4,4098890072,1042010.0,200418.0,14c,22v2,40.7165893,-73.7916393
319,BX,3273,233,206.0,15.0,10458.0,2535 BELMONT AVENUE,R6B,C0,2.0,,FORDHAM UNIVERSITY,FORDHAM UNIVERSITY,2185,2000,0.0,2000.0,0.0,0.0,0.0,0.0,0.0,0.0,1,2.0,3,3,25.0,87.42,20.0,50.0,7740,43680,1920,0,0,,,0.92,2.0,0.0,2.0,2,2032730233,1016551.0,252149.0,3c,22v2,40.8587064,-73.88323
320,BX,3273,315,206.0,15.0,10458.0,540 EAST 191 STREET,R6B,B2,1.0,,FORDHAM UNIVERSITY,FORDHAM UNIVERSITY,1658,1984,0.0,1984.0,0.0,0.0,0.0,0.0,0.0,0.0,1,2.0,2,2,16.58,100.0,16.58,60.0,7320,36660,1910,0,0,,,1.2,2.0,0.0,2.0,2,2032730315,1015649.0,252525.0,3c,22v2,40.8597417,-73.886489
321,MN,1986,1,109.0,7.0,10027.0,3260 BROADWAY,C6-1,G4,7.0,,THE TRUSTEES OF COLUMBIA UNIVERSITY,COLUMBIA UNIVERSITY,9985,"  1,950 ",1950.0,0.0,0.0,0.0,1950.0,0.0,0.0,0.0,1,1.0,0,1,100.0,99.83,30.0,65.0,337050,888750,1966,0,0,,,0.2,3.44,6.0,6.5,1,1019860001,996318.0,237147.0,6a,22v2,40.8175811,-73.9564004
322,BX,3273,332,206.0,15.0,10458.0,2535 HUGHES AVENUE,R6,A1,1.0,X,FORDHAM UNIVERSITY,FORDHAM UNIVERSITY,6250,1893,0.0,1893.0,0.0,0.0,0.0,0.0,0.0,0.0,3,2.5,1,1,50.0,125.0,18.0,35.0,14040,49320,1920,0,0,,,0.3,2.43,0.0,4.8,2,2032730332,1016338.0,252275.0,3c,22v2,40.859053,-73.8839994
323,QN,7021,131,408.0,24.0,11432.0,170-45 GRAND CENTRAL PKWY,R3X,A2,1.0,X,ST JOHN'S UNIVERSITY,ST JOHN'S UNIVERSITY,4000,1890,0.0,1350.0,0.0,0.0,0.0,0.0,0.0,0.0,1,1.5,1,1,40.0,100.0,20.0,54.0,19860,60540,1955,0,0,,,0.47,0.5,0.0,1.0,4,4070210131,1041213.0,201323.0,14c,22v2,40.7190784,-73.7945067
324,MN,1884,42,109.0,7.0,10025.0,514 WEST 113 STREET,R8,O1,5.0,X,TRUSTEES OF COLUMBIA UNIVERSITY,COLUMBIA UNIVERSITY,2523,"  1,875 ",1875.0,0.0,1875.0,0.0,0.0,0.0,0.0,0.0,1,1.0,0,1,25.0,100.92,25.0,76.0,45000,215550,1910,0,0,,,0.74,6.02,0.0,6.5,1,1018840042,994351.0,232589.0,5c,22v2,40.8050732,-73.9635137
325,BK,225,10,302.0,33.0,11201.0,28 ORANGE STREET,R6,A4,1.0,,NEW YORK UNIVERSITY SCHOOL OF LAW FOUNDA TION,NEW YORK UNIVERSITY,1017,1800,0.0,1800.0,0.0,0.0,0.0,0.0,0.0,0.0,1,3.0,1,1,20.0,50.83,20.0,30.0,44160,195480,1853,1995,0,Brooklyn Heights Historic District,,1.77,2.43,0.0,4.8,3,3002250010,985755.0,194016.0,12d,22v2,40.6992057,-73.9945724
326,QN,7021,140,408.0,24.0,11432.0,170-19 GRAND CENTRAL PKWY,R3X,A1,1.0,X,ST JOHN'S UNIVERSITY,ST JOHN'S UNIVERSITY,6000,1668,0.0,1668.0,0.0,0.0,0.0,0.0,0.0,0.0,1,2.0,1,1,60.0,100.0,31.0,36.0,21420,65220,1950,0,0,,,0.28,0.5,0.0,1.0,4,4070210140,1040995.0,201274.0,14c,22v2,40.7189453,-73.7952935
327,BX,3273,205,206.0,15.0,10458.0,2537 CAMBRELENG AVENUE,C4-5D,C0,2.0,,FORDHAM UNIVERSITY,FORDHAM UNIVERSITY,2333,1600,0.0,1600.0,0.0,0.0,0.0,0.0,0.0,0.0,1,2.0,3,3,23.33,100.0,20.0,40.0,10800,33660,1920,0,0,,,0.69,4.2,4.2,4.2,2,2032730205,1016755.0,252019.0,3c,22v2,40.8583489,-73.8824931
328,MN,550,18,102.0,1.0,10003.0,62 WASHINGTON MEWS,R6,A4,1.0,X,NEW YORK UNIVERSITY,NEW YORK UNIVERSITY,706,1400,0.0,1400.0,0.0,0.0,0.0,0.0,0.0,0.0,1,2.0,1,1,25.0,28.25,25.0,28.0,75060,273720,1833,0,0,Greenwich Village Historic District,,1.98,2.43,0.0,4.8,1,1005500018,985359.0,205847.0,12c,22v2,40.731679,-73.9959985
329,MN,550,17,102.0,1.0,10003.0,60 WASHINGTON MEWS,R6,A4,1.0,,NEW YORK UNIVERSITY,NEW YORK UNIVERSITY,706,1400,0.0,1400.0,0.0,0.0,0.0,0.0,0.0,0.0,1,2.0,1,1,25.0,28.25,25.0,28.0,75060,273720,1833,0,0,Greenwich Village Historic District,,1.98,2.43,0.0,4.8,1,1005500017,985381.0,205835.0,12c,22v2,40.7316461,-73.9959192
330,MN,550,16,102.0,1.0,10003.0,58 WASHINGTON MEWS,R6,A4,1.0,X,NEW YORK UNIVERSITY,NEW YORK UNIVERSITY,706,1400,0.0,1400.0,0.0,0.0,0.0,0.0,0.0,0.0,1,2.0,1,1,25.0,28.25,25.0,28.0,75060,273720,1833,0,0,Greenwich Village Historic District,,1.98,2.43,0.0,4.8,1,1005500016,985403.0,205823.0,12c,22v2,40.7316131,-73.9958398
331,BX,3273,236,206.0,15.0,10458.0,2540 HUGHES AVENUE,R6B,A5,1.0,,FORDHAM UNIVERSITY,FORDHAM UNIVERSITY,1238,1380,0.0,1380.0,0.0,0.0,0.0,0.0,0.0,0.0,1,2.0,1,1,14.17,87.42,14.17,42.0,6840,28380,1910,0,0,,,1.11,2.0,0.0,2.0,2,2032730236,1016497.0,252233.0,3c,22v2,40.8589372,-73.8834248
332,BX,3273,206,206.0,15.0,10458.0,2539 CAMBRELENG AVENUE,C4-5D,B2,1.0,,FORDHAM UNIVERSITY,FORDHAM UNIVERSITY,2467,1296,0.0,1296.0,0.0,0.0,0.0,0.0,0.0,0.0,1,2.0,2,2,24.67,100.0,18.0,36.0,11760,38460,1920,0,0,,,0.53,4.2,4.2,4.2,2,2032730206,1016769.0,252039.0,3c,22v2,40.8584037,-73.8824424
333,BX,3273,238,206.0,15.0,10458.0,2534 HUGHES AVENUE,R6B,A5,1.0,,FORDHAM UNIVERSITY,FORDHAM UNIVERSITY,1238,1140,0.0,1140.0,0.0,0.0,0.0,0.0,0.0,0.0,1,2.0,1,1,14.17,87.42,14.17,42.0,6960,31680,1910,0,0,,,0.92,2.0,0.0,2.0,2,2032730238,1016474.0,252197.0,3c,22v2,40.8588384,-73.8835081
334,BX,3273,638,206.0,15.0,10458.0,2532 HUGHES AVENUE,R6B,A5,1.0,,FORDHAM UNIVERSITY,FORDHAM UNIVERSITY,1238,1140,0.0,1140.0,0.0,0.0,0.0,0.0,0.0,0.0,1,2.0,1,1,14.17,87.42,14.17,42.0,6960,31680,1910,0,0,,,0.92,2.0,0.0,2.0,2,2032730638,1016467.0,252185.0,3c,22v2,40.8588055,-73.8835335
335,BX,3273,237,206.0,15.0,10458.0,2538 HUGHES AVENUE,R6B,A5,1.0,,FORDHAM UNIVERSITY,FORDHAM UNIVERSITY,1231,1140,0.0,1140.0,0.0,0.0,0.0,0.0,0.0,0.0,1,2.0,1,1,14.08,87.42,14.08,42.0,6960,31680,1910,0,0,,,0.93,2.0,0.0,2.0,2,2032730237,1016489.0,252221.0,3c,22v2,40.8589043,-73.8834538
336,BX,3273,637,206.0,15.0,10458.0,2536 HUGHES AVENUE,R6B,A5,1.0,,FORDHAM UNIVERSITY,FORDHAM UNIVERSITY,1238,1140,0.0,1140.0,0.0,0.0,0.0,0.0,0.0,0.0,1,2.0,1,1,14.17,87.42,14.17,42.0,6960,31680,1910,0,0,,,0.92,2.0,0.0,2.0,2,2032730637,1016482.0,252209.0,3c,22v2,40.8588714,-73.8834791
337,MN,1998,16,109.0,7.0,10027.0,633 WEST 131 STREET,C6-1,F2,6.0,X,THE TRUSTEES OF COLUMBIA UNIVERSITY,COLUMBIA UNIVERSITY,2498,"  1,000 ",1000.0,0.0,0.0,0.0,0.0,0.0,1000.0,0.0,1,1.0,0,1,25.0,99.92,25.0,50.0,31050,58950,1930,0,0,,,0.4,3.44,6.0,6.5,1,1019980016,995804.0,237432.0,5c,22v2,40.8183641,-73.9582569
338,MN,1373,20,108.0,5.0,10044.0,SOUTH LOOP ROAD,C4-5,V1,11.0,C,CORNELL UNIVERSITY,CORNELL UNIVERSITY,286626,0,,,,,,,,,0,,0,0,808.41,364.48,0.0,0.0,35541450,35541450,0,0,0,,,0.0,3.44,3.4,6.5,1,1013730020,996134.0,213959.0,8d,22v2,40.7539365,-73.9571062
339,MN,1373,25,108.0,5.0,10044.0,WEST LOOP ROAD,C4-5,V1,11.0,C,CORNELL UNIVERSITY,CORNELL UNIVERSITY,43277,0,,,,,,,,,0,,0,0,251.64,489.64,0.0,0.0,7995600,7995600,0,0,0,,,0.0,3.44,3.4,6.5,1,1013730025,996266.0,214325.0,8d,22v2,40.7549409,-73.9566291
340,BX,3273,102,206.0,15.0,10458.0,401 EAST FORDHAM ROAD,R6,V0,11.0,X,FORDHAM UNIVERSITY,FORDHAM UNIVERSITY,3911,0,,,,,,,,,0,,0,0,62.44,60.37,0.0,0.0,10260,10260,0,0,0,,,0.0,2.43,0.0,4.8,2,2032730102,1014611.0,253113.0,3c,22v2,40.8613592,-73.8902388
341,MN,1132,22,107.0,3.0,10023.0,156 WEST 61 STREET,C4-7,V1,11.0,X,FORDHAM UNIVERSITY,FORDHAM UNIVERSITY,10801,0,,,,,,,,,0,,0,0,131.42,108.33,0.0,0.0,8510850,8510850,0,0,0,,,0.0,10.0,10.0,10.0,1,1011320022,987986.0,220298.0,8c,22v2,40.7713426,-73.9865119
342,BX,3273,175,206.0,15.0,10458.0,691 EAST FORDHAM ROAD,C4-5D,G7,10.0,X,FORDHAM UNIVERSITY,FORDHAM UNIVERSITY,15015,0,,,,,,,,,0,,0,0,91.0,165.0,0.0,0.0,447750,447750,0,0,0,,,0.0,4.2,4.2,4.2,2,2032730175,1016904.0,251905.0,3c,22v2,40.8580354,-73.8819551
343,BX,3273,184,206.0,15.0,10458.0,2540 CAMBRELENG AVENUE,C4-5D,G7,10.0,X,FORDHAM UNIVERSITY,FORDHAM UNIVERSITY,5851,0,,,,,,,,,0,,0,0,58.51,100.0,0.0,0.0,153900,153900,0,0,0,,,0.0,4.2,4.2,4.2,2,2032730184,1016901.0,251965.0,3c,22v2,40.8582001,-73.8819656
344,BX,3273,343,206.0,15.0,10458.0,587 EAST 191 STREET,R6B,V0,11.0,X,FORDHAM UNIVERSITY,FORDHAM UNIVERSITY,5465,0,,,,,,,,,0,,0,0,34.5,158.42,0.0,0.0,16500,16500,0,0,0,,,0.0,2.0,0.0,2.0,2,2032730343,1016183.0,252372.0,3c,22v2,40.8593198,-73.8845593
345,MN,535,20,102.0,1.0,10012.0,251 MERCER STREET,R7-2,V1,11.0,X,NEW YORK UNIVERSITY,NEW YORK UNIVERSITY,4393,0,,,,,,,,,0,,0,0,209.2,21.0,0.0,0.0,1491300,1491300,0,0,0,,,0.0,3.44,0.0,6.5,1,1005350020,985512.0,204713.0,12c,22v2,40.7285665,-73.9954467
346,BX,5753,140,208.0,11.0,,RIVER ROAD,R1-1,V0,11.0,X,NYU SCHOOL OF LAW FOUNDATION,NEW YORK UNIVERSITY,87500,0,,,,,,,,,0,,0,0,175.0,500.0,0.0,0.0,8280,8280,0,0,0,,,0.0,0.5,0.0,1.0,2,2057530140,1005728.0,262159.0,1b,22v2,40.8862138,-73.9223236
347,QN,6715,25,408.0,24.0,11435.0,UNION TURNPIKE,R4,V0,11.0,X,ST JOHN'S UNIVERSITY,ST JOHN'S UNIVERSITY,7400,0,,,,,,,,,0,,0,0,20.0,71.75,0.0,0.0,0,0,0,0,0,,,0.0,0.75,0.0,2.0,4,4067150025,1035674.0,200958.0,14c,22v2,40.7181105,-73.8144913
348,MN,1976,19,109.0,7.0,10027.0,517 WEST 121 STREET,R8,V1,11.0,X,TEACHERS COLLEGE COLUMBIA UNIVERITY,COLUMBIA UNIVERSITY,12000,  -   ,,,,,,,,,1,,0,0,50.0,191.83,0.0,0.0,1197000,1197000,0,0,0,,,0.0,6.02,0.0,6.5,1,1019760019,995398.0,234696.0,5c,22v2,40.810855,-73.9597283
349,MN,1996,56,109.0,7.0,10027.0,651 WEST 125 STREET,C6-1,V1,11.0,X,THE TRUSTEES OF COLUMBIA UNIVERSITY,COLUMBIA UNIVERSITY,13492,  -   ,,,,,,,,,1,,0,0,111.58,120.92,0.0,0.0,1732050,1732050,0,0,0,,,0.0,3.44,6.0,6.5,1,1019960056,995419.0,237167.0,5c,22v2,40.8176372,-73.9596483
350,MN,1996,14,109.0,7.0,10027.0,637 WEST 125 STREET,C6-1,V1,11.0,,THE TRUSTEES OF COLUMBIA UNIVERSITY,COLUMBIA UNIVERSITY,23707,  -   ,,,,,,,,,0,,0,0,166.73,195.2,0.0,0.0,2333250,2333250,0,0,0,,,0.0,3.44,6.0,6.5,1,1019960014,995516.0,237077.0,5c,22v2,40.8173901,-73.959298
351,MN,1996,61,109.0,7.0,10027.0,663 WEST 125 STREET,C6-1,V1,11.0,X,THE TRUSTEES OF COLUMBIA UNIVERSITY,COLUMBIA UNIVERSITY,5025,  -   ,,,,,,,,,1,,0,0,139.42,71.25,0.0,0.0,742950,742950,0,0,0,,,0.0,3.44,6.0,6.5,1,1019960061,995343.0,237237.0,5c,22v2,40.8178294,-73.9599228
352,MN,1998,26,109.0,7.0,10027.0,605 WEST 131 STREET,C6-1,V1,11.0,X,THE TRUSTEES OF COLUMBIA UNIVERSITY,COLUMBIA UNIVERSITY,4996,  -   ,,,,,,,,,1,,0,0,50.0,99.92,0.0,0.0,643050,643050,0,0,0,,,0.0,3.44,6.0,6.5,1,1019980026,996034.0,237304.0,5c,22v2,40.8180124,-73.9574262
353,MN,1995,40,109.0,7.0,10027.0,614 WEST 125 STREET,R8,V1,11.0,X,THE TRUSTEES OF COLUMBIA UNIVERSITY IN T HE CITY OF,COLUMBIA UNIVERSITY,13975,  -   ,,,,,,,,,0,,0,0,125.67,150.0,0.0,0.0,275400,275400,0,0,0,,,0.0,6.02,0.0,6.5,1,1019950040,995535.0,236624.0,5c,22v2,40.8161467,-73.9592302
354,MN,2255,2000,112.0,10.0,10034.0,269 DYCKMAN STREET,PARK,Q1,9.0,M,TRUSTEE OF COLUMBIA UNIVERSITY NYC,COLUMBIA UNIVERSITY,11320000,  -   ,,,,,,,,,7,,0,0,1080.17,5000.0,0.0,0.0,51286500,54189000,0,0,0,,,0.0,0.0,0.0,0.0,1,1022552000,1004800.0,257521.0,1b,22v2,40.8734861,-73.925694
355,MN,1895,63,109.0,7.0,10025.0,WEST 114 STREET,R8,V1,11.0,,TRUSTEES OF COLUMBIA UNIVERSITY,COLUMBIA UNIVERSITY,2592,  -   ,,,,,,,,,0,,0,0,25.92,100.0,0.0,0.0,500850,500850,0,0,0,,,0.0,6.02,0.0,6.5,1,1018950063,993779.0,233207.0,5c,22v2,40.80677,-73.965579
356,MN,1867,33,109.0,7.0,10025.0,412 WEST 115 STREET,R8,V1,11.0,X,TRUSTEES OF COLUMBIA UNIVERSITY,COLUMBIA UNIVERSITY,3364,  -   ,,,,,,,,,0,,0,0,33.33,100.92,0.0,0.0,623250,623250,0,0,0,,,0.0,6.02,0.0,6.5,1,1018670033,995088.0,232779.0,5c,22v2,40.8055938,-73.9608513
357,MN,1895,68,109.0,7.0,10025.0,618 WEST 114 STREET,R8,V1,11.0,,TRUSTEES OF COLUMBIA UNIVERSITY,COLUMBIA UNIVERSITY,2523,  -   ,,,,,,,,,0,,0,0,25.0,100.92,0.0,0.0,487800,487800,0,0,0,,,0.0,6.02,0.0,6.5,1,1018950068,993669.0,233268.0,5c,22v2,40.8069376,-73.9659763
358,MN,1867,30,109.0,7.0,10025.0,408 WEST 115 STREET,R8,V1,11.0,X,TRUSTEES OF COLUMBIA UNIVERSITY,COLUMBIA UNIVERSITY,3364,  -   ,,,,,,,,,0,,0,0,33.33,100.92,0.0,0.0,623250,623250,0,0,0,,,0.0,6.02,0.0,6.5,1,1018670030,995147.0,232747.0,5c,22v2,40.8055059,-73.9606382
359,MN,1867,31,109.0,7.0,10025.0,410 WEST 115 STREET,R8,V1,11.0,X,TRUSTEES OF COLUMBIA UNIVERSITY,COLUMBIA UNIVERSITY,3364,  -   ,,,,,,,,,0,,0,0,33.33,100.92,0.0,0.0,623250,623250,0,0,0,,,0.0,6.02,0.0,6.5,1,1018670031,995119.0,232763.0,5c,22v2,40.8055498,-73.9607393
360,MN,1895,49,109.0,7.0,10025.0,611 WEST 113 STREET,R8,G7,10.0,X,TRUSTEES OF COLUMBIA UNIVERSITY,COLUMBIA UNIVERSITY,7500,  -   ,,,,,,,,,0,,0,0,75.0,100.0,0.0,0.0,1149750,1149750,0,0,0,,,0.0,6.02,0.0,6.5,1,1018950049,993642.0,233165.0,5c,22v2,40.8066549,-73.9660739
361,MN,1884,41,109.0,7.0,10025.0,WEST 113 STREET,R8,Q2,9.0,,TRUSTEES OF COLUMBIA UNIVERSITY,COLUMBIA UNIVERSITY,3213,  -   ,,,,,,,,,0,,0,0,31.83,100.92,0.0,0.0,375750,375750,0,0,0,,,0.0,6.02,0.0,6.5,1,1018840041,994375.0,232575.0,5c,22v2,40.8050347,-73.9634271
362,MN,2139,80,112.0,10.0,10032.0,WEST 168 STREET,R8,V6,11.0,X,TRUSTEES OF COLUMBIA UNIVERSITY,COLUMBIA UNIVERSITY,8550,  -   ,,,,,,,,,0,,0,0,41.08,34.0,0.0,0.0,844650,844650,0,0,0,,,0.0,6.02,0.0,6.5,1,1021390080,999952.0,246121.0,3b,22v2,40.8422065,-73.9432504
363,MN,1994,59,109.0,7.0,10027.0,179 CLAREMONT AVENUE,R8,V1,11.0,,TRUSTEES OF COLUMBIA UNIVERSITY,COLUMBIA UNIVERSITY,2500,  -   ,,,,,,,,,0,,0,0,25.0,100.0,0.0,0.0,331200,331200,0,0,0,,,0.0,6.02,0.0,6.5,1,1019940059,995075.0,235993.0,5c,22v2,40.8144153,-73.960893
364,MN,2123,36,112.0,10.0,10032.0,506 WEST 166 STREET,R7-2,V1,11.0,,TRUSTEES OF COLUMBIA UNIVERSITY,COLUMBIA UNIVERSITY,2625,  -   ,,,,,,,,,0,,0,0,25.0,107.83,0.0,0.0,225900,225900,0,0,0,,,0.0,3.44,0.0,6.5,1,1021230036,1001257.0,244847.0,3b,22v2,40.8387073,-73.9385372
365,MN,1998,24,109.0,7.0,10027.0,609 WEST 131 STREET,C6-1,V1,11.0,X,TRUSTEES OF COLUMBIA UNIVERSITY IN THE C ITY OF NEW,COLUMBIA UNIVERSITY,9992,  -   ,,,,,,,,,1,,0,0,50.0,199.83,0.0,0.0,1476900,1476900,0,0,0,,,0.0,3.44,6.0,6.5,1,1019980024,996014.0,237373.0,5c,22v2,40.8182019,-73.9574983
366,MN,2004,46,109.0,7.0,10027.0,2290 JOE DIMAGGIO HIGHWAY,M1-2,G7,10.0,,TRUSTEES OF COLUMBIA UNIVERSITY IN THE C ITY OF NEW,COLUMBIA UNIVERSITY,23657,  -   ,,,,,,,,,0,,0,0,101.25,208.58,0.0,0.0,902250,902250,0,0,0,,,0.0,0.0,2.0,4.8,1,1020040046,995197.0,237570.0,5c,22v2,40.8187436,-73.9604497
367,MN,1998,29,109.0,7.0,10027.0,3259 BROADWAY,C6-1,V1,11.0,X,TRUSTEES OF COLUMBIA UNIVERSITY IN THE C ITY OF NEW,COLUMBIA UNIVERSITY,19983,  -   ,,,,,,,,,1,,0,0,199.83,100.0,0.0,0.0,1356300,1356300,0,0,0,,,0.0,3.44,6.0,6.5,1,1019980029,996125.0,237311.0,5c,22v2,40.8180315,-73.9570974
368,MN,1998,1,109.0,7.0,10027.0,2301 JOE DIMAGGIO HIGHWAY,C6-1,V1,11.0,X,TRUSTEES OF COLUMBIA UNIVERSITY IN THE C ITY OF NEW,COLUMBIA UNIVERSITY,3000,  -   ,,,,,,,,,1,,0,0,30.0,100.0,0.0,0.0,176850,176850,0,0,0,,,0.0,3.44,6.0,6.5,1,1019980001,995489.0,237567.0,5c,22v2,40.818735,-73.9593948
369,MN,2004,68,109.0,7.0,10027.0,2298 JOE DIMAGGIO HIGHWAY,M1-2,G7,10.0,,TRUSTEES OF COLUMBIA UNIVERSITY IN THE C ITY OF NEW,COLUMBIA UNIVERSITY,3666,  -   ,,,,,,,,,0,,0,0,39.25,95.08,0.0,0.0,193950,193950,0,0,0,,,0.0,0.0,2.0,4.8,1,1020040068,995325.0,237661.0,5c,22v2,40.8189932,-73.9599871
370,MN,2004,71,109.0,7.0,10027.0,2302 JOE DIMAGGIO HIGHWAY,M1-2,G7,10.0,,TRUSTEES OF COLUMBIA UNIVERSITY IN THE C ITY OF NEW,COLUMBIA UNIVERSITY,6688,  -   ,,,,,,,,,0,,0,0,75.58,83.25,0.0,0.0,226350,226350,0,0,0,,,0.0,0.0,2.0,4.8,1,1020040071,995355.0,237710.0,5c,22v2,40.8191277,-73.9598787
371,MN,2004,171,109.0,7.0,10027.0,WEST 132 STREET,M1-2,G7,10.0,,TRUSTEES OF COLUMBIA UNIVERSITY IN THE C ITY OF NEW,COLUMBIA UNIVERSITY,975,  -   ,,,,,,,,,0,,0,0,14.08,75.58,0.0,0.0,43650,43650,0,0,0,,,0.0,0.0,2.0,4.8,1,1020040171,995309.0,237736.0,5c,22v2,40.8191991,-73.9600448
372,MN,1998,38,109.0,7.0,10027.0,602 WEST 132 STREET,C6-1,V1,11.0,,TRUSTEES OF COLUMBIA UNIVERSITY IN THE C ITY OF NEW,COLUMBIA UNIVERSITY,4996,  -   ,,,,,,,,,1,,0,0,50.0,99.92,0.0,0.0,107550,107550,0,0,0,,,0.0,3.44,6.0,6.5,1,1019980038,996082.0,237391.0,5c,22v2,40.8182512,-73.9572526
373,MN,1998,3,109.0,7.0,10027.0,2307 JOE DIMAGGIO HIGHWAY,C6-1,V1,11.0,X,TRUSTEES OF COLUMBIA UNIVERSITY IN THE C ITY OF NEW,COLUMBIA UNIVERSITY,6992,  -   ,,,,,,,,,0,,0,0,69.92,100.0,0.0,0.0,612000,612000,0,0,0,,,0.0,3.44,6.0,6.5,1,1019980003,995513.0,237610.0,5c,22v2,40.818853,-73.959308
374,MN,2004,50,109.0,7.0,10027.0,WEST 131 STREET,M1-2,G7,10.0,,TRUSTEES OF COLUMBIA UNIVERSITY IN THE C ITY OF NEW,COLUMBIA UNIVERSITY,12362,  -   ,,,,,,,,,0,,0,0,60.0,203.42,0.0,0.0,376200,376200,0,0,0,,,0.0,0.0,2.0,4.8,1,1020040050,995252.0,237643.0,5c,22v2,40.8189439,-73.9602509
375,MN,2004,65,109.0,7.0,10027.0,2298 12 AVENUE,M1-2,G7,10.0,,TRUSTEES OF COLUMBIA UNIVERSITY IN THE C ITY OF NEW,COLUMBIA UNIVERSITY,20775,  -   ,,,,,,,,,0,,0,0,200.58,112.4,0.0,0.0,599850,599850,0,0,0,,,0.0,0.0,2.0,4.8,1,1020040065,995279.0,237779.0,5c,22v2,40.8193172,-73.9601531
376,MN,1867,29,109.0,7.0,10025.0,WEST 115 STREET,R8,G7,10.0,X,TRUSTEES OF COLUMBIAUNIVERSITY IN THE CI TY OF NY,COLUMBIA UNIVERSITY,6500,  -   ,,,,,,,,,0,,0,0,65.33,100.92,0.0,0.0,734400,734400,0,0,0,,,0.0,6.02,0.0,6.5,1,1018670029,995188.0,232724.0,5c,22v2,40.8054427,-73.9604901
377,MN,1373,3,108.0,5.0,10044.0,465 MAIN STREET,R7-2,D3,3.0,C,SOUTHTOWN ASSOCIATES 2 LLC,CORNELL UNIVERSITY,52155,"144,000",0.0,144000.0,0.0,0.0,0.0,0.0,0.0,0.0,1,16.0,136,136,214.0,273.0,80.0,130.0,3217500,19219950,103,0,0,,,2.76,3.44,0.0,6.5,1,1013730003,997632.0,216091.0,9b,22v2,40.7597862,-73.951695
378,MN,1464,21,108.0,5.0,10021.0,1293 YORK AVENUE,R10,H8,8.0,X,CORNELL UNIVERSITY,CORNELL UNIVERSITY,16561,"89,250",,,,,,,,,1,10.0,0,1,164.92,100.42,100.0,141.0,2515500,8595000,1954,1988,0,,,5.39,10.0,0.0,10.0,1,1014640021,996601.0,218087.0,9a,22v2,40.7652662,-73.955413
379,MN,1464,28,108.0,5.0,10021.0,1301 YORK AVENUE,R8,I9,8.0,X,CORNELL UNIVERSITY,CORNELL UNIVERSITY,19984,"352,000",352000.0,0.0,352000.0,0.0,0.0,0.0,0.0,0.0,1,15.0,0,1,100.42,199.0,115.0,100.0,3742366,43274700,2004,0,0,,,17.61,6.02,0.0,6.5,1,1014640028,996638.0,218187.0,9a,22v2,40.7655406,-73.955279
380,MN,1464,30,108.0,5.0,10021.0,428 YORK AVENUE,R8,H8,8.0,X,CORNELL UNIVERSITY,CORNELL UNIVERSITY,30527,"250,171",,,,,,,,,1,15.0,0,3,304.0,100.42,376.0,96.0,5076000,21748950,1974,2004,0,,,8.2,6.02,0.0,6.5,1,1014640030,996413.0,218311.0,9a,22v2,40.7658813,-73.956091
381,MN,1464,7502,108.0,5.0,10021.0,413 EAST 69 STREET,R8,RB,5.0,X,UNAVAILABLE OWNER,CORNELL UNIVERSITY,26117,"243,321",243321.0,0.0,243321.0,0.0,0.0,0.0,0.0,0.0,1,18.0,0,3,260.08,100.42,260.0,100.0,2628450,65686050,2011,0,0,,,9.32,6.02,0.0,6.5,1,1014647502,996410.0,218192.0,9a,22v2,40.7655547,-73.956102
382,MN,1469,21,108.0,5.0,10021.0,1393 YORK AVENUE,R10,M1,8.0,X,CORNELL UNIVERSITY,CORNELL UNIVERSITY,12771,"21,000",21000.0,0.0,0.0,0.0,0.0,0.0,0.0,21000.0,1,2.0,0,1,102.17,125.0,102.17,100.0,2533500,5202450,1938,0,0,,,1.64,10.0,0.0,10.0,1,1014690021,997268.0,219268.0,9a,22v2,40.7685068,-73.953003
383,MN,1471,27,108.0,5.0,10075.0,444 EAST 77 STREET,R10,C5,2.0,X,CORNELL UNIVERSITY,CORNELL UNIVERSITY,2071,"8,405",0.0,8405.0,0.0,0.0,0.0,0.0,0.0,0.0,1,5.0,16,16,25.0,82.83,25.0,67.0,202950,1008000,1954,1987,0,,,4.06,10.0,0.0,10.0,1,1014710027,997602.0,219819.0,9a,22v2,40.7700186,-73.951796
384,MN,1471,28,108.0,5.0,10075.0,442 EAST 77 STREET,R10,C5,2.0,X,CORNELL UNIVERSITY,CORNELL UNIVERSITY,2071,"8,405",0.0,8405.0,0.0,0.0,0.0,0.0,0.0,0.0,1,5.0,16,16,25.0,82.83,25.0,67.0,202950,1008000,1954,1987,0,,,4.06,10.0,0.0,10.0,1,1014710028,997579.0,219832.0,9a,22v2,40.7700543,-73.951879
385,MN,1480,1,108.0,5.0,10065.0,1176 YORK AVENUE,R9,I9,8.0,X,SOCIETY OF THE NY HOSPITAL,CORNELL UNIVERSITY,275925,"2,230,742",2230742.0,0.0,0.0,0.0,0.0,0.0,0.0,2230742.0,8,27.0,0,1,491.67,583.08,461.67,583.08,52150050,252745650,1956,0,0,,,8.08,7.52,0.0,10.0,1,1014800001,996953.0,217791.0,9a,22v2,40.7644532,-73.954143
386,MN,1483,7502,108.0,5.0,10021.0,511 EAST 71 STREET,R9,RB,5.0,X,UNAVAILABLE OWNER,CORNELL UNIVERSITY,17880,"81,980",81980.0,0.0,81980.0,0.0,0.0,0.0,0.0,0.0,2,11.0,0,3,75.0,204.33,75.0,100.0,4554455,13576050,1958,0,0,,,4.59,7.52,0.0,10.0,1,1014837502,997250.0,218401.0,9a,22v2,40.7661271,-73.95307
387,MN,1373,160,108.0,5.0,10044.0,22 NORTH LOOP ROAD,C4-5,H2,5.0,C,CORNELL UNIVERSITY,CORNELL UNIVERSITY,18555,142554,,,,,,,,,1,19.0,0,197,159.47,166.7,113.5,127.0,2688750,13028400,2018,2018,0,,,7.68,3.44,3.4,6.5,1,1013730160,996560.0,214690.0,9b,22v2,40.7559424,-73.955567
388,MN,1373,35,108.0,5.0,10044.0,2 WEST LOOP ROAD,C4-5,W6,8.0,C,NYC ECONOMIC DEVELOPMENT CORPORATION,CORNELL UNIVERSITY,71699,136878,136878.0,0.0,0.0,0.0,0.0,0.0,0.0,136878.0,1,4.0,0,1,447.91,270.18,0.0,0.0,7866180,26442450,2015,2015,0,,,1.91,3.44,3.4,6.5,1,1013730035,996377.0,214524.0,9b,22v2,40.755487,-73.956228
389,MN,1373,7507,108.0,5.0,10044.0,11 EAST LOOP ROAD,C4-5,RC,5.0,,UNAVAILABLE OWNER,CORNELL UNIVERSITY,65112,165343,165343.0,0.0,158684.0,6659.0,0.0,0.0,0.0,0.0,1,6.0,0,4,392.1,294.8,0.0,0.0,6873658,26154449,2015,2015,0,,,2.54,3.44,3.4,6.5,1,1013737507,996536.0,214384.0,9b,22v2,40.7551025,-73.955655
390,MN,541,8001,102.0,1.0,10012.0,40 WASHINGTON SQUARE S,,W6,8.0,X,NEW YORK UNIVERSITYSCHOOL OF LAW FOUNDAT ION,NEW YORK UNIVERSITY,41835,66636,66636.0,0.0,0.0,0.0,0.0,0.0,0.0,66636.0,1,1.0,0,1,200.17,209.0,200.16,209.0,490500,2506500,1950,0,0,,,1.59,0.0,0.0,0.0,1,1005418001,,,,22v2,40.7305635,-73.9995861
391,MN,1997,8001,,,,WEST 131 STREET,,Z9,,,TRUSTEES OF COLUMBIA UNIVERSITY IN THE C ITY OF NEW,COLUMBIA UNIVERSITY,22500,"  22,500 ",22500.0,0.0,0.0,0.0,0.0,0.0,0.0,22500.0,0,,0,0,60.0,375.0,0.0,0.0,6000,8532,2021,0,0,,,1.0,0.0,0.0,0.0,1,1019978001,,,,22v2,40.8139521,-73.9484287
392,MN,535,8020,,,,251 MERCER STREET,,V1,11.0,X,NEW YORK UNIVERSITY,NEW YORK UNIVERSITY,4393,0,,,,,,,,,0,,0,0,209.2,21.0,0.0,0.0,1069650,1069650,0,0,0,,,0.0,0.0,0.0,0.0,1,1005358020,,,,22v2,40.7286683,-73.9957013
393,MN,1999,8001,,,,WEST 132 STREET,,Z9,,,TRUSTEES OF COLUMBIA UNIVERSITY IN THE C ITY OF NEW,COLUMBIA UNIVERSITY,46500,  -   ,,,,,,,,,0,,0,0,60.0,375.0,0.0,0.0,12000,17231,2021,0,0,,,0.0,0.0,0.0,0.0,1,1019998001,,,,22v2,40.8145912,-73.9479559
