borough,block,lot,cd,council,zipcode,address,zonedist1,bldgclass,landuse,ownertype,ownername,Final,lotarea, bldgarea ,comarea,resarea,officearea,retailarea,garagearea,strgearea,factryarea,otherarea,numbldgs,numfloors,unitsres,unitstotal,lotfront,lotdepth,bldgfront,bldgdepth,assessland,assesstot,yearbuilt,yearalter1,yearalter2,histdist,landmark,builtfar,residfar,commfar,facilfar,borocode,bbl,xcoord,ycoord,zonemap,version,latitude,longitude
QN,7021,1,408,24,11366,8150A UTOPIA PARKWAY,R4,W6,8,X,ST JOHN S UNIVERSITY,ST JOHN'S UNIVERSITY,4112064,4687440,4168578,518862,0,0,159440,0,0,4009138,31,5,6,6,1745.5,1107.42,304.42,171.5,40837500,262101600,1950,2002,2004,,,1.14,0.75,0,2,4,4070210001,1041191,202336,14c,22v2,40.721859,-73.7945775
BX,3273,1,206,15,10458,441 EAST FORDHAM ROAD,R6,W6,8,X,FORDHAM UNIVERSITY,FORDHAM UNIVERSITY,3392065,1743584,947216,796368,947216,0,0,0,0,0,36,6,0,1,677.25,972.33,112,94,20249550,233383050,1922,1986,0,Individual Landmark,INDIVIDUAL LANDMARK,0.51,2.43,0,4.8,2,2032730001,1015968,253211,3c,22v2,40.8616234,-73.8853325
MN,1480,10,108,5,10065,590 EAST 68 STREET,R9,I1,8,X,ROCKEFELLER UNIVERSITY,THE ROCKEFELLER UNIVERSITY,445942,1200000,1200000,0,1200000,0,0,0,0,0,23,6,0,1,999.33,539,180,100.83,66455100,161781300,1940,2011,0,,,2.69,7.52,0,10,1,1014800010,996512,217096,9a,22v2,40.7625463,-73.9557362
MN,533,1,102,1,10012,1 WASHINGTON SQ VLLGE,C1-7,H8,8,P,NEW YORK UNIVERSITY,NEW YORK UNIVERSITY,265237,1485916,140481,0,4522,0,121624,0,0,14335,5,17,1904,1921,606,477,568,63,8190450,57647250,1959,1985,0,,,5.6,6.02,2,6.5,1,1005330001,985027,204534,12c,22v2,40.7280752,-73.9971966
MN,1973,1,109,7,10027,530 WEST 120 STREET,R8,W6,8,X,COLUMBIA UNIVERSITY,COLUMBIA UNIVERSITY,734180,"  1,368,870 ",1368870,0,1368870,0,0,0,0,0,26,7,0,0,947.33,775,205,54,24299550,200433150,1901,2009,1989,Individual Landmark,INDIVIDUAL AND INTERIOR LANDMARK,1.86,6.02,0,6.5,1,1019730001,994901,233897,5c,22v2,40.8086626,-73.961525
MN,524,66,102,1,10012,100 BLEECKER STREET,C1-7,W6,8,X,NEW YORK UNIVERSITY,NEW YORK UNIVERSITY,188029,1260362,758102,0,3587,0,0,0,0,12800,3,30,0,2,377,478,71,110,14760000,151751700,1967,2015,2016,Individual Landmark,INDIVIDUAL LANDMARK,6.7,6.02,2,6.5,1,1005240066,984817,204067,12c,22v2,40.7267934,-73.9979543
BX,4205,30,211,13,10461,1225 MORRIS PARK AVENUE,R4,I1,8,C,ALBERT EINSTEIN COLLEGE OF MEDICINE,ALBERT EINSTEIN COLLEGE OF MEDICINE,220762,464700,464700,0,0,0,0,0,0,464700,2,7,0,0,0,0,0,0,1656900,28489950,1949,0,0,,,2.1,0.75,0,2,2,2042050030,1026742,249991,4a,22v2,40.8527402,-73.8464027
BK,7556,150,314,45,11210,2895 BEDFORD AVENUE,R6,W5,8,O,BROOKLYN COLLEGE,BROOKLYN COLLEGE,720000,1073920,1073920,0,0,0,0,0,0,1073920,8,5,0,3,675,934,435,185,10789200,82254600,1900,2000,2006,,,1.49,2.43,0,4.8,3,3075560150,997989,169288,23a,22v2,40.6313223,-73.9505019
MN,1132,20,107,3,10023,155 WEST 60 STREET,C4-7,W6,8,X,FORDHAM UNIVERSITY,FORDHAM UNIVERSITY,194620,1025320,742820,282500,0,0,0,0,0,414820,3,20,211,212,622.33,431.67,0,0,65241900,162832500,1950,0,0,,,5.27,10,10,10,1,1011320020,988307,220171,8c,22v2,40.7709939,-73.985353
BX,4205,2,211,13,10461,1925 EASTCHESTER ROAD,R6,W9,8,C,ALBERT EINSTEIN COLLEGE OF MEDICINE,ALBERT EINSTEIN COLLEGE OF MEDICINE,240008,959880,959880,0,4150,0,292475,0,0,663255,6,28,0,2,621,207.55,238.58,127.58,2438550,71858250,1972,0,0,,,4,2.43,0,4.8,2,2042050002,1027287,249884,4a,22v2,40.8524439,-73.8444333
BX,4205,3,211,13,10461,1301 MORRIS PARK AVENUE,R4,I1,8,C,ALBERT EINSTEIN COLLEGE OF MEDICINE,ALBERT EINSTEIN COLLEGE OF MEDICINE,215194,217000,217000,0,217000,0,0,0,0,0,1,5,0,1,459,416.23,240,310,1656900,15076800,2008,2014,0,,,1.01,0.75,0,2,2,2042050003,1026798,249648,4a,22v2,40.8517985,-73.8462024
BX,4205,55,211,13,10461,1410 PELHAM PARKWAY SOUTH,R4,I1,8,C,ALBERT EINSTEIN COLLEGE OF MEDICINE,ALBERT EINSTEIN COLLEGE OF MEDICINE,42855,120650,120650,0,0,0,0,0,0,120650,2,9,0,0,0,0,0,0,368550,7378650,1965,0,0,,,2.82,0.75,0,2,2,2042050055,1026399,251001,4a,22v2,40.855514,-73.8476362
BK,7552,100,314,45,11210,2946 BEDFORD AVENUE,R6,W5,8,O,BROOKLYN COLLEGE,BROOKLYN COLLEGE,619460,785450,785450,0,8860,0,0,0,0,776590,8,4,0,3,615,841,347,110,8083800,73971450,1920,0,0,,,1.27,2.43,0,4.8,3,3075520100,996856,169082,23a,22v2,40.6307586,-73.9545842
MN,1457,17,108,5,10065,450 EAST 63 STREET,R8,D6,4,,CORNELL UNIVERSITY,CORNELL UNIVERSITY,96300,723578,103842,619736,22642,0,81200,0,0,0,4,12,503,509,481.58,200.83,200.83,85,8685000,40519350,1950,0,0,,,7.51,6.02,0,6.5,1,1014570017,995597,216617,8c,22v2,40.7612328,-73.95904
MN,1961,1,109,7,10027,1145 AMSTERDAM AVENUE,R8,W6,8,X,TRUSTEES OF COLUMBIA UNIVERSITY,COLUMBIA UNIVERSITY,117824,"  710,600 ",710600,0,0,0,0,0,0,710600,3,9,0,1,261.83,450,70,200,3870000,68889600,1923,0,0,,,6.03,6.02,0,6.5,1,1019610001,995355,233245,5c,22v2,40.8068725,-73.959886
BX,5530,50,210,13,10465,FT SCHUYLER PARK,R4,W6,8,X,NYS MARITIME COLLEGE,NYS MARITIME COLLEGE,3635000,703265,703265,0,0,0,0,0,0,666387,39,2,0,2,353.17,454.75,160,330,8613900,67566600,1934,2012,0,Individual Landmark,INDIVIDUAL LANDMARK,0.19,0.75,0,2,2,2055300050,1040948,233334,7c,22v2,40.8069418,-73.7951927
MN,1989,1,109,7,10027,3009 BROADWAY,R8,W6,8,X,BARNARD COLLEGE,BARNARD COLLEGE,151100,698122,698122,0,570441,0,0,0,0,127681,7,14,0,1,755.5,200,250,40,4635000,85705200,1901,1987,1994,,,4.62,6.02,0,6.5,1,1019890001,994298,234118,5c,22v2,40.8092699,-73.9637029
BX,3222,62,205,14,10453,1930 SEDGWICK AVENUE,R5,W5,8,O,BRONX COMMUNITY COLLEGE,BRONX COMMUNITY COLLEGE,1347500,631237,631237,0,532237,0,0,0,0,99000,29,4,0,1,879.58,1158.08,0,0,9544500,60717150,1930,0,0,Individual Landmark,INDIVIDUAL AND INTERIOR LANDMARK,0.47,1.25,0,2,2,2032220062,1008304,251783,3a,22v2,40.8577282,-73.9130447
MN,1957,100,109,9,10031,181 CONVENT AVENUE,R7-2,W5,8,X,CITY COLLEGE,CITY COLLEGE,144342,620000,620000,0,0,0,0,0,0,620000,2,13,0,1,396.67,408.08,397.67,408.08,3247650,62129700,1971,0,0,,,4.3,3.44,0,6.5,1,1019570100,998307,237759,6a,22v2,40.819258,-73.9492133
BX,5803,801,208,11,10471,4481 MANHATTAN COLLEGE PY,R4,W6,8,X,MANHATTAN COLLEGE,MANHATTAN COLLEGE,643425,614887,614887,0,0,0,0,0,0,614887,12,3,0,1,575,292,346,186,6526350,33852600,1943,2001,0,,,0.96,0.75,0,2,2,2058030801,1011611,263601,1d,22v2,40.8901553,-73.9010416
MN,2138,95,112,10,10032,617 WEST 168 STREET,R8,I1,8,X,COLUMBIA UNIVERSITYIN THE CITY OF NEW YO RK TRUSTE,COLUMBIA UNIVERSITY,18000,"  93,600 ",93600,0,0,0,0,0,0,93600,1,7,127,129,100,180,100,180,558000,4468500,1931,0,0,,,5.2,6.02,0,6.5,1,1021380095,1000741,245954,3b,22v2,40.8417467,-73.9403993
BK,2085,1,302,35,11201,61 DEKALB AVENUE,R6,W6,8,X,LONG ISLAND UNIVERSITY,LONG ISLAND UNIVERSITY,278525,579404,579404,0,0,0,0,0,0,579404,9,15,0,2,303.33,468.1,210,107,4907592,107734500,1929,2007,2010,,,2.08,2.43,0,4.8,3,3020850001,989496,191336,16c,22v2,40.6918483,-73.9810829
MN,102,1,101,1,10038,154 NASSAU STREET,C6-4,W6,8,X,PACE UNIVERSITY,PACE UNIVERSITY,108027,526781,526781,0,526781,0,0,0,0,0,1,18,0,0,200.42,645,140,565,20659950,53545950,1968,2013,0,,,4.88,10,10,10,1,1001020001,982922,198373,12b,22v2,40.7111647,-74.0047902
MN,2124,39,112,10,10032,1146 ST NICHOLAS AVENUE,C6-2,I1,8,X,COLUMBIA UNIVERSITYETC,COLUMBIA UNIVERSITY,2990,"  49,431 ",49431,0,49431,0,0,0,0,0,1,9,0,1,26.17,114.25,0,0,105750,6452550,1996,0,0,,,16.53,6.02,6,6.5,1,1021240039,1001059,245458,3b,22v2,40.8403847,-73.9392512
MN,1997,1,109,7,10027,2285 12 AVENUE,C6-1,W6,8,X,TRUSTEES OF COLUMBIA UNIVERSITY IN THE C ITY OF NEW,COLUMBIA UNIVERSITY,154876,"  478,842 ",478842,0,0,12556,0,0,0,466286,1,11,0,6,199.83,775,190,305,13536000,105875550,2019,2018,0,,,3.09,3.44,6,6.5,1,1019970001,995705,237248,5c,22v2,40.8178592,-73.9586149
MN,1975,1,109,7,10027,3040 BROADWAY,R8,W6,8,X,TEACHERS COLLEGE COLUMBIA UNIVERITY,COLUMBIA UNIVERSITY,133715,"  476,512 ",476512,0,0,0,0,0,0,476512,8,9,0,1,201.83,650,200,100,5130450,36517950,1910,0,0,,,3.56,6.02,0,6.5,1,1019750001,995176,234514,5c,22v2,40.8103558,-73.9605306
MN,535,8,102,1,10012,567 LA GUARDIA PLACE,R7-2,W6,8,X,NEW YORK UNIVERSITY,NEW YORK UNIVERSITY,51205,470400,470400,0,0,0,0,0,0,470400,1,12,0,1,209,245,189,209,5625000,31195800,1973,0,0,,,9.19,3.44,0,6.5,1,1005350008,985045,205013,12c,22v2,40.7293899,-73.9971316
MN,2124,35,112,10,10032,1148 ST NICHOLAS AVENUE,C6-2,I1,8,X,THE TRUSTEES OF COLUMBIA UNIVERSITY IN THE CITY OF NEW YORK,COLUMBIA UNIVERSITY,9410,"  49,431 ",49431,0,49431,0,0,0,0,0,1,9,0,1,104.75,103.5,0,0,330750,15886800,1996,0,0,,,5.25,6.02,6,6.5,1,1021240035,1001061,245528,3b,22v2,40.8405768,-73.9392438
MN,559,22,103,2,10003,126 EAST 14 STREET,C6-3X,H8,8,,NEW YORK UNIVERSITY,NEW YORK UNIVERSITY,41950,446076,38810,0,19000,19810,0,0,0,0,1,16,0,3,250,206.5,250,206,12375000,25570800,1999,0,0,,,10.63,9,6,9,1,1005590022,987499,206441,12c,22v2,40.7333089,-73.9882768
BK,140,111,302,33,11201,368 JAY STREET,C5-4,W6,8,C,NEW YORK UNIVERSITY,NEW YORK UNIVERSITY,42375,444970,444970,0,0,0,0,0,0,444970,1,13,0,0,82.83,356.5,356.5,185.75,2475000,51950250,1970,0,0,,,10.5,10,10,10,3,3001400111,987672,191722,16c,22v2,40.6929087,-73.98766
MN,2139,250,112,10,10032,100 HAVEN AVENUE,R8,I4,8,X,THE TRUSTEES OF COLUMBIA UNIVERSITY,COLUMBIA UNIVERSITY,53625,"  1,651,267 ",1651267,0,0,0,0,0,0,1651267,2,31,219,236,100,176,316,62,4500000,138648150,1970,1988,0,,,30.79,6.02,0,6.5,1,1021390250,1000013,247059,3b,22v2,40.8447809,-73.9430278
BX,3222,620,205,14,10453,SEDGWICK AVENUE,R5,W5,8,X,BRONX COMMUNITY COLLEGE,BRONX COMMUNITY COLLEGE,62315,412062,412062,0,412062,0,0,0,0,0,3,6,0,0,240,173.75,297,300,362700,19905300,1936,0,0,,,6.61,1.25,0,2,2,2032220620,1008279,251588,3a,22v2,40.857193,-73.9131357
MN,1957,1,109,9,10027,85 CONVENT AVENUE,R7-2,W5,8,O,CITY COLLEGE,CITY COLLEGE,477375,400160,400160,0,400160,0,0,0,0,0,9,5,0,1,1218.33,245.67,460,1300,10741050,350367750,1930,0,0,,,0.84,3.44,0,6.5,1,1019570001,997778,236735,6a,22v2,40.8164482,-73.9511265
MN,547,30,102,1,10003,715 BROADWAY,C6-2G,W6,8,X,NEW YORK UNIVERSITY,NEW YORK UNIVERSITY,31892,366268,366268,0,363768,2500,0,0,0,0,2,12,0,4,184.33,200,184.33,200,5670000,26424900,1896,1988,2001,NoHo Historic District,,11.48,6.02,6,6.5,1,1005470030,985946,205056,12c,22v2,40.7295078,-73.9938807
MN,1961,57,109,7,10027,74 MORNINGSIDE DRIVE,R8,D7,4,X,TRUSTEES OF COLUMBIA UNIVERSITY,COLUMBIA UNIVERSITY,25228,"  365,100 ",10870,354230,10870,0,0,0,0,0,1,23,157,158,201.83,125,200,50,513000,19473300,1980,0,0,,,14.47,6.02,0,6.5,1,1019610057,995614,233376,5c,22v2,40.8072317,-73.9589503
BK,8760,60,315,48,11235,2001 ORIENTAL BOULEVARD,R3-1,W6,8,O,CITY UNIVERSITY OF NEW YORK,CITY UNIVERSITY OF NEW YORK,2430020,353600,353600,0,353600,0,0,0,0,0,22,8,0,1,884.25,399,0,0,33686100,73188900,1967,2009,0,,,0.15,0.5,0,1,3,3087600060,1002543,149854,29b,22v2,40.5779717,-73.9341477
MN,2139,219,112,10,10032,78 HAVEN AVENUE,R8,I4,8,X,THE TRUSTEES OF COLUMBIA UNIVERSITY IN T HE CITY OF NEW YORK,COLUMBIA UNIVERSITY,26025,"  807,327 ",807327,0,0,0,0,0,0,807327,1,31,0,1,85,200.42,52,124,2925000,74113200,1970,0,0,,,31.02,6.02,0,6.5,1,1021390219,999931,246745,3b,22v2,40.8439192,-73.9433249
BK,142,7502,302,33,11201,6 METROTECH CENTER,C6-4,RA,8,,NEW YORK UNIVERSITY,NEW YORK UNIVERSITY,46024,349527,349527,0,0,0,0,0,0,349527,1,8,0,2,263.52,215,200,200,3104100,38298600,1920,0,0,,,7.59,10,10,10,3,3001427502,987962,192193,12d,22v2,40.6942013,-73.986614
MN,1995,63,109,7,10027,564 RIVERSIDE DRIVE,R8,D3,3,,TRUSTEES OF COLUMBIA UNIVERSITY,COLUMBIA UNIVERSITY,42200,"  339,104 ",137000,202104,0,0,137000,0,0,0,1,26,182,182,84.17,265,84.17,265,1048500,10379700,1964,0,0,,,8.04,6.02,0,6.5,1,1019950063,995225,236888,5c,22v2,40.8168717,-73.9603497
MN,467,1,103,2,10003,67 3 AVENUE,C6-2A,H8,8,,NEW YORK UNIVERSITY,NEW YORK UNIVERSITY,36022,337600,7600,0,0,7600,0,0,0,0,2,14,0,6,206,347,206,190,10575000,27703800,1988,2009,0,,,9.37,6.02,6,6.5,1,1004670001,987591,205773,12c,22v2,40.7314754,-73.9879452
MN,545,15,102,2,10003,726 BROADWAY,M1-5/R9A,O6,5,X,NEW YORK UNIVERSITY,NEW YORK UNIVERSITY,35140,336645,336645,0,302067,34578,0,0,0,0,1,10,0,8,120.83,275,120.83,275,4275000,36343350,1919,1982,2014,NoHo Historic District,,9.58,0,5,6.5,1,1005450015,986228,204919,12c,22v2,40.7291317,-73.9928633
MN,127,1,101,1,10007,30 WEST BROADWAY,C6-4,W5,8,C,CITY UNIVERSITY OF NEW YORK,CITY UNIVERSITY OF NEW YORK,28981,331000,331000,0,0,0,0,0,0,331000,1,15,0,1,158.75,208.75,159,175,7825050,65812950,2010,0,0,,,11.42,10,10,10,1,1001270001,981153,199325,12b,22v2,40.7137772,-74.0111715
MN,532,8,102,1,10012,246 MERCER STREET,C6-2G,H8,8,X,NEW YORK UNIVERSITY,NEW YORK UNIVERSITY,40000,307312,,,,,,,,,2,20,0,715,200,200,172,174,2326500,23673600,1981,0,0,NoHo Historic District,,7.68,6.02,6,6.5,1,1005320008,985512,204401,12c,22v2,40.7277101,-73.9954468
MN,535,1,102,1,10012,44 WEST 4 STREET,R7-2,W6,8,X,NEW YORK UNIVERSITY,NEW YORK UNIVERSITY,51205,305900,305900,0,0,0,0,0,0,305900,2,11,0,2,245.58,209,221,209,6106050,40043250,1990,0,0,,,5.97,3.44,0,6.5,1,1005350001,985277,204864,12c,22v2,40.7289809,-73.9962946
MN,1475,5,108,5,10065,500 EAST 63 STREET,R10,D3,3,X,THE ROCKEFELLER UNIVERSITY,THE ROCKEFELLER UNIVERSITY,42035,283000,0,283000,0,0,0,0,0,0,3,26,250,250,200.83,226.25,80,136,3105000,34769250,1975,0,0,,,6.73,10,0,10,1,1014750005,995988,216412,8c,22v2,40.7606696,-73.9576289
MN,570,7501,102,2,10003,55 5 AVENUE,C6-4,RC,5,,YESHIVA UNIVERSITY,YESHIVA UNIVERSITY,18325,262814,262814,0,252111,6155,0,4548,0,0,1,19,0,20,131.5,150,0,0,5490000,36153452,1912,0,0,,,14.34,10,10,10,1,1005707501,985896,206959,12c,22v2,40.7347311,-73.9940607
MN,1995,53,109,7,10027,558 RIVERSIDE DRIVE,R8,D3,3,X,THE TRUSTEES OF COLUMBIA UNIVERSITY IN T HE,COLUMBIA UNIVERSITY,21075,"  256,528 ",78896,177632,0,0,78896,0,0,0,1,26,146,146,85,132,85,126,585000,8769150,1968,0,0,,,12.17,6.02,0,6.5,1,1019950053,995349,236901,5c,22v2,40.8169072,-73.9599017
MN,1464,30,108,5,10021,428 YORK AVENUE,R8,H8,8,X,CORNELL UNIVERSITY,CORNELL UNIVERSITY,30527,250171,,,,,,,,,1,15,0,3,304,100.42,376,96,5076000,21748950,1974,2004,0,,,8.2,6.02,0,6.5,1,1014640030,996413,218311,9a,22v2,40.7658813,-73.9560913
BX,2343,14,201,17,10451,448 GRAND CONCOURSE,C4-4,W6,8,O,HOSTOS COMMUNITY COLLEGE,HOSTOS COMMUNITY COLLEGE,49332,238500,238500,0,0,0,0,0,0,238500,1,5,0,1,404.25,151.67,303,201,616500,42236100,1988,0,0,,,4.83,3.44,3.4,6.5,2,2023430014,1004356,237121,6a,22v2,40.8174951,-73.9273606
MN,843,22,105,2,10003,21 UNION SQUARE,C6-2A,H8,8,,NY UNIVERSITY,NEW YORK UNIVERSITY,28125,238204,26683,0,11500,5730,9453,0,0,0,3,12,0,4,89.5,216.83,89.5,216,8865000,22910400,1986,0,0,,,8.47,6.02,6,6.5,1,1008430022,986603,207573,12c,22v2,40.7364162,-73.9915094
MN,176,18,101,1,10013,40 LEONARD STREET,C6-4,W8,8,X,NEW YORK LAW SCHOOL,NEW YORK LAW SCHOOL,24079,235000,235000,0,0,0,0,0,0,235000,1,9,0,1,200.83,100,0,0,2967750,96579900,2006,0,0,,,9.76,10,10,10,1,1001760018,982378,200798,12a,22v2,40.7178206,-74.0067531
MN,538,40,102,1,10012,566 LA GUARDIA PLACE,R7-2,W6,8,X,NEW YORK UNIVERSITY,NEW YORK UNIVERSITY,23402,232930,232930,0,0,0,0,0,0,232930,1,11,0,1,210,121,119.42,209,3159450,53072100,2000,0,0,,,9.95,3.44,0,6.5,1,1005380040,984829,205156,12c,22v2,40.7297825,-73.9979109
MN,1475,9005,108,5,10065,518 EAST 63 STREET,,I4,8,X,THE ROCKEFELLER UNIVERSITY,THE ROCKEFELLER UNIVERSITY,42035,504420,504420,0,0,0,0,0,0,504420,1,26,0,0,210,172,0,0,5850000,74956050,1987,0,0,,,12,0,0,0,1,1014759005,,,,22v2,,
MN,559,12,103,2,10003,106 EAST 14 STREET,C6-4,H8,8,X,NEW YORK UNIVERSITY,NEW YORK UNIVERSITY,18447,216267,1000,0,0,1000,0,0,0,0,1,20,172,173,100,206.5,100,190,5850000,15179850,1998,2018,0,,,11.72,10,10,10,1,1005590012,987230,206581,12c,22v2,40.7336932,-73.9892473
MN,1998,17,109,7,10027,615 WEST 131 STREET,C6-1,O5,5,X,TRUSTEES OF COLUMBIA UNIVERSITY IN THE C ITY OF NEW,COLUMBIA UNIVERSITY,34970,"  210,000 ",210000,0,176400,33600,0,0,0,0,1,6,0,6,175,199.83,175,200,945000,22653000,1924,1997,2006,,,6.01,3.44,6,6.5,1,1019980017,995915,237427,5c,22v2,40.8183502,-73.9578559
BX,5774,240,208,11,10463,3825 CORLEAR AVENUE,R6,W6,8,X,MANHATTAN COLLEGE,MANHATTAN COLLEGE,83670,203837,203837,0,0,0,0,0,0,203837,1,3,0,3,455.67,213.42,277,162,752850,28936350,1947,2018,0,,,2.44,2.43,0,4.8,2,2057740240,1011468,262208,1d,22v2,40.8863324,-73.9015644
MN,541,1,102,1,10012,40 WASHINGTON SQUARE S,R7-2,W6,8,X,NEW YORK UNIVERSITY,NEW YORK UNIVERSITY,41835,202521,202521,0,0,0,0,0,0,202521,1,5,0,1,200.17,209,200.16,209,4770000,17555400,1951,0,0,South Village Historic District,,4.84,3.44,0,6.5,1,1005410001,984392,205434,12c,22v2,40.7305455,-73.9994876
MN,931,24,106,2,10010,339 EAST 25 STREET,R8,W6,8,X,NEW YORK UNIVERSITY,NEW YORK UNIVERSITY,24688,198380,198380,0,28502,0,0,0,0,0,2,6,0,3,197.5,125,49.42,100,5554800,84618900,1921,0,0,,,8.04,6.02,0,6.5,1,1009310024,990422,208380,8d,22v2,40.7386294,-73.9777281
BX,3273,75,206,15,10458,685 EAST FORDHAM ROAD,R6,G1,10,X,FORDHAM UNIVERSITY,FORDHAM UNIVERSITY,166500,194442,,,,,,,,,1,4,0,1,517.75,322.08,200,243,1498500,3816900,2005,0,0,,,1.17,2.43,0,4.8,2,2032730075,1016961,252253,3c,22v2,40.8589904,-73.8817473
BX,5933,425,208,11,10471,750 WEST 261 STREET,R4,W6,8,X,COLLEGE OF ST. VINCENT,COLLEGE OF ST. VINCENT,547650,192939,192939,0,0,0,0,0,0,192939,4,5,0,1,460.67,381,278,71,3942900,17715600,1924,2006,0,,,0.35,0.75,0,2,2,2059330425,1009424,271425,1c,22v2,40.9116362,-73.908922
MN,1506,21,108,4,10128,1339 MADISON AVENUE,R10,W1,8,C,CITY UNIVERSITY OF NEW YORK,CITY UNIVERSITY OF NEW YORK,80566,192301,192301,0,0,0,0,0,0,192301,4,4,0,1,201.42,400,201,230,27450000,55230300,1972,2005,0,Individual Landmark,INDIVIDUAL LANDMARK,2.39,10,0,10,1,1015060021,996951,225610,6b,22v2,40.7859143,-73.9541353
MN,1962,19,109,7,10027,88 MORNINGSIDE DRIVE,R8,D9,3,,TRUSTEES OF COLUMBIA UNIVERSITY,COLUMBIA UNIVERSITY,17661,"  189,905 ",12785,177120,0,12000,0,0,0,785,1,15,285,288,100.92,175,98,164,508500,11642400,1925,1986,0,,,10.75,6.02,0,6.5,1,1019620019,995742,233661,5c,22v2,40.8080138,-73.9584874
BK,255,36,302,33,11201,172 REMSEN STREET,C5-2A,W6,8,P,ST FRANCIS COLLEGE,ST FRANCIS COLLEGE,29815,184055,184055,0,0,0,0,0,0,184055,1,8,0,1,300,100,300,82,3542850,32344200,1914,0,0,Individual Landmark,INDIVIDUAL LANDMARK,6.17,10,10,10,3,3002550036,986469,191815,16c,22v2,40.6931643,-73.9919981
MN,1986,65,109,7,10027,3280 BROADWAY,C6-1,O6,5,P,THE TRUSTEES OF COLUMBIA UNIVERSITY IN THE CITY OF NEW YORK,COLUMBIA UNIVERSITY,30675,"  184,044 ",184044,0,134612,35332,14100,0,0,0,1,8,0,11,199.83,185,199,185,549000,10720800,1927,1990,1995,,,6,3.44,6,6.5,1,1019860065,996489,237399,6a,22v2,40.8182726,-73.9557822
BX,5776,632,208,11,10463,5935 BROADWAY,R6,G1,10,X,MANHATTAN COLLEGE,MANHATTAN COLLEGE,72825,181538,181538,0,11616,0,169922,0,0,0,1,4,0,1,250,387.42,250,184,684000,6372000,2008,2017,0,,,2.49,2.43,0,4.8,2,2057760632,1011984,263100,1d,22v2,40.8887791,-73.8996946
MN,556,48,103,2,10003,120 EAST 12 STREET,C6-2A,H8,8,X,NEW YORK UNIVERSITY,NEW YORK UNIVERSITY,17645,181380,1380,0,0,0,0,0,0,0,1,26,0,212,125,164.6,0,0,2699550,15285150,2006,0,0,,,10.28,6.02,6,6.5,1,1005560048,987225,206004,12c,22v2,40.7321095,-73.9892656
MN,930,20,106,2,10010,345 EAST 24 STREET,R8,W6,8,X,NEW YORK UNIVERSITY,NEW YORK UNIVERSITY,23777,180102,180102,0,180102,0,0,0,0,0,1,11,0,4,98.75,225,150,77.67,3262500,16510050,1977,2009,2009,,,7.57,6.02,0,6.5,1,1009300020,990235,208145,8d,22v2,40.7379845,-73.9784031
MN,547,1,102,1,10003,32 WAVERLY PLACE,R7-2,W6,8,X,NEW YORK UNIVERSITY,NEW YORK UNIVERSITY,17859,180000,180000,0,0,0,0,0,0,180000,1,10,0,1,180.08,99.17,180.08,99,3802500,14557950,1900,1922,0,,,10.08,3.44,0,6.5,1,1005470001,985470,205357,12c,22v2,40.7303341,-73.9955981
MN,552,24,102,1,10011,35 WASHINGTON SQUARE W,R7-2,H8,8,X,NEW YORK UNIVERSITY,NEW YORK UNIVERSITY,16065,179800,,,,,,,,,1,16,0,1,110,150,110,150,5099850,12121200,1955,1989,2014,Greenwich Village Historic District,,11.19,3.44,0,6.5,1,1005520024,984368,205811,12c,22v2,40.7315803,-73.9995742
MN,1895,55,109,7,10025,2901 BROADWAY,R8,D6,4,,TRUSTEES OF COLUMBIA UNIVERSITY,COLUMBIA UNIVERSITY,17592,"  178,897 ",13687,165210,1687,12000,0,0,0,0,2,12,131,141,175.92,100,98,174,1260000,10157400,1910,0,0,,,10.17,6.02,0,6.5,1,1018950055,993804,233117,5c,22v2,40.806523,-73.9654888
MN,776,40,105,3,10001,282 7 AVENUE,C6-2,W6,8,X,STATE UNIVERSITY OF,STATE UNIVERSITY OF NEW YORK,26399,169784,169784,0,0,0,0,0,0,169784,1,6,0,1,0,0,197.5,133.67,3690000,17498250,1974,0,0,,,6.43,6.02,6,6.5,1,1007760040,985799,211235,8d,22v2,40.7464677,-73.9944097
MN,1050,6,104,3,10018,455 WEST 40 STREET,C6-3,W5,8,X,HUNTER COLLEGE OF THE,HUNTER COLLEGE,28985,168570,168570,0,168570,0,0,0,0,0,1,6,0,0,160,197.67,133,197,3870000,12356550,1958,0,0,,,5.82,7.52,6,10,1,1010500006,985546,215536,8d,22v2,40.7582729,-73.9953219
QN,6705,1,408,24,11367,75-31 150 STREET,R4,W6,8,X,TOURO COLLEGE,TOURO COLLEGE,120000,162000,162000,0,0,0,0,0,0,162000,1,4,0,1,600,200,200,180,1485000,17978400,1999,0,0,,,1.35,0.75,0,2,4,4067050001,1035670,203316,14c,22v2,40.7245827,-73.8144877
MN,1881,3,107,7,10025,2824 BROADWAY,R9A,W6,8,,TRUSTEES OF COLUMBIA UNIVERSITY,COLUMBIA UNIVERSITY,17104,"  161,502 ",161502,0,11049,11838,0,0,0,68762,1,12,27,29,136.83,125,136.83,125,2052000,26427150,1998,0,0,,,9.44,7.52,0,7.5,1,1018810003,993529,232090,5d,22v2,40.8037044,-73.9664836
SI,620,100,501,49,10301,1 CAMPUS ROAD,R3-1,H8,8,X,WAGNER COLLEGE,WAGNER COLLEGE,31347,161500,,,,,,,,,1,14,0,1,162.83,206.83,60.83,83.83,634950,4975650,1968,0,0,,,5.15,0.5,0,1,5,5006200100,959020,163202,21b,22v2,40.6145922,-74.0908744
BK,2085,50,302,35,11201,426 DEKALB AVENUE,R6,W8,8,X,LONG ISLAND UNIVERSITY,LONG ISLAND UNIVERSITY,37765,155000,155000,0,0,0,0,0,0,155000,1,6,0,1,191,271,191,271,1062000,16852050,1975,0,0,,,4.1,2.43,0,4.8,3,3020850050,989663,191057,16c,22v2,40.6910824,-73.9804809
MN,540,14,102,1,10012,130 MAC DOUGAL STREET,R7-2,H8,8,X,NEW YORK UNIVERSITY,NEW YORK UNIVERSITY,17351,153348,40600,0,40600,0,0,0,0,0,2,14,0,2,90.67,175,175,116,5844150,8551350,1852,0,0,South Village Historic District,,8.84,3.44,0,6.5,1,1005400014,984272,205267,12c,22v2,40.7300871,-73.9999206
MN,1975,29,109,7,10027,1220 AMSTERDAM AVENUE,R8,D9,3,X,TEACHERS COLLEGE COLUMBIA UNIVERITY,COLUMBIA UNIVERSITY,25125,"  153,000 ",15800,137200,15800,0,0,0,0,0,2,9,356,356,201.83,125,201.83,125,711000,8361900,1901,1950,0,,,6.09,6.02,0,6.5,1,1019750029,995518,234319,5c,22v2,40.8098201,-73.9592954
BK,1294,1,309,35,11225,80 CROWN STREET,R6,W9,8,O,MEDGAR EVARS COLLEGE RESEARCH FOUNDA TION CUNY,MEDGAR EVARS COLLEGE,183400,147950,147950,0,0,0,0,0,0,147950,1,2,0,2,262,700,131,100,1944450,16328700,1987,0,0,,,0.81,2.43,0,4.8,3,3012940001,995881,182075,16d,22v2,40.6664229,-73.9580745
SI,593,500,501,49,10301,300 HOWARD AVENUE,R3-1,W6,8,X,ST JOHNS UNIVERSITY,ST JOHN'S UNIVERSITY,718740,146855,146855,0,0,0,0,0,0,146855,10,2,0,1,2117,1161.42,122,56,9702900,22605750,1959,0,0,,,0.2,0.5,0,1,5,5005930500,959079,165643,21b,22v2,40.6212924,-74.090671
MN,465,1,103,2,10003,31 3 AVENUE,C6-2A,H8,8,,NEW YORK UNIVERSITY,NEW YORK UNIVERSITY,27583,146583,7708,0,0,7708,0,0,0,0,1,16,0,7,184.42,137,163,122,8100000,20538000,1986,0,0,,,5.31,6.02,6,6.5,1,1004650001,987306,205330,12c,22v2,40.7302595,-73.9889737
BX,5803,600,208,11,10471,4381 POST ROAD,R4,W6,8,X,MANHATTAN COLLEGE,MANHATTAN COLLEGE,72023,144307,144307,0,0,0,0,0,0,144307,1,11,0,1,146.7,292.3,146.7,200,814500,17230050,1990,0,0,,,2,0.75,0,2,2,2058030600,1012173,263828,1d,22v2,40.8907766,-73.899008
BK,2085,100,302,35,11201,150 ASHLAND PLACE,R6,G9,7,,LONG ISLAND UNIVERSITY,LONG ISLAND UNIVERSITY,76488,143586,143586,0,0,0,126567,0,0,17019,1,1,0,1,214.64,336.47,214,336,1347702,10282050,2019,0,0,,,1.88,2.43,0,4.8,3,3020850100,989964,191141,16c,22v2,40.6913128,-73.9793954
MN,1373,160,108,5,10044,22 NORTH LOOP ROAD,C4-5,H2,5,C,CORNELL UNIVERSITY,CORNELL UNIVERSITY,18555,142554,,,,,,,,,1,19,0,197,159.47,166.7,113.5,127,2688750,13028400,2018,2018,0,,,7.68,3.44,3.4,6.5,1,1013730160,996560,214690,9b,22v2,40.7559424,-73.9555673
MN,568,1,102,2,10003,35 5 AVENUE,R10,H8,8,X,NEW YORK UNIVERSITY,NEW YORK UNIVERSITY,10390,141091,19840,0,0,0,0,0,0,19840,1,15,0,1,80,124.5,80,124,2920500,9484650,1925,0,0,Greenwich Village Historic District,,13.58,10,0,10,1,1005680001,985632,206494,12c,22v2,40.7334548,-73.9950134
BX,4222,84,211,13,10461,1579 RHINELANDER AVENUE,R6A,D3,3,X,ALBERT EINSTEIN COLLEGE OF MEDICINE,ALBERT EINSTEIN COLLEGE OF MEDICINE,52200,140628,0,140628,0,0,0,0,0,0,1,6,130,130,323,164,246.67,125.75,337500,3993750,1961,0,0,,,2.69,3,0,3,2,2042220084,1028183,251203,4a,22v2,40.8560597,-73.8411859
MN,931,21,106,2,10010,334 EAST 26 STREET,R8,H8,8,X,NEW YORK UNIVERSITY,NEW YORK UNIVERSITY,19750,140423,,,,,,,,,1,25,0,1,100,197.5,60,48,4446000,16163100,1984,0,0,,,7.11,6.02,0,6.5,1,1009310021,990321,208436,8d,22v2,40.7387832,-73.9780925
MN,2139,275,112,10,10032,154 HAVEN AVENUE,R8,I4,8,X,TRUSTEES OF COLUMBIA UNIVERSITY,COLUMBIA UNIVERSITY,17043,"  84,442 ",84442,0,0,0,0,0,0,84442,1,10,0,6,176,60,174,60,450000,8369100,1974,0,0,,,4.95,6.02,0,6.5,1,1021390275,1000071,247604,3b,22v2,40.8462767,-73.9428169
MN,562,30,102,2,10003,787 BROADWAY,C6-1,H8,8,X,NEW YORK UNIVERSITY,NEW YORK UNIVERSITY,9150,135910,,,,,,,,,1,16,0,1,53.5,168.33,53.5,168,2925000,8768700,1929,0,0,,,14.85,3.44,6,6.5,1,1005620030,986518,205993,12c,22v2,40.7320795,-73.9918166
MN,1963,60,109,7,10027,1255 AMSTERDAM AVENUE,R8,W6,8,X,TRUSTEES OF COLUMBIA UNIVERSITY,COLUMBIA UNIVERSITY,25669,"  130,228 ",130228,0,0,0,0,0,0,130228,1,11,0,2,155.67,100,155,90,1020600,58181400,2013,0,0,,,5.07,6.02,0,6.5,1,1019630060,995853,234423,5c,22v2,40.8101051,-73.9580851
MN,552,60,102,1,10011,29 WASHINGTON SQUARE W,R7-2,H8,8,,NEW YORK UNIVERSITY,NEW YORK UNIVERSITY,11400,128601,3615,0,3615,0,0,0,0,0,1,15,65,68,123.25,88.25,121,90,1674000,2981700,1927,1988,0,Greenwich Village Historic District,,11.28,3.44,0,6.5,1,1005520060,984525,206001,12c,22v2,40.7321018,-73.9990077
MN,545,6,102,2,10003,708 BROADWAY,M1-5/R9A,O6,5,,NEW YORK UNIVERSITY,NEW YORK UNIVERSITY,16740,127143,127143,0,112143,15000,0,0,0,0,2,10,0,18,25,275.08,25,137,2920500,26331750,1896,1989,2018,NoHo Historic District,,7.6,0,5,6.5,1,1005450006,986132,204701,12c,22v2,40.7285334,-73.9932098
MN,1896,65,109,7,10025,2941 BROADWAY,R8,D6,4,,TRUSTEES OF COLUMBIA UNIVERSITY,COLUMBIA UNIVERSITY,12614,"  126,478 ",12184,114294,0,8000,0,0,0,4184,1,12,94,96,100.92,125,100,112,720000,5033250,1912,0,0,,,10.03,6.02,0,6.5,1,1018960065,994029,233549,5c,22v2,40.8077085,-73.9646754
MN,101,2,101,1,10038,39 PARK ROW,C6-4,W6,8,X,PACE COLLEGE,PACE COLLEGE,7865,125840,125840,0,125840,0,0,0,0,0,1,16,0,1,102.92,104,102,104,2637000,10949850,1900,1928,0,Individual Landmark,INDIVIDUAL LANDMARK,16,10,10,10,1,1001010002,982535,198556,12b,22v2,40.7116669,-74.0061861
MN,570,42,102,2,10003,7 EAST 12 STREET,C6-1,W6,8,X,NEW YORK UNIVERSITY,NEW YORK UNIVERSITY,12700,125588,125588,0,0,0,0,0,0,125588,1,12,0,1,100,127.25,100,100,2925000,20677050,1947,1972,0,,,9.89,3.44,6,6.5,1,1005700042,986009,206891,12c,22v2,40.7345444,-73.993653
MN,546,11,102,1,10003,35 WEST 4 STREET,R7-2,W6,8,X,NEW YORK UNIVERSITY,NEW YORK UNIVERSITY,6750,125450,125450,0,0,0,0,0,0,125450,1,13,0,2,100,95.33,100,95,1138500,10154250,1930,1982,2001,,,18.59,3.44,0,6.5,1,1005460011,985390,205042,12c,22v2,40.7294695,-73.9958868
MN,1893,3,107,6,10025,362 RIVERSIDE DRIVE,R8,D3,3,,TRUSTEES OF COLUMBIA UNIVERSITY,COLUMBIA UNIVERSITY,15183,"  124,458 ",0,124458,0,0,0,0,0,0,1,11,41,41,151.83,100,152,100,585000,13944600,1905,1985,0,Morningside Heights Historic District,,8.2,6.02,0,6.5,1,1018930003,992944,232142,5d,22v2,40.8038478,-73.9685966
MN,1883,59,109,7,10025,2874 BROADWAY,R8,H8,8,,TRUSTEES OF COLUMBIA UNIVERSITY,COLUMBIA UNIVERSITY,15771,"  123,205 ",10000,0,0,10000,0,0,0,0,1,10,0,8,126.17,125,126,114,1064700,5671350,1908,0,0,Morningside Heights Historic District,,7.81,6.02,0,6.5,1,1018830059,993802,232586,5c,22v2,40.8050655,-73.9654968
MN,541,18,102,1,10012,51 WASHINGTON SQUARE S,R7-2,W6,8,X,NEW YORK UNIVERSITY,NEW YORK UNIVERSITY,10637,122500,122500,0,0,0,0,0,0,122500,2,10,1,1,96.08,100.17,71,90,1912500,16699050,1900,1995,0,Individual Landmark,INDIVIDUAL LANDMARK,11.52,3.44,0,6.5,1,1005410018,984611,205355,12c,22v2,40.7303287,-73.9986975
MN,962,108,106,4,10016,540 1 AVENUE,R8,I5,8,,NEW YORK UNIVERSITY,NEW YORK UNIVERSITY,58156,413850,413850,0,413850,0,0,0,0,0,1,24,0,1,291.96,254,0,0,10939050,55058850,1963,0,0,,,7.12,6.02,0,6.5,1,1009620108,991425,209624,8d,22v2,40.7420431,-73.9741074
MN,575,17,102,3,10011,66 WEST 12 STREET,R6,W6,8,X,NEW SCHOOL SOC RESEAR,NEW SCHOOL,22315,120467,120467,0,0,0,0,0,0,120467,3,8,0,1,117.42,206.5,77.58,103.25,3870000,9664650,1931,0,0,Greenwich Village Historic District,INTERIOR LANDMARK,5.4,2.43,0,4.8,1,1005750017,985001,207204,12c,22v2,40.7354037,-73.9972901
MN,2149,30,112,10,10033,2501 AMSTERDAM AVENUE,R7-2,W6,8,X,YESHIVA UNIVERSITY,YESHIVA UNIVERSITY,72875,119550,119550,0,0,0,0,0,0,119550,2,7,0,2,302.67,276,99,207,1057500,8947350,1956,2012,0,,,1.64,3.44,0,6.5,1,1021490030,1003972,249008,3a,22v2,40.8501224,-73.928713
MN,535,36,102,1,10012,17 WEST 3 STREET,R7-2,W6,8,X,NEW YORK UNIVERSITY,NEW YORK UNIVERSITY,21945,119170,119170,0,0,0,0,0,0,119170,1,13,0,3,105,209,105,209,2421000,13457250,1975,0,0,,,5.43,3.44,0,6.5,1,1005350036,985450,204752,12c,22v2,40.7286735,-73.9956704
MN,544,50,102,2,10003,16 COOPER SQUARE,M1-6/R10,W9,8,,NEW YORK UNIVERSITY,NEW YORK UNIVERSITY,17375,117391,117391,0,0,22000,0,0,0,95391,1,7,0,2,126,176,126,176,1471500,13951800,1901,1966,2006,NoHo Historic District,,6.76,10,10,10,1,1005440050,986534,204476,12c,22v2,40.7279157,-73.9917594
MN,576,36,102,3,10011,2 WEST 13 STREET,C6-2,W6,8,X,NEW SCHOOL/SOCIAL RES.,NEW SCHOOL,10500,116962,116962,0,0,0,0,0,0,116962,1,12,0,2,195,103,195,26,2268000,8338500,1913,1956,0,Individual Landmark,INDIVIDUAL LANDMARK,11.14,6.02,6,6.5,1,1005760036,985695,207199,12c,22v2,40.7353899,-73.9947859
MN,548,4,102,1,10003,5 UNIVERSITY PLACE,R7-2,H8,8,X,NEW YORK UNIVERSITY,NEW YORK UNIVERSITY,22220,116237,,,,,,,,,1,9,0,302,132.67,175,132,170,4999500,9168300,1962,0,0,,,5.23,3.44,0,6.5,1,1005480004,985689,205580,12c,22v2,40.7309461,-73.9948079
MN,546,15,102,1,10003,14 WASHINGTON PLACE,R7-2,H8,8,,NEW YORK UNIVERSITY,NEW YORK UNIVERSITY,10997,115694,6600,0,0,6600,0,0,0,0,1,14,151,155,114.25,96.25,114,96,585000,2959200,1931,0,0,,,10.52,3.44,0,6.5,1,1005460015,985574,205041,12c,22v2,40.7294667,-73.9952229
BK,131,25,302,33,11201,101 TECH PLACE,C6-4,H8,8,X,NEW YORK UNIVERSITY,NEW YORK UNIVERSITY,19176,115591,,,,,,,,,1,18,0,222,126.88,144,120,50,1066500,9046800,2002,0,0,,,6.03,10,10,10,3,3001310025,988041,192563,12d,22v2,40.6952169,-73.9863289
QN,6507,150,408,24,11367,148-20 REEVES AVENUE,R4,W1,8,O,QUEENS COLLEGE SCHOOL FOR MATH,QUEENS COLLEGE,62080,114369,114369,0,0,0,0,0,0,114369,1,4,0,1,344.6,203.35,340,68,977850,16514550,2004,0,0,,,1.84,0.75,0,2,4,4065070150,1033878,208438,10d,22v2,40.7386515,-73.820915
MN,576,46,102,3,10011,60 5 AVENUE,C6-4,O3,5,X,NEW YORK UNIVERSITY,NEW YORK UNIVERSITY,12885,113500,113500,0,113500,0,0,0,0,0,1,8,0,1,103.08,125,103.08,125,2214000,17572950,1924,1986,2015,,,8.81,10,10,10,1,1005760046,985693,207061,12c,22v2,40.7350111,-73.9947932
MN,552,26,102,1,10011,37 WASHINGTON SQUARE W,R7-2,H8,8,,NEW YORK UNIVERSITY,NEW YORK UNIVERSITY,8250,110447,4260,0,4260,0,0,0,0,0,1,16,63,67,82.5,116,82.5,92,819000,2794500,1929,0,0,Greenwich Village Historic District,,13.39,3.44,0,6.5,1,1005520026,984339,205715,12c,22v2,40.7313168,-73.9996789
MN,1962,56,109,7,10027,90 MORNINGSIDE DRIVE,R8,D9,3,,TRUSTEES OF COLUMBIA UNIVERSITY,COLUMBIA UNIVERSITY,22456,"  110,280 ",13900,96380,10900,3000,0,0,0,0,1,6,66,69,163.33,127.5,160,130,427950,3270150,1910,1988,0,,,4.91,6.02,0,6.5,1,1019620056,995840,233821,5c,22v2,40.8084528,-73.9581331
MN,571,7502,102,2,10003,22 EAST 14 STREET,C6-1,RC,5,,NEW SCHOOL UNIVERSITY,NEW SCHOOL,15747,109696,109696,0,0,15548,0,14093,0,80055,1,5,0,2,75,206.5,0,0,2254500,10142100,1881,0,0,Individual Landmark,INDIVIDUAL LANDMARK,6.97,3.44,6,6.5,1,1005717502,986281,207100,12c,22v2,40.735118,-73.9926714
MN,1895,39,109,7,10025,410 RIVERSIDE DRIVE,R8,D3,3,,TRUSTEES OF COLUMBIA UNIVERSITY,COLUMBIA UNIVERSITY,9942,"  108,401 ",0,108401,0,0,0,0,0,0,1,12,57,57,104.33,112,104,102,351000,2791800,1910,1989,0,Morningside Heights Historic District,,10.9,6.02,0,6.5,1,1018950039,993432,233283,5c,22v2,40.806979,-73.9668323
MN,1963,19,109,7,10027,106 MORNINGSIDE DRIVE,R8,D3,3,,TEACHERS COLLEGE COLUMBIA UNIVERITY,COLUMBIA UNIVERSITY,17584,"  108,400 ",0,108400,0,0,0,0,0,0,1,9,87,87,101.83,167.17,99,155,369900,4252950,1912,0,0,,,6.16,6.02,0,6.5,1,1019630019,995945,234147,5c,22v2,40.8093475,-73.9577532
MN,1989,50,109,7,10027,600 WEST 120 STREET,R8,W6,8,X,BARNARD COLLEGE,BARNARD COLLEGE,38866,107520,107520,0,0,0,0,0,0,107520,1,6,0,1,200,192,200,160,1413000,9678600,1897,1956,1998,,,2.77,6.02,0,6.5,1,1019890050,994529,234536,5c,22v2,40.8104169,-73.9628678
BK,4856,12,317,40,11203,440 LENOX ROAD,R5,D1,3,X,STATE UNIVERSITY OF NEW YORK,STATE UNIVERSITY OF NEW YORK,39503,107100,0,107100,0,0,0,0,0,0,1,6,108,108,200,200,200,105,888750,3396150,1941,0,0,,,2.71,1.25,0,2,3,3048560012,999614,177589,17b,22v2,40.6541041,-73.9446286
MN,546,35,102,1,10003,707 BROADWAY,C6-2G,W6,8,X,HEBREW UNION COLLEGE-JEWISH INSTITUTE OF RELIGION,HEBREW UNION COLLEGE,11190,106063,106063,0,0,0,0,0,0,106063,1,10,0,1,49.25,200,49.25,200,1890000,8563050,1971,0,0,NoHo Historic District,,9.48,6.02,6,6.5,1,1005460035,985796,204859,12c,22v2,40.7289671,-73.994422
MN,2156,16,112,10,10033,2508 AMSTERDAM AVENUE,R7-2,W6,8,X,YESHIVA UNIVERSITY,YESHIVA UNIVERSITY,21978,105698,105698,0,0,0,0,0,0,105698,1,5,0,1,80,275,76,251,351450,5450400,1962,0,0,,,4.81,3.44,0,6.5,1,1021560016,1003650,249167,3a,22v2,40.8505595,-73.9298765
MN,546,21,102,1,10003,19 WEST 4TH STREET,R7-2,O6,5,X,NEW YORK UNIVERSITY,NEW YORK UNIVERSITY,11047,100628,100628,0,95628,5000,0,0,0,0,1,8,0,2,192.5,71.42,192.5,75.42,1017000,9479250,1900,1981,2006,,,9.11,3.44,0,6.5,1,1005460021,985636,204927,12c,22v2,40.7291538,-73.9949993
BX,4201,31,211,13,10461,1165 MORRIS PARK AVENUE,R4A,I5,8,X,YESHIVA UNIVERSITY,YESHIVA UNIVERSITY,20000,51389,51389,0,51389,0,0,0,0,0,1,4,0,1,200,100,156,75,225900,6477750,1969,2020,0,,,2.57,0.75,0,2,2,2042010031,1025672,249394,4a,22v2,40.8511067,-73.8502741
MN,1995,44,109,7,10027,628 WEST 125 STREET,R8,W6,8,X,THE TRUSTEES OF COLUMBIA UNIVERSITY IN T HE CITY OF,COLUMBIA UNIVERSITY,27609,"  95,974 ",95974,0,0,0,0,0,0,95974,1,4,0,2,184.08,150,184,150,918000,6667650,1934,1982,0,,,3.48,6.02,0,6.5,1,1019950044,995445,236744,5c,22v2,40.8164762,-73.9595551
BK,8760,110,315,48,11235,115 ORIENTAL BOULEVARD,R3-1,C1,2,X,CITY UNIV OF NEW YORK,CITY UNIVERSITY OF NEW YORK,207185,95104,0,95104,0,0,0,0,0,0,1,2,44,44,242.08,804.17,0,0,3060000,7071750,1938,0,0,,,0.46,0.5,0,1,3,3087600110,1001991,150588,29b,22v2,40.5799875,-73.9361329
MN,1867,9,109,7,10025,411 WEST 114 STREET,R8,I5,8,,TRUSTEES OF COLUMBIA UNIVERSITY IN THE CITY OF NEW YORK,COLUMBIA UNIVERSITY,10092,"  42,672 ",42672,0,0,0,0,0,0,42672,1,6,24,24,100,100.92,100,86,409500,2531250,1910,0,0,,,4.23,6.02,0,6.5,1,1018670009,995068,232674,5c,22v2,40.8053056,-73.9609237
MN,1896,72,109,7,10025,600 WEST 116 STREET,R8,D6,4,,BARNARD COLLEGE,BARNARD COLLEGE,10091,92348,5350,86998,0,5350,0,0,0,0,1,12,63,67,100.92,100,100,87,598500,7864200,1912,0,0,Morningside Heights Historic District,,9.15,6.02,0,6.5,1,1018960072,994091,233636,5c,22v2,40.8079472,-73.9644513
BX,5779,801,208,11,10463,3801 WALDO AVENUE,R6,D1,3,X,MANHATTAN COLLEGE,MANHATTAN COLLEGE,32900,92000,6300,85700,0,0,6300,0,0,0,1,6,95,95,122.67,191.17,162,102,592200,2875050,1961,0,0,,,2.8,2.43,0,4.8,2,2057790801,1010671,262623,1d,22v2,40.8874739,-73.9044452
MN,547,8,102,1,10003,23 WASHINGTON PLACE,R7-2,W6,8,X,NEW YORK UNIVERSITY,NEW YORK UNIVERSITY,10067,91402,91402,0,0,0,0,0,0,91402,1,10,0,1,100.67,100,100.67,100,2097450,8288550,1901,0,0,Individual Landmark,INDIVIDUAL LANDMARK,9.08,3.44,0,6.5,1,1005470008,985533,205264,12c,22v2,40.7300788,-73.9953708
MN,1884,61,109,7,10025,2890 BROADWAY,R8,H8,8,,THE TRUSTEES OF COLUMBIA UNIVERSITY IN T HE,COLUMBIA UNIVERSITY,12615,"  91,116 ",11606,0,0,11606,0,0,0,0,1,8,0,4,100.92,125,101,112,1506150,6098850,1908,0,0,Morningside Heights Historic District,,7.22,6.02,0,6.5,1,1018840061,993932,232820,5c,22v2,40.8057077,-73.9650269
MN,1963,1,109,7,10027,1221 AMSTERDAM AVENUE,R8,D6,4,,TRUSTEES OF COLUMBIA UNIVERSITY,COLUMBIA UNIVERSITY,12615,"  90,827 ",3697,87130,0,3697,0,0,0,0,1,10,78,80,100.92,125,100,115,311850,3783150,1914,1984,0,,,7.2,6.02,0,6.5,1,1019630001,995681,234175,5c,22v2,40.8094247,-73.9587069
MN,1464,21,108,5,10021,1293 YORK AVENUE,R10,H8,8,X,CORNELL UNIVERSITY,CORNELL UNIVERSITY,16561,89250,,,,,,,,,1,10,0,1,164.92,100.42,100,141,2515500,8595000,1954,1988,0,,,5.39,10,0,10,1,1014640021,996601,218087,9a,22v2,40.7652662,-73.9554131
MN,1895,23,109,7,10025,2891 BROADWAY,R8,D7,4,,TRUSTEES OF COLUMBIA UNIVERSITY,COLUMBIA UNIVERSITY,10092,"  88,332 ",5000,83332,0,5000,0,0,0,0,1,13,250,255,100.92,100,100,88,1170000,8145450,1911,1988,0,Morningside Heights Historic District,,8.75,6.02,0,6.5,1,1018950023,993712,232947,5c,22v2,40.8060565,-73.9658214
MN,1962,70,109,7,10027,1211 AMSTERDAM AVENUE,R8,D6,4,,TRUSTEES OF COLUMBIA UNIVERSITY,COLUMBIA UNIVERSITY,12138,"  87,979 ",6159,81820,0,6159,0,0,0,0,1,10,111,115,80.92,150,80,142,312300,5364000,1913,0,0,,,7.25,6.02,0,6.5,1,1019620070,995601,234005,5c,22v2,40.8089582,-73.9589961
MN,863,53,105,2,10016,48 EAST 34 STREET,C5-2,H8,8,X,YESHIVA UNIVERSITY,YESHIVA UNIVERSITY,7120,87550,,,,,,,,,1,19,0,1,72,98.75,72,66,3240000,4386600,1962,1986,0,,,12.3,10,10,10,1,1008630053,989121,211513,8d,22v2,40.7472295,-73.9824205
MN,930,34,106,2,10010,421 1 AVENUE,R8,W5,8,X,NEW YORK UNIVERSITY,NEW YORK UNIVERSITY,12350,87515,87515,0,87515,0,0,0,0,0,2,11,0,3,125,98.75,97,122,1687500,8195850,1929,1984,0,,,7.09,6.02,0,6.5,1,1009300034,990323,208199,8d,22v2,40.7381327,-73.9780855
MN,1962,38,109,7,10027,1201 AMSTERDAM AVENUE,R8,D6,4,,TRUSTEES OF COLUMBIA UNIVERSITY,COLUMBIA UNIVERSITY,12138,"  87,271 ",4023,83248,0,4023,0,0,0,0,1,11,116,119,80.92,150,81,135,214200,6065550,1912,1987,0,,,7.19,6.02,0,6.5,1,1019620038,995560,233932,5c,22v2,40.8087579,-73.9591444
MN,577,71,102,3,10011,55 WEST 13 STREET,C6-2,O3,5,X,NEW SCHOOL-SOCL RESEARCH,NEW SCHOOL,10325,86117,86117,0,86117,0,0,0,0,0,1,9,0,6,100,103.25,100,103,1071000,9143100,1900,0,0,,,8.34,6.02,6,6.5,1,1005770071,985221,207625,12c,22v2,40.7365592,-73.9964962
MN,546,40,102,1,10003,699 BROADWAY,C6-2G,W6,8,X,HEBREW UNION COLLEGE,HEBREW UNION COLLEGE,17287,85000,85000,0,0,0,0,0,0,85000,1,5,0,1,93.42,200,93.42,200,3028500,6031350,1979,0,0,NoHo Historic District,,4.92,6.02,6,6.5,1,1005460040,985766,204792,12c,22v2,40.7287832,-73.9945303
BX,4117,1,211,13,10461,MORRIS PARK AVENUE,R4,I9,8,X,ALBERT EINSTEIN COLLEGE OF MEDICINE,ALBERT EINSTEIN COLLEGE OF MEDICINE,346145,851821,851821,0,0,0,0,0,0,851821,6,9,0,7,538,369,88.83,282,2082150,55356750,1954,1995,2012,,,2.46,0.75,0,2,2,2041170001,1026825,248938,4a,22v2,40.8498496,-73.8461093
BX,5958,10,208,11,10471,755 WEST 261 STREET,R4,W6,8,X,MT ST VINCENT COLLEGE,MT ST VINCENT COLLEGE,257775,83366,83366,0,0,0,0,0,0,83366,2,3,0,1,451.33,235.25,156.5,121.75,2056500,10557900,1956,2016,0,,,0.32,0.75,0,2,2,2059580010,1010271,271393,1c,22v2,40.9115459,-73.9058578
MN,550,13,102,1,10003,1 1/2 5 AVENUE,R6,H8,8,,NEW YORK UNIVERSITY,NEW YORK UNIVERSITY,33275,83277,,,,,,,,,10,5,92,92,218.42,142.17,219,65,972000,1694250,1932,0,0,Greenwich Village Historic District,,2.5,2.43,0,4.8,1,1005500013,985278,205751,12c,22v2,40.7314155,-73.9962908
MN,1867,42,109,7,10025,1125 AMSTERDAM AVENUE,R8,W5,8,X,TRUSTEES OF COLUMBIA UNIVERSITY,COLUMBIA UNIVERSITY,10068,"  83,170 ",83170,0,0,0,0,0,0,83170,1,10,0,1,100.68,100,100.68,100,351450,19206900,1997,0,0,,,8.26,6.02,0,6.5,1,1018670042,995018,233001,5c,22v2,40.8062032,-73.9611038
MN,1976,20,109,7,10027,509 WEST 121 STREET,R8,D3,3,X,TEACHERS COLLEGE COLUMBIA UNIVERITY,COLUMBIA UNIVERSITY,14525,"  81,632 ",0,81632,0,0,0,0,0,0,1,8,110,110,150,101,150,79,337500,5267700,1911,1989,0,,,5.62,6.02,0,6.5,1,1019760020,995451,234598,5c,22v2,40.810586,-73.959537
QN,7021,100,408,24,11432,81-50D UTOPIA PARKWAY,R4,W6,8,X,ST JOHN'S UNIVERSITY,ST JOHN'S UNIVERSITY,23944,80000,80000,0,0,0,0,0,0,80000,1,4,0,0,146,164,122,162,558000,11034450,1972,1987,0,,,3.34,0.75,0,2,4,4070210100,1041940,202319,14c,22v2,40.7218075,-73.7918755
MN,1963,30,109,7,10027,1235 AMSTERDAM AVENUE,R8,H8,8,,BARNARD COLLEGE,BARNARD COLLEGE,10092,79036,3317,0,0,3317,0,0,0,0,1,15,58,62,100.92,100,102,100,389700,5664600,1968,0,0,,,7.83,6.02,0,6.5,1,1019630030,995721,234272,5c,22v2,40.8096909,-73.9585622
SI,620,200,501,49,10301,15 CAMPUS ROAD,R3-1,W9,8,X,WAGNER COLLEGE,WAGNER COLLEGE,57863,78475,78475,0,0,0,0,0,0,78475,1,3,0,1,320.83,175.83,41.83,44.83,576000,4637250,1967,0,0,,,1.36,0.5,0,1,5,5006200200,958422,163526,21b,22v2,40.6154798,-74.0930295
BK,1915,16,302,35,11205,232 CLINTON AVENUE,R6B,W6,8,X,ST JOSEPH'S COLLEGE,ST JOSEPH'S COLLEGE,58600,78000,78000,0,0,0,0,0,0,78000,3,4,0,1,320.83,180,50,60,823500,6036750,1965,2003,0,Clinton Hill Historic District,,1.33,2,0,2,3,3019150016,992855,191040,16c,22v2,40.6910332,-73.9689707
MN,1884,11,109,7,10025,531 WEST 112 STREET,R8,D3,3,,TRUSTEES OF COLUMBIA UNIVERSITY,COLUMBIA UNIVERSITY,10100,"  75,569 ",1301,74268,0,0,0,0,0,1301,1,8,41,41,100,100.92,100,85,351450,1423350,1912,0,0,,,7.48,6.02,0,6.5,1,1018840011,994071,232626,5c,22v2,40.805175,-73.9645251
BX,3273,209,206,15,10458,2540 BELMONT AVENUE,C4-5D,W6,8,X,FORDHAM UNIVERSITY,FORDHAM UNIVERSITY,39123,75065,75065,0,0,0,0,0,0,75065,1,5,0,1,207,189.17,125,100,330750,6225750,1931,2017,2018,,,1.92,4.2,4.2,4.2,2,2032730209,1016648,252024,3c,22v2,40.858363,-73.8828799
MN,1990,29,109,7,10027,39 CLAREMONT AVENUE,R8,D3,3,,TRUSTEES OF COLUMBIA UNIVERSITY,COLUMBIA UNIVERSITY,10000,"  74,634 ",0,74634,0,0,0,0,0,0,1,11,44,44,100,100,100,80,232650,2212650,1911,1988,0,Morningside Heights Historic District,,7.46,6.02,0,6.5,1,1019900029,994179,234382,5c,22v2,40.8099946,-73.9641324
MN,1896,74,109,7,10027,602 WEST 116 STREET,R8,D3,3,,THE TRUSTEES OF COLUMBIA UNIVERSITY OF THE CITY OF NEW YORK,COLUMBIA UNIVERSITY,7569,"  73,800 ",0,73800,0,0,0,0,0,0,1,12,45,45,75,100.92,73,80,405000,1616850,1908,1985,0,Morningside Heights Historic District,,9.75,6.02,0,6.5,1,1018960074,994012,233679,5c,22v2,40.8080653,-73.9647367
MN,1963,48,109,7,10027,110 MORNINGSIDE DRIVE,R8,D1,3,,TRUSTEES OF COLUMBIA UNIVERSITY,COLUMBIA UNIVERSITY,16381,"  72,222 ",0,72222,0,0,0,0,0,0,1,6,52,52,105.33,176.75,105,152,298800,3100500,1910,1986,0,,,4.41,6.02,0,6.5,1,1019630048,996002,234293,5c,22v2,40.8097481,-73.9575471
MN,2149,76,112,10,10033,2525 AMSTERDAM AVENUE,R7-2,H8,8,X,YESHIVA UNIVERSITY,YESHIVA UNIVERSITY,17100,72187,,,,,,,,,1,8,0,1,169.5,100,170,58,317700,3765150,1963,0,0,,,4.22,3.44,0,6.5,1,1021490076,1004016,249246,3a,22v2,40.8507755,-73.9285533
MN,547,20,102,1,10003,15 WASHINGTON PLACE,R7-2,W6,8,,NEW YORK UNIVERSITY,NEW YORK UNIVERSITY,15000,71270,71270,0,0,0,0,0,0,71270,1,6,0,1,150,100,144,80,675000,1831500,1941,0,0,,,4.75,3.44,0,6.5,1,1005470020,985699,205156,12c,22v2,40.7297824,-73.9947719
BK,6718,1,314,44,11230,1606 AVENUE J,R2,W6,8,X,TOURO COLLEGE,TOURO COLLEGE,20000,71000,71000,0,0,0,0,0,0,71000,2,6,0,1,200,100,200,100,1719000,11273850,1993,0,0,,,3.55,0.5,0,1,3,3067180001,995367,167018,22d,22v2,40.6250953,-73.9599521
MN,546,10,102,1,10003,18 WASHINGTON PLACE,R7-2,W6,8,X,NEW YORK UNIVERSITY,NEW YORK UNIVERSITY,8779,69800,69800,0,0,7158,0,0,0,62642,1,8,0,3,90.5,97.08,90.5,97,1480500,10228500,1910,2014,0,,,7.95,3.44,0,6.5,1,1005460010,985448,205123,12c,22v2,40.7296918,-73.9956775
MN,927,38,106,2,10010,320 EAST 22 STREET,R8B,D3,3,,NEW YORK UNIVERSITY,Langone Health,15112,67048,3200,63848,0,0,3200,0,0,0,1,8,94,94,155,97.5,155,97,1467000,11883150,1948,1979,0,,,4.44,4,0,4,1,1009270038,989722,207604,12c,22v2,40.7364999,-73.9802547
MN,541,8001,102,1,10012,40 WASHINGTON SQUARE S,,W6,8,X,NEW YORK UNIVERSITYSCHOOL OF LAW FOUNDAT ION,NEW YORK UNIVERSITY,41835,66636,66636,0,0,0,0,0,0,66636,1,1,0,1,200.17,209,200.16,209,490500,2506500,1950,0,0,,,1.59,0,0,0,1,1005418001,,,,22v2,,
MN,1962,61,109,7,10027,414 WEST 120 STREET,R8,D1,3,,TRUSTEES OF COLUMBIA UNIVERSITY,COLUMBIA UNIVERSITY,15000,"  64,842 ",0,64842,0,0,0,0,0,0,1,6,87,87,150,100,150,87,292050,2750400,1926,1987,0,,,4.32,6.02,0,6.5,1,1019620061,995730,233920,5c,22v2,40.8087247,-73.9585303
BK,1916,13,302,35,11205,245 CLINTON AVENUE,R6B,W6,8,X,ST JOSEPH'S COLLEGE,ST JOSEPH'S COLLEGE,32400,64400,64400,0,0,0,0,0,0,64400,1,3,0,1,180.17,180,80,160,454500,3951450,1901,1970,0,Clinton Hill Historic District,,1.99,2,0,2,3,3019160013,993191,190852,16c,22v2,40.6905169,-73.9677593
MN,531,20,102,1,10003,383 LAFAYETTE STREET,M1-5/R9A,O2,5,X,NEW YORK UNIVERSITY,NEW YORK UNIVERSITY,14030,64347,64347,0,64347,0,0,0,0,0,1,4,0,4,79,170.67,79,171,1354500,7931700,1913,1988,2015,NoHo Historic District,,4.59,0,5,6.5,1,1005310020,986228,204326,12c,22v2,40.7275041,-73.9928635
BX,3222,1,205,14,10453,2051 UNIVERSITY AVENUE,R5,W5,8,O,BRONX COMMUNITY COLLEGE,BRONX COMMUNITY COLLEGE,65200,63750,63750,0,63750,0,0,0,0,0,1,5,0,1,413.17,199.58,250,51,406350,5507550,1955,0,0,,,0.98,1.25,0,2,2,2032220001,1008993,251305,3c,22v2,40.8564143,-73.9105557
MN,1896,80,109,7,10027,616 WEST 116 STREET,R8,H8,8,X,BARNARD COLLEGE,BARNARD COLLEGE,7569,63500,,,,,,,,,1,10,0,1,75,100.92,75,80,902700,4220100,1907,0,0,Morningside Heights Historic District,,8.39,6.02,0,6.5,1,1018960080,993880,233751,5c,22v2,40.8082631,-73.9652134
QN,2246,41,406,29,11375,71-02 113 STREET,R1-2A,W2,8,X,TOURO COLLEGE,TOURO COLLEGE,31000,63400,63400,0,63400,0,0,0,0,0,3,3,0,0,246,100,70,133,936000,5604300,1957,0,0,,,2.05,0.5,0,1,4,4022460041,1029016,202690,14a,22v2,40.7229006,-73.838498
MN,1994,72,109,7,10027,195 CLAREMONT AVENUE,R8,D7,4,,TRUSTEES OF COLUMBIA UNIVERSITY,COLUMBIA UNIVERSITY,13650,"  63,194 ",1422,61772,0,1422,0,0,0,0,1,6,58,59,150,91,140,90,314550,3031650,1925,1988,0,,,4.63,6.02,0,6.5,1,1019940072,995268,236333,5c,22v2,40.8153483,-73.9601952
BK,142,50,302,33,11201,315 JAY STREET,C6-4,W6,8,X,NEW YORK UNIVERSITY,NEW YORK UNIVERSITY,27312,63000,63000,0,0,0,0,0,0,63000,1,,0,1,150.42,215,150,215,1885050,8378550,1930,0,0,,,2.31,10,10,10,3,3001420050,987944,192362,12d,22v2,40.6946652,-73.9866788
MN,1896,83,109,7,10027,620 WEST 116 STREET,R8,H8,8,,BARNARD COLLEGE,BARNARD COLLEGE,7569,62250,,,,,,,,,1,10,0,41,75,100.92,75,82,472500,3114900,1907,0,0,Morningside Heights Historic District,,8.22,6.02,0,6.5,1,1018960083,993813,233788,5c,22v2,40.8083647,-73.9654553
MN,1896,87,109,7,10025,435 RIVERSIDE DRIVE,R8,D3,3,,TRUSTEES OF COLUMBIA UNIVERSITY,COLUMBIA UNIVERSITY,5750,"  61,819 ",0,61819,0,0,0,0,0,0,1,12,35,35,102,103,103,93,360000,1663200,1910,1989,0,Morningside Heights Historic District,,10.75,6.02,0,6.5,1,1018960087,993746,233841,5c,22v2,40.8085102,-73.9656973
MN,546,33,102,1,10003,713 BROADWAY,C6-2G,W6,8,X,NEW YORK UNIVERSITY,NEW YORK UNIVERSITY,4975,61582,61582,0,0,0,0,0,0,61582,1,10,0,1,49.75,100,49.75,100,841500,5407650,1971,0,0,NoHo Historic District,,12.38,6.02,6,6.5,1,1005460033,985877,204874,12c,22v2,40.7290083,-73.9941297
MN,176,1,101,1,10013,57 WORTH STREET,C6-4,W6,8,X,NEW YORK LAW SCHOOL,NEW YORK LAW SCHOOL,5080,60610,60610,0,60610,0,0,0,0,0,1,9,0,3,50.67,100,51,100,1129500,6006150,1928,1985,0,,,11.93,10,10,10,1,1001760001,982498,200628,12a,22v2,40.717354,-74.0063201
MN,1990,64,109,7,10027,448 RIVERSIDE DRIVE,R8,D3,3,,TRUSTEES OF COLUMBIA UNIVERSITY,COLUMBIA UNIVERSITY,7615,"  60,576 ",0,60576,0,0,0,0,0,0,1,12,25,25,58.75,135.42,59,108,174600,1578600,1910,1988,0,Morningside Heights Historic District,,7.95,6.02,0,6.5,1,1019900064,993933,234113,5c,22v2,40.8092566,-73.9650214
MN,1990,13,109,7,10027,25 CLAREMONT AVENUE,R8,D3,3,X,TRUSTEES OF COLUMBIA UNIVERSITY,COLUMBIA UNIVERSITY,7815,"  60,104 ",0,60104,0,0,0,0,0,0,1,11,32,32,78.08,100,78,80,175050,1816200,1910,1988,0,Morningside Heights Historic District,,7.69,6.02,0,6.5,1,1019900013,994081,234205,5c,22v2,40.8095089,-73.9644866
MN,1895,16,109,7,10025,2881 BROADWAY,R8,D7,4,,TRUSTEES OF COLUMBIA UNIVERSITY,COLUMBIA UNIVERSITY,10092,"  59,131 ",8158,50973,0,8158,0,0,0,0,1,7,38,43,100.92,100.92,101,92,967500,4315050,1902,0,0,Morningside Heights Historic District,,5.86,6.02,0,6.5,1,1018950016,993660,232854,5c,22v2,40.8058013,-73.9660093
MN,1884,1,109,7,10025,2880 BROADWAY,R8,O6,5,,TRUSTEES OF COLUMBIA UNIVERSITY,COLUMBIA UNIVERSITY,10092,"  59,018 ",59018,0,47489,5529,0,0,0,6000,1,7,0,6,100.92,100,101,95,720000,5274900,1904,0,0,Morningside Heights Historic District,,5.85,6.02,0,6.5,1,1018840001,993870,232737,5c,22v2,40.8054799,-73.965251
MN,1963,16,109,7,10027,100 MORNINGSIDE DRIVE,R8,D3,3,X,TRUSTEES OF COLUMBIA UNIVERSITY,COLUMBIA UNIVERSITY,13275,"  58,860 ",0,58860,0,0,0,0,0,0,1,6,70,70,101.83,138.33,102,116,387000,3159000,1910,1974,0,,,4.43,6.02,0,6.5,1,1019630016,995928,234037,5c,22v2,40.8090456,-73.9578149
MN,1990,61,109,7,10027,450 RIVERSIDE DRIVE,R8,D3,3,,TRUSTEES OF COLUMBIA UNIVERSITY,COLUMBIA UNIVERSITY,8400,"  58,840 ",1644,57196,1644,0,0,0,0,0,1,10,31,32,84,100,84,80,193500,1847700,1909,1988,0,Morningside Heights Historic District,,7,6.02,0,6.5,1,1019900061,993953,234183,5c,22v2,40.8094487,-73.9649491
MN,1990,10,109,7,10027,21 CLAREMONT AVENUE,R8,D3,3,,TRUSTEES OF COLUMBIA UNIVERSITY,COLUMBIA UNIVERSITY,8400,"  58,750 ",2000,56750,2000,0,0,0,0,0,1,10,47,47,84,100,84,94,194400,2266200,1910,1988,1993,Morningside Heights Historic District,,6.99,6.02,0,6.5,1,1019900010,994042,234134,5c,22v2,40.8093141,-73.9646276
MN,558,37,103,2,10003,131 EAST 12 STREET,C6-2A,H8,8,X,NEW SCHOOL SOCIAL RSRCH,NEW SCHOOL,6055,58578,3400,0,0,3400,0,0,0,0,1,16,200,201,80,103,80,49,1935000,5377050,1989,1990,0,,,9.67,6.02,6,6.5,1,1005580037,987434,206091,12c,22v2,40.7323482,-73.9885115
MN,1885,43,109,7,10025,520 WEST 114 STREET,R8,D3,3,,TRUSTEES OF COLUMBIA UNIVERSITY,COLUMBIA UNIVERSITY,7575,"  57,430 ",0,57430,0,0,0,0,0,0,1,8,37,37,75,101,75,84,274050,1462950,1921,0,0,,,7.58,6.02,0,6.5,1,1018850043,994434,232843,5c,22v2,40.8057702,-73.9632135
MN,1885,40,109,7,10025,514 WEST 114 STREET,R8,D3,3,,TRUSTEES OF COLUMBIA UNIVERSITY,COLUMBIA UNIVERSITY,7575,"  57,300 ",0,57300,0,0,0,0,0,0,1,8,49,49,75,101,75,82,360000,2560050,1920,1962,0,,,7.56,6.02,0,6.5,1,1018850040,994500,232807,5c,22v2,40.8056713,-73.9629752
MN,1884,48,109,7,10025,536 WEST 113 STREET,R8,D3,3,,TRUSTEES OF COLUMBIA UNIVERSITY,COLUMBIA UNIVERSITY,7575,"  56,780 ",0,56780,0,0,0,0,0,0,1,8,48,48,75,100.92,75,81,495000,2292300,1919,0,0,,,7.5,6.02,0,6.5,1,1018840048,994198,232673,5c,22v2,40.8053039,-73.9640663
MN,546,26,102,1,10012,21 WEST 4 STREET,R7-2,O2,5,X,NEW YORK UNIVERSITY,NEW YORK UNIVERSITY,9900,56684,56684,0,56684,0,0,0,0,0,1,6,0,1,102.83,96.25,102.84,96,783000,4585950,1920,1980,0,,,5.73,3.44,0,6.5,1,1005460026,985538,204946,12c,22v2,40.729206,-73.9953529
MN,1962,44,109,7,10027,421 WEST 119 STREET,R8,D9,3,,TRUSTEES OF COLUMBIA UNIVERSITY,COLUMBIA UNIVERSITY,9275,"  56,423 ",0,56423,0,0,0,0,0,0,1,9,80,80,150,61.83,150,47,166050,3127500,1920,0,0,,,6.08,6.02,0,6.5,1,1019620044,995689,233847,5c,22v2,40.8085244,-73.9586785
MN,1990,5,109,7,10027,15 CLAREMONT AVENUE,R8,D3,3,,TRUSTEES OF COLUMBIA UNIVERSITY,COLUMBIA UNIVERSITY,8400,"  55,960 ",0,55960,0,0,0,0,0,0,1,10,27,27,119.75,64.5,119.75,53,194400,1620900,1909,0,0,Morningside Heights Historic District,,6.66,6.02,0,6.5,1,1019900005,994002,234039,5c,22v2,40.8090534,-73.9647723
MN,1995,31,109,7,10027,3207 BROADWAY,C6-1,W6,8,X,THE TRUSTEES OF COLUMBIA UNIVERSITY,COLUMBIA UNIVERSITY,17798,"  55,890 ",55890,0,55890,0,0,0,0,0,1,3,0,1,299.67,132.79,237.75,132.79,1800450,10494900,2016,0,0,,,3.14,3.44,6,6.5,1,1019950031,995740,236696,5c,22v2,40.816344,-73.9584894
BK,7555,27,314,45,11210,2705 CAMPUS ROAD,R7A,P5,8,X,CITY UNIVERSITY OF NEW YORK,CITY UNIVERSITY OF NEW YORK,16000,55800,55800,0,0,0,0,0,0,55800,1,6,0,1,80,200,62,150,558000,6838200,1954,0,0,,,3.49,4,0,4,3,3075550027,998020,169751,23a,22v2,40.6325931,-73.9503893
MN,1749,24,111,9,10035,55 EAST 124 STREET,C4-7,W6,8,X,NEW YORK COLLEGE OF PODIATRIC MEDICINE,NEW YORK COLLEGE OF PODIATRIC MEDICINE,17409,55770,55770,0,55770,0,0,0,0,0,1,5,0,4,172.5,100.92,173,101,317700,2715750,1927,1988,0,,,3.2,10,10,10,1,1017490024,1000768,232554,6a,22v2,40.8049674,-73.9403347
QN,725,22,401,26,11103,46-02 31 AVENUE,R5,M9,8,,"NEW YORK SCHOOL OF URBAN MINISTRY, INC","NEW YORK SCHOOL OF URBAN MINISTRY, INC",32500,55500,55500,0,0,0,0,0,0,55500,1,4,0,2,200.03,174.61,100,56.5,877500,2728800,1928,2010,1962,,,1.71,1.25,0,2,4,4007250022,1008591,215671,9b,22v2,40.75861,-73.9121381
QN,6517,250,408,24,11367,152-50 MELBOURNE AVENUE,R4,W6,8,O,QUEENS COLLEGE,QUEENS COLLEGE,39232,55485,55485,0,55485,0,0,0,0,0,1,3,0,0,200.75,200,200,169,688500,5476050,1970,0,0,,,1.41,0.75,0,2,4,4065170250,1034690,206940,14c,22v2,40.7345353,-73.8179961
MN,548,9,102,1,10003,13 UNIVERSITY PLACE,C1-7,O5,5,X,NEW YORK UNIVERSITY,NEW YORK UNIVERSITY,9370,55224,55224,0,50185,5039,0,0,0,0,1,6,0,4,118.33,75.17,118.33,75.16,1080000,5222250,1930,2000,0,,,5.89,6.02,2,6.5,1,1005480009,985709,205706,12c,22v2,40.731292,-73.9947357
MN,1867,67,109,7,10027,420 WEST 116 STREET,R8,O6,5,X,TRUSTEES OF COLUMBIA UNIVERSITY,COLUMBIA UNIVERSITY,7569,"  55,067 ",55067,0,15750,0,0,0,0,39317,2,10,65,66,75,100.92,75,99,302850,4136850,1907,1989,1996,,,7.28,6.02,0,6.5,1,1018670067,995257,232991,5c,22v2,40.8061755,-73.9602405
MN,1990,67,109,7,10027,445 RIVERSIDE DRIVE,R8,D3,3,X,TRUSTEES OF COLUMBIA UNIVERSITY,COLUMBIA UNIVERSITY,6935,"  55,056 ",0,55056,0,0,0,0,0,0,1,12,25,25,58.75,123.83,59,98,147150,2052000,1910,1988,0,Morningside Heights Historic District,,7.94,6.02,0,6.5,1,1019900067,993899,234064,5c,22v2,40.8091221,-73.9651443
MN,546,31,102,1,10003,4 WASHINGTON PLACE,C6-2G,W6,8,X,NEW YORK UNIVERSITY,NEW YORK UNIVERSITY,4975,54725,54725,0,0,0,0,0,0,54725,1,11,0,1,49.75,100,49.75,100,837000,4441050,1904,0,0,NoHo Historic District,,11,6.02,6,6.5,1,1005460031,985790,204930,12c,22v2,40.729162,-73.9944436
MN,1884,15,109,7,10025,523 WEST 112 STREET,R8,D3,3,,TRUSTEES OF COLUMBIA UNIVERSITY,COLUMBIA UNIVERSITY,7569,"  54,567 ",0,54567,0,0,0,0,0,0,1,8,49,49,75,100.92,75,85,360000,2402100,1925,0,0,,,7.21,6.02,0,6.5,1,1018840015,994148,232583,5c,22v2,40.8050569,-73.964247
BX,5777,719,208,11,10463,3830 WALDO AVENUE,R6,W6,8,X,MANHATTAN COLLEGE,MANHATTAN COLLEGE,57750,54392,54392,0,0,0,0,0,0,54392,1,5,0,1,475,100.92,105,170,450000,3232800,2013,0,0,,,0.94,2.43,0,4.8,2,2057770719,1011098,262836,1d,22v2,40.8880572,-73.9029001
MN,1962,26,109,7,10027,414 WEST 119 STREET,R8,D7,4,,TRUSTEES OF COLUMBIA UNIVERSITY,COLUMBIA UNIVERSITY,12615,"  54,100 ",4400,49700,0,4400,0,0,0,0,1,6,56,57,125,100.92,124,86,221850,1761300,1925,1986,0,,,4.29,6.02,0,6.5,1,1019620026,995610,233734,5c,22v2,40.8082143,-73.9589641
MN,547,5,102,1,10003,24 WAVERLY PLACE,R7-2,W6,8,X,NEW YORK UNIVERSITY,NEW YORK UNIVERSITY,5104,53482,53482,0,0,0,0,0,0,53482,1,11,0,1,62.75,81.33,62.75,81,841500,4680000,1906,1989,0,,,10.48,3.44,0,6.5,1,1005470005,985602,205335,12c,22v2,40.7302737,-73.9951219
MN,1994,81,109,7,10027,549 RIVERSIDE DRIVE,R8,D7,4,,TRUSTEES OF COLUMBIA UNIVERSITY,COLUMBIA UNIVERSITY,11020,"  53,418 ",573,52845,0,573,0,0,0,0,1,6,60,61,116,95,104,95,255150,2006100,1925,1988,0,,,4.85,6.02,0,6.5,1,1019940081,995194,236394,5c,22v2,40.8155158,-73.9604625
MN,1962,31,109,7,10027,424 WEST 119 STREET,R8,D1,3,,TRUSTEES OF COLUMBIA UNIVERSITY,COLUMBIA UNIVERSITY,11396,"  53,352 ",0,53352,0,0,0,0,0,0,1,6,47,47,100,127,100,111,200700,2007000,1925,0,0,,,4.68,6.02,0,6.5,1,1019620031,995506,233783,5c,22v2,40.808349,-73.9593397
MN,1999,36,109,7,10027,3291 BROADWAY,C6-1,D7,4,P,TRUSTEES OF COLUMBIA UNIVERSITY IN THE C ITY OF NEW,COLUMBIA UNIVERSITY,10625,"  53,340 ",3650,49690,0,3650,0,0,0,0,1,6,50,55,74.92,125,73,112,206100,2067300,1905,1998,0,,,5.02,3.44,6,6.5,1,1019990036,996266,237596,5c,22v2,40.8188136,-73.9565875
BK,255,12,302,33,11201,REMSEN STREET,C5-2A,W6,8,X,ST FRANCIS COLLEGE,ST FRANCIS COLLEGE,6658,53265,53265,0,0,0,0,0,0,53265,1,8,0,1,65.83,97.38,65.83,97.39,791100,9986400,2007,0,0,,,8,10,10,10,3,3002550012,986469,191716,16c,22v2,40.6928926,-73.9919981
QN,1064,2,403,22,11369,86-01 23 AVENUE,M1-1,W3,8,X,COLLEGE OF AERONAUTICS,COLLEGE OF AERONAUTICS,169223,52836,52836,0,0,0,0,0,0,52836,1,2,0,1,699.99,365,305,45,3807450,14303250,1940,2011,1983,,,0.31,0,1,2.4,4,4010640002,1016877,219068,9c,22v2,40.7679072,-73.8822123
MN,885,15,105,2,10016,119 EAST 29 STREET,C4-5A,H8,8,X,YESHIVA UNIVERSITY,YESHIVA UNIVERSITY,9871,52604,,,,,,,,,1,8,0,1,50,98.75,50,97,2250000,4655700,1930,1985,0,,,5.33,4,4,4,1,1008850015,989170,210207,8d,22v2,40.7436448,-73.9822446
BX,4117,5,211,13,10461,SACKETT AVENUE,R4,I9,8,,"YESHIVA UNIVERSITY, A NEW YORK EDUCATION CORP",YESHIVA UNIVERSITY,142454,601260,601260,0,0,0,0,0,0,601260,1,9,0,1,386,464,88.83,282,852750,37872450,1954,0,0,,,4.22,0.75,0,2,2,2041170005,1026830,248582,4a,22v2,40.8488725,-73.8460935
MN,547,14,102,1,10003,18 WAVERLY PLACE,R7-2,W5,8,X,NEW YORK UNIVERSITY,NEW YORK UNIVERSITY,13624,51044,51044,0,0,0,0,0,0,51044,2,6,0,2,83.33,81.5,83.33,82,1057500,4071150,1900,0,0,,,3.75,3.44,0,6.5,1,1005470014,985701,205270,12c,22v2,40.7300953,-73.9947647
MN,1976,36,109,7,10027,1254 AMSTERDAM AVENUE,R8,D7,4,,TRUSTEES OF COLUMBIA UNIVERSITY,COLUMBIA UNIVERSITY,9092,"  50,916 ",4820,46096,3000,1820,0,0,0,0,1,6,52,53,90.92,100,91,86,613800,2446200,1926,1982,0,,,5.6,6.02,0,6.5,1,1019760036,995679,234591,5c,22v2,40.8105665,-73.9587134
MN,1990,50,109,7,10027,460 RIVERSIDE DRIVE,R8,D3,3,,TRUSTEES OF COLUMBIA UNIVERSITY,COLUMBIA UNIVERSITY,6250,"  50,120 ",0,50120,0,0,0,0,0,0,1,12,25,25,62.5,100,63,78,136350,1581300,1910,0,0,Morningside Heights Historic District,,8.02,6.02,0,6.5,1,1019900050,994082,234415,5c,22v2,40.8100853,-73.9644827
MN,1990,44,109,7,10027,464 RIVERSIDE DRIVE,R8,D3,3,,TRUSTEES OF COLUMBIA UNIVERSITY,COLUMBIA UNIVERSITY,6250,"  50,120 ",0,50120,0,0,0,0,0,0,1,12,25,25,62.5,100,63,78,135450,1364850,1910,1989,0,Morningside Heights Historic District,,8.02,6.02,0,6.5,1,1019900044,994112,234469,5c,22v2,40.8102335,-73.9643743
MN,543,53,102,1,10012,139 MAC DOUGAL STREET,R7-2,W9,8,X,NEW YORK UNIVERSITY,NEW YORK UNIVERSITY,8431,49757,49757,0,0,0,0,0,0,49757,1,6,0,1,96.5,86,97,85,2430000,6722100,2011,0,0,South Village Historic District,,5.9,3.44,0,6.5,1,1005430053,984242,205557,12c,22v2,40.7308831,-74.0000289
MN,1464,28,108,5,10021,1301 YORK AVENUE,R8,I9,8,X,CORNELL UNIVERSITY,CORNELL UNIVERSITY,19984,352000,352000,0,352000,0,0,0,0,0,1,15,0,1,100.42,199,115,100,3742366,43274700,2004,0,0,,,17.61,6.02,0,6.5,1,1014640028,996638,218187,9a,22v2,40.7655406,-73.9552793
MN,2139,210,112,10,10032,52 HAVEN AVENUE,R8,I9,8,X,TRUSTEES OF COLUMBIA UNIVERSITY IN THE CITY OF NEW YORK,COLUMBIA UNIVERSITY,28960,"  136,608 ",136608,0,0,0,0,0,0,136608,1,11,0,1,180.58,143.92,175,80,675000,13442400,1919,0,0,,,4.72,6.02,0,6.5,1,1021390210,999940,246544,3b,22v2,40.8433675,-73.9432928
MN,576,42,102,3,10011,64 5 AVENUE,C6-4,W6,8,X,NEW SCHOOL/SOCIAL RES.,NEW SCHOOL,6045,49391,49391,0,0,0,0,0,0,49391,1,8,0,2,51.5,115,51.5,115,1231200,3912300,1920,1925,0,,,8.17,10,10,10,1,1005760042,985733,207128,12c,22v2,40.735195,-73.9946488
MN,1990,54,109,7,10027,452 RIVERSIDE DRIVE,R8,D3,3,,TRUSTEES OF COLUMBIA UNIVERSITY,COLUMBIA UNIVERSITY,7815,"  49,101 ",0,49100,0,0,0,0,0,0,1,9,54,54,78.08,100,78,82,174600,1729800,1910,1988,0,Morningside Heights Historic District,,6.28,6.02,0,6.5,1,1019900054,993993,234254,5c,22v2,40.8096435,-73.9648045
MN,176,4,101,1,10013,53 WORTH STREET,C6-4,W6,8,X,NEW YORK LAW SCHOOL,NEW YORK LAW SCHOOL,10050,49000,49000,0,49000,0,0,0,0,0,2,5,0,2,100,100.33,48,97,2106000,5978250,1915,0,0,,,4.88,10,10,10,1,1001760004,982432,200668,12a,22v2,40.7174638,-74.0065582
SI,620,300,501,49,10301,34 CAMPUS ROAD,R3-1,W9,8,X,WAGNER COLLEGE,WAGNER COLLEGE,58710,48600,48600,0,0,0,0,0,0,48600,3,3,0,1,101.14,380.36,37.83,55.83,580500,4533750,1968,0,0,,,0.83,0.5,0,1,5,5006200300,957829,163133,21b,22v2,40.6143994,-74.0951639
MN,1884,18,109,7,10025,521 WEST 112 STREET,R8,D3,3,,TRUSTEES OF COLUMBIA UNIVERSITY,COLUMBIA UNIVERSITY,9375,"  47,731 ",0,47731,0,0,0,0,0,0,1,8,44,44,75,125.33,75,98,675000,2321550,1920,0,0,,,5.09,6.02,0,6.5,1,1018840018,994216,232548,5c,22v2,40.8049608,-73.9640014
BX,5947,120,208,11,10471,5655 ARLINGTON AVENUE,R1-1,M4,8,X,ST JOSEPHS SEMINARY & COLLEGE,ST JOSEPHS SEMINARY & COLLEGE,273000,47712,47712,0,0,0,0,0,0,47712,1,2,0,1,400,649,40,171,4414050,10944900,1931,2015,0,,,0.17,0.5,0,1,2,2059470120,1009263,269426,1c,22v2,40.90615,-73.909512
MN,1990,52,109,7,10027,456 RIVERSIDE DRIVE,R8,D3,3,,TRUSTEES OF COLUMBIA UNIVERSITY,COLUMBIA UNIVERSITY,5668,"  47,327 ",0,47327,0,0,0,0,0,0,1,12,45,45,56.67,100,57,80,135900,1546650,1911,1988,0,Morningside Heights Historic District,,8.35,6.02,0,6.5,1,1019900052,994053,234363,5c,22v2,40.8099426,-73.9645876
MN,1867,23,109,7,10025,402 WEST 115 STREET,R8,D7,4,,TRUSTEES OF COLUMBIA UNIVERSITY,COLUMBIA UNIVERSITY,10417,"  47,145 ",7145,40000,7145,0,0,0,0,0,1,6,32,36,100,104.17,76,96,360000,1407150,1920,1988,0,,,4.53,6.02,0,6.5,1,1018670023,995263,232680,5c,22v2,40.8053218,-73.9602193
MN,1990,53,109,7,10027,454 RIVERSIDE DRIVE,R8,D3,3,,TRUSTEES OF COLUMBIA UNIVERSITY,COLUMBIA UNIVERSITY,5668,"  46,922 ",0,46922,0,0,0,0,0,0,1,12,36,36,56.67,100,57,82,135450,1452150,1911,1987,0,Morningside Heights Historic District,,8.28,6.02,0,6.5,1,1019900053,994025,234313,5c,22v2,40.8098054,-73.9646888
QN,1064,100,403,22,11369,22-40 90 STREET,M1-1,H8,8,X,COLLEGE OF AERONAUTICS,COLLEGE OF AERONAUTICS,124291,46435,,,,,,,,,4,3,0,2,283,365,0,0,1588500,4166550,2006,0,0,,,0.37,0,1,2.4,4,4010640100,1017290,219251,9c,22v2,40.768408,-73.8807204
MN,550,1,102,1,10003,1 WASHINGTON SQUARE N,R6,W6,8,X,NEW YORK UNIVERSITY,NEW YORK UNIVERSITY,13736,46077,46077,0,22825,0,0,0,0,0,5,4,0,8,168.42,83.19,55,96,1562400,11966400,1900,1986,0,Greenwich Village Historic District,,3.35,2.43,0,4.8,1,1005500001,985480,205629,12c,22v2,40.7310807,-73.995562
MN,1976,29,109,7,10027,1240 AMSTERDAM AVENUE,R8,D7,4,,TRUSTEES OF COLUMBIA UNIVERSITY,COLUMBIA UNIVERSITY,10092,"  45,210 ",4000,41210,0,4000,0,0,0,0,1,6,36,41,100.92,100,101,86,223200,1998900,1926,1987,0,,,4.48,6.02,0,6.5,1,1019760029,995629,234502,5c,22v2,40.8103223,-73.9588942
MN,1883,18,109,7,10025,521 WEST 111 STREET,R8,D1,3,,TRUSTEES OF COLUMBIA UNIVERSITY IN NEW YORK CITY,COLUMBIA UNIVERSITY,10092,"  44,780 ",2040,42740,0,0,0,0,0,2040,1,6,40,40,100,100.92,100,85,273150,1140750,1904,0,0,Morningside Heights Historic District,,4.44,6.02,0,6.5,1,1018830018,994098,232312,5d,22v2,40.8043132,-73.964428
MN,1994,93,109,7,10027,530 RIVERSIDE DRIVE,R8,D1,3,,TRUSTEES OF COLUMBIA UNIVERSITY,COLUMBIA UNIVERSITY,10320,"  44,052 ",0,44052,0,0,0,0,0,0,1,6,52,52,120,86,120,73,221400,1814400,1926,1987,0,,,4.27,6.02,0,6.5,1,1019940093,995026,236100,5c,22v2,40.8147091,-73.9610699
BX,2350,39,201,17,10451,120 EAST 149 STREET,M1-4/R8A,W5,8,C,CITY UNIVERSITY OF NEW YORK,CITY UNIVERSITY OF NEW YORK,17600,43720,43720,0,0,0,0,0,0,43720,1,3,0,1,217.94,80.07,215.15,79.67,194400,8270550,1993,0,0,,,2.48,6.02,2,6.5,2,2023500039,1003949,237556,6a,22v2,40.81869,-73.9288298
BK,2092,38,302,35,11205,212 VANDERBILT AVENUE,R6B,W6,8,X,ST JOSEPH'S COLLEGE,ST JOSEPH'S COLLEGE,19800,43623,43623,0,0,0,14551,0,0,29072,1,3,0,1,198,100,169,60,178200,3202650,2013,0,0,,,2.2,2,0,2,3,3020920038,992649,190980,16c,22v2,40.6908687,-73.9697136
MN,1993,53,109,7,10027,146 CLAREMONT AVENUE,R8,D1,3,,TRUSTEES OF COLUMBIA UNIVERSITY,COLUMBIA UNIVERSITY,10725,"  43,560 ",0,43560,0,0,0,0,0,0,1,6,48,48,100,102.5,100,96,229050,1966950,1940,1984,0,,,4.06,6.02,0,6.5,1,1019930053,995046,235565,5c,22v2,40.8132406,-73.9609985
MN,1883,14,109,7,10025,529 WEST 111 STREET,R8,D1,3,,TRUSTEES OF COLUMBIA UNIVERSITY,COLUMBIA UNIVERSITY,10092,"  43,540 ",0,43540,0,0,0,0,0,0,1,6,37,37,100,100.92,100,85,360000,2189250,1903,0,0,Morningside Heights Historic District,,4.31,6.02,0,6.5,1,1018830014,994010,232361,5d,22v2,40.8044477,-73.9647458
BX,5952,120,208,11,10471,5655 ARLINGTON AVENUE,R1-2,M9,8,X,ST JOSEPHS SEMINARY & COLLEGE,ST JOSEPHS SEMINARY & COLLEGE,129150,43512,43512,0,0,0,0,0,0,43512,1,3,0,1,397,428,150,45,3078000,5821200,2015,2015,0,,,0.34,0.5,0,1,2,2059520120,1009758,269286,1c,22v2,40.9057644,-73.9077218
MN,462,25,103,2,10003,107 2 AVENUE,R7A,W6,8,,NEW YORK UNIVERSITY,NEW YORK UNIVERSITY,9008,43214,43214,0,0,8500,0,0,0,34714,1,5,0,2,90.08,100,90,100,810000,1433700,1928,0,2012,East Village / Lower East Side Historic District,,4.8,4,0,4,1,1004620025,987400,204445,12c,22v2,40.7278304,-73.9886349
MN,1884,6,109,7,10025,539 WEST 112 STREET,R8,D1,3,,TRUSTEES OF COLUMBIA UNIVERSITY,COLUMBIA UNIVERSITY,10092,"  43,050 ",0,43050,0,0,0,0,0,0,1,6,43,43,100,100.92,100,84,405000,1614600,1920,0,0,,,4.27,6.02,0,6.5,1,1018840006,993959,232688,5c,22v2,40.8053453,-73.9649295
MN,1882,42,109,7,10025,518 WEST 111 STREET,R8,D1,3,,TRUSTEES OF COLUMBIA UNIVERSITY,COLUMBIA UNIVERSITY,9948,"  43,002 ",0,43002,0,0,0,0,0,0,1,6,32,32,108.33,91.83,108,79,315000,1409850,1909,1988,0,Morningside Heights Historic District,,4.32,6.02,0,6.5,1,1018820042,994056,232160,5d,22v2,40.803896,-73.9645799
MN,1994,84,109,7,10027,548 RIVERSIDE DRIVE,R8,D1,3,,TRUSTEES OF COLUMBIA UNIVERSITY,COLUMBIA UNIVERSITY,10260,"  42,762 ",0,42762,0,0,0,0,0,0,1,6,25,25,108,95,108,80,219150,1575900,1926,1988,0,,,4.17,6.02,0,6.5,1,1019940084,995139,236294,5c,22v2,40.8152414,-73.9606613
QN,6889,37,411,20,11365,175-05 HORACE HARDING EXPWY,R3-2,W8,8,X,"ST. JOHN'S UNIVERSITY, NEW YORK",ST JOHN'S UNIVERSITY,35123,42750,42750,0,42750,0,0,0,0,0,1,2,0,1,159.51,170.65,190,75,347850,2533950,1969,1996,0,,,1.22,0.5,0,1,4,4068890037,1041205,208805,10d,22v2,40.7396147,-73.7944722
MN,1990,22,109,7,10027,29 CLAREMONT AVENUE,R8,D3,3,,TRUSTEES OF COLUMBIA UNIVERSITY,COLUMBIA UNIVERSITY,5668,"  42,691 ",0,42691,0,0,0,0,0,0,1,11,22,22,56.67,100,57,80,135900,1297350,1910,0,0,Morningside Heights Historic District,,7.53,6.02,0,6.5,1,1019900022,994114,234264,5c,22v2,40.8096708,-73.9643673
MN,1990,25,109,7,10027,35 CLAREMONT AVENUE,R8,D3,3,,TRUSTEES OF COLUMBIA UNIVERSITY,COLUMBIA UNIVERSITY,5668,"  42,691 ",0,42691,0,0,0,0,0,0,1,11,22,22,56.67,100,54,80,108900,1490850,1910,0,0,Morningside Heights Historic District,,7.53,6.02,0,6.5,1,1019900025,994142,234314,5c,22v2,40.809808,-73.9642661
MN,2139,229,112,10,10032,104 HAVEN AVENUE,R8,I9,8,X,THE TRUSTEES OF COLUMBIA UNIVERSITY,COLUMBIA UNIVERSITY,12940,"  98,430 ",98430,0,0,0,0,0,0,98430,1,15,0,1,125,103.92,125,103,931500,16317900,2014,0,0,,,7.61,6.02,0,6.5,1,1021390229,1000106,247051,3b,22v2,40.8447588,-73.9426917
MN,1885,24,109,7,10025,511 WEST 113 STREET,R8,D3,3,,TRUSTEES OF COLUMBIA UNIVERSITY,COLUMBIA UNIVERSITY,7556,"  42,360 ",0,42360,0,0,0,0,0,0,1,8,42,42,75,100.75,75,82,495000,1912950,1910,1988,0,,,5.61,6.02,0,6.5,1,1018850024,994472,232704,5c,22v2,40.8053887,-73.9630765
MN,1885,11,109,7,10025,541 WEST 113 STREET,R8,D1,3,,COLUMBIA UNIVERSITY,COLUMBIA UNIVERSITY,10092,"  42,265 ",0,42265,0,0,0,0,0,0,1,6,33,33,100,100.92,100,86,585000,1316250,1925,1986,0,,,4.19,6.02,0,6.5,1,1018850011,994199,232855,5c,22v2,40.8058034,-73.9640624
MN,547,15,102,1,10003,12 WAVERLY PLACE,R7-2,W5,8,X,NEW YORK UNIVERSITY,NEW YORK UNIVERSITY,7542,42264,42264,0,0,0,0,0,0,42264,3,8,1,6,91.67,82,90,82,1035000,10492650,1800,2001,2008,,,5.6,3.44,0,6.5,1,1005470015,985777,205221,12c,22v2,40.7299607,-73.9944905
BX,3222,40,205,14,10453,2075 UNIVERSITY AVENUE,R5,W5,8,O,BRONX COMMUNITY COLLEGE,BRONX COMMUNITY COLLEGE,63500,42040,42040,0,42040,0,0,0,0,0,2,2,0,1,402.17,161.75,140,113,360000,3269700,1930,0,0,,,0.66,1.25,0,2,2,2032220040,1008765,251352,3c,22v2,40.856544,-73.9113797
MN,1994,88,109,7,10027,547 RIVERSIDE DRIVE,R8,D1,3,,TRUSTEES OF COLUMBIA UNIVERSITY,COLUMBIA UNIVERSITY,9988,"  41,967 ",0,41967,0,0,0,0,0,0,1,6,36,36,108.17,95,108,80,214200,1854900,1926,1984,0,,,4.2,6.02,0,6.5,1,1019940088,995085,236199,5c,22v2,40.8149807,-73.9608566
MN,1895,52,109,7,10025,607 WEST 113 STREET,R8,D3,3,,TRUSTEES OF COLUMBIA UNIVERSITY,COLUMBIA UNIVERSITY,7500,"  41,884 ",1870,40014,1870,0,0,0,0,0,1,8,23,24,75,100,75,82,270000,1291950,1910,1987,0,,,5.58,6.02,0,6.5,1,1018950052,993707,233129,5c,22v2,40.806556,-73.9658392
MN,1976,61,109,7,10027,3074 BROADWAY,R8,D7,4,,TRUSTEES OF COLUMBIA UNIVERSITY,COLUMBIA UNIVERSITY,9200,"  41,184 ",3000,38184,0,3000,0,0,0,0,1,6,34,35,92,100,92,88,310500,1782900,1926,1989,0,,,4.48,6.02,0,6.5,1,1019760061,995079,234921,5c,22v2,40.811473,-73.9608803
MN,546,5,102,1,10003,82 WASHINGTON SQUARE E,R7-2,W6,8,X,NEW YORK UNIVERSITY,NEW YORK UNIVERSITY,5960,40467,40467,0,0,0,0,0,0,40467,1,7,0,3,79.83,74.58,79.84,74.58,859500,3553200,1900,0,0,,,6.79,3.44,0,6.5,1,1005460005,985351,205196,12c,22v2,40.7298922,-73.9960275
QN,6712,81,408,24,11367,152-11 UNION TURNPIKE,R4,D6,4,X,"ST. JOHN'S UNIVERSITY, NEW YORK",ST JOHN'S UNIVERSITY,20246,40200,10200,30000,10200,0,0,0,0,0,1,4,30,34,200,98.67,150,65,454500,2161800,2004,0,0,,,1.99,0.75,0,2,4,4067120081,1036600,201511,14c,22v2,40.7196229,-73.8111465
MN,1976,56,109,7,10027,532 WEST 122 STREET,R8,G1,10,,TRUSTEES OF COLUMBIA UNIVERSITY,COLUMBIA UNIVERSITY,9092,"  40,160 ",40160,0,0,0,40160,0,0,0,1,4,0,1,100,90.92,100,86,207000,1381950,1926,2006,0,,,4.42,6.02,0,6.5,1,1019760056,995171,234871,5c,22v2,40.8113356,-73.9605481
MN,1884,43,109,7,10025,526 WEST 113 STREET,R8,D3,3,,TRUSTEES OF COLUMBIA UNIVERSITY,COLUMBIA UNIVERSITY,7569,"  39,680 ",0,39680,0,0,0,0,0,0,1,8,39,39,75,100.92,75,87,495000,1923750,1910,0,0,,,5.24,6.02,0,6.5,1,1018840043,994309,232615,5c,22v2,40.8051446,-73.9636654
MN,546,1,102,1,10003,79 WASHINGTON SQUARE E,R7-2,H8,8,X,NEW YORK UNIVERSITY,NEW YORK UNIVERSITY,11242,38899,5040,0,2520,2520,0,0,0,0,1,7,93,95,112.42,100,112,100,1350000,2965050,1900,0,0,,,3.46,3.44,0,6.5,1,1005460001,985308,205104,12c,22v2,40.7296397,-73.9961827
MN,930,38,106,2,10010,334 EAST 25 STREET,R8,H8,8,X,NEW YORK UNIVERSITY,NEW YORK UNIVERSITY,7406,37800,,,,,,,,,1,6,0,1,75,98.75,75,84.25,1665000,2899800,1920,1986,0,,,5.1,6.02,0,6.5,1,1009300038,990211,208261,8d,22v2,40.7383029,-73.9784896
MN,1962,18,109,7,10027,80 MORNINGSIDE DRIVE,R8,D9,3,,TRUSTEES OF COLUMBIA UNIVERSITY,COLUMBIA UNIVERSITY,9082,"  37,722 ",2540,35182,2540,0,0,0,0,0,1,6,32,33,100.92,90,88,78,159750,1220850,1926,1986,0,,,4.15,6.02,0,6.5,1,1019620018,995731,233549,5c,22v2,40.8077064,-73.9585273
MN,1963,56,109,7,10027,130 MORNINGSIDE DRIVE,R8,D1,3,,TRUSTEES OF COLUMBIA UNIVERSITY,COLUMBIA UNIVERSITY,9050,"  37,248 ",0,37248,0,0,0,0,0,0,1,6,25,25,100,90.92,76,100,87750,1858950,1910,0,0,,,4.12,6.02,0,6.5,1,1019630056,995934,234446,5c,22v2,40.8101682,-73.9577925
MN,1867,70,109,7,10027,430 WEST 116 STREET,R8,D7,4,X,TRUSTEES OF COLUMBIA UNIVERSITY,COLUMBIA UNIVERSITY,10092,"  36,664 ",5000,31664,0,5000,0,0,0,0,1,7,22,23,100,100.92,100,89,450000,2292750,1925,1986,0,,,3.63,6.02,0,6.5,1,1018670070,995160,233045,5c,22v2,40.8063238,-73.9605908
MN,1867,74,109,7,10025,1129 AMSTERDAM AVENUE,R8,D7,4,,TRUSTEES OF COLUMBIA UNIVERSITY,COLUMBIA UNIVERSITY,10092,"  36,664 ",5000,31664,0,5000,0,0,0,0,1,7,45,48,100.92,100,85,98,720000,2753550,1925,0,0,,,3.63,6.02,0,6.5,1,1018670074,995071,233094,5c,22v2,40.8064584,-73.9609122
MN,1895,8,109,7,10025,611 WEST 112 STREET,R8,H6,3,,TRUSTEES OF COLUMBIA UNIVERSITY IN THE C ITY OF NEW,COLUMBIA UNIVERSITY,8831,"  36,580 ",,,,,,,,,1,6,0,1,87.5,100.92,88,87,1235700,1534050,1904,2014,0,Morningside Heights Historic District,,4.14,6.02,0,6.5,1,1018950008,993497,232943,5c,22v2,40.8060457,-73.966598
MN,1962,1,109,7,10027,1181 AMSTERDAM AVENUE,R8,D7,4,,TRUSTEES OF COLUMBIA UNIVERSITY,COLUMBIA UNIVERSITY,7483,"  36,553 ",5890,30663,1987,3903,0,0,0,0,1,6,42,45,74.83,100,73,90,155700,2196000,1925,1986,0,,,4.88,6.02,0,6.5,1,1019620001,995411,233711,5c,22v2,40.8081515,-73.959683
MN,890,57,106,2,10016,150 EAST 35 STREET,R8B,D5,3,X,YESHIVA UNIVERSITY,YESHIVA UNIVERSITY,4322,35905,0,35905,0,0,0,0,0,0,1,9,27,27,44.33,97.5,44.33,83,972000,4676850,1912,1997,2004,,,8.31,4,0,4,1,1008900057,990165,211275,8d,22v2,40.7465756,-73.9786529
BX,4205,40,211,13,10461,2025 EASTCHESTER ROAD,R4,Z9,,C,ALBERT EINSTEIN COLLEGE OF MEDICINE,ALBERT EINSTEIN COLLEGE OF MEDICINE,222539,35600,35600,0,0,0,0,0,0,35600,2,2,0,0,0,0,0,0,1657350,4093200,1949,0,0,,,0.16,0.75,0,2,2,2042050040,1027224,250335,4a,22v2,40.853682,-73.8446582
BK,255,14,302,33,11201,REMSEN STREET,C5-2A,W6,8,X,ST FRANCIS COLLEGE,ST FRANCIS COLLEGE,13311,35265,35265,0,0,0,0,0,0,35265,1,4,0,1,135.75,111.75,135.75,111.75,1581750,9324900,2007,0,0,,,2.65,10,10,10,3,3002550014,986374,191735,16c,22v2,40.6929448,-73.9923407
MN,1896,77,109,7,10027,610 WEST 116 STREET,R8,D3,3,,TRUSTEES OF COLUMBIA UNIVERSITY,COLUMBIA UNIVERSITY,5046,"  33,486 ",0,33486,0,0,0,0,0,0,1,10,45,45,50,100.92,50,84,272250,1558800,1908,1985,0,Morningside Heights Historic District,,6.64,6.02,0,6.5,1,1018960077,993957,233709,5c,22v2,40.8081477,-73.9649353
QN,788,1,401,22,11105,43-05 20 AVENUE,M1-1,W4,8,X,VAUGHN COLLEGE OF AERONAUTICS AND TECHNOLOGY,VAUGHN COLLEGE OF AERONAUTICS AND TECHNOLOGY,30000,33200,33200,0,6400,0,0,0,0,26800,1,1,0,1,100.01,300,100,300,405000,1399500,1960,1967,0,,,1.11,0,1,2.4,4,4007880001,1012273,221702,9c,22v2,40.7751526,-73.8988223
BK,7602,42,314,45,11210,2002 AVENUE J,R7A,C7,4,X,TOURO COLLEGE,TOURO COLLEGE,11000,32880,13152,19728,0,0,0,0,0,13152,1,4,24,25,100,110,82,100,544500,1954800,1922,0,0,,,2.99,4,0,4,3,3076020042,996468,167174,23b,22v2,40.6255221,-73.9559855
MN,2176,5,112,10,10033,390 FT WASHINGTON AVENUE,R7-2,D7,4,X,TRUSTEES OF COLUMBIA UNIVERSITY,COLUMBIA UNIVERSITY,5041,"  32,813 ",5000,27813,0,0,0,0,0,5000,1,12,46,47,50,100.83,50,60,77400,1390050,2000,0,0,,,6.51,3.44,0,6.5,1,1021760005,1001112,248297,3b,22v2,40.8481768,-73.9390525
MN,533,10,102,1,10012,543 LA GUARDIA PLACE,C1-7,K1,5,,NEW YORK UNIVERSITY,NEW YORK UNIVERSITY,22276,32700,32700,0,0,32700,0,0,0,0,1,1,0,6,215,148.17,191,78,1539000,4982850,1960,0,0,,,1.47,6.02,2,6.5,1,1005330010,984799,204683,12c,22v2,40.7284842,-73.9980192
MN,551,16,102,1,10011,27 WASHINGTON SQUARE N,R6,D9,3,,NEW YORK UNIVERSITY,NEW YORK UNIVERSITY,6345,32409,800,31609,800,0,0,0,0,0,1,7,27,28,55.5,123.08,56,122,508500,2831850,1898,0,0,Greenwich Village Historic District,,5.11,2.43,0,4.8,1,1005510016,984723,206091,12c,22v2,40.7323488,-73.9982933
QN,6706,1,408,24,11367,76-01 150 STREET,R4,C9,2,X,TOURO COLLEGE,TOURO COLLEGE,120000,32319,0,32319,0,0,0,0,0,0,1,3,27,27,200,600,189,57,540000,1199700,1999,0,0,,,0.27,0.75,0,2,4,4067060001,1035756,203097,14c,22v2,40.7239811,-73.8141791
MN,1895,72,109,7,10025,626 WEST 114 STREET,R8,H8,8,X,TRUSTEES OF COLUMBIA UNIVERSITY FACILITI ES MANAGEMENT,COLUMBIA UNIVERSITY,7569,"  31,906 ",,,,,,,,,1,6,124,124,75,100.92,74,86,270000,1428300,1905,0,0,Morningside Heights Historic District,,4.22,6.02,0,6.5,1,1018950072,993559,233328,5c,22v2,40.8071024,-73.9663735
MN,1884,46,109,7,10025,530 WEST 113 STREET,R8,D3,3,,TRUSTEES OF COLUMBIA UNIVERSITY,COLUMBIA UNIVERSITY,5659,"  31,851 ",0,31851,0,0,0,0,0,0,1,8,24,24,50,113.17,50,99,175500,863550,1910,0,0,,,5.63,6.02,0,6.5,1,1018840046,994251,232643,5c,22v2,40.8052215,-73.9638749
BX,5773,328,208,11,10463,5845 BROADWAY,M1-1,W6,8,X,MANHATTAN COLLEGE,MANHATTAN COLLEGE,31450,31400,31400,0,0,0,0,0,0,31400,1,2,0,1,150,163,75,163,531000,3642300,1935,1959,0,,,1,0,1,2.4,2,2057730328,1011683,262085,1d,22v2,40.8859941,-73.9007874
MN,1393,1,108,4,10075,970 5 AVENUE,R10,W5,8,X,NEW YORK UNIVERSITY,NEW YORK UNIVERSITY,13325,31089,31089,0,0,0,0,0,0,31089,1,3.5,0,3,82.17,150,70,140,9675000,14374350,1912,0,0,Metropolitan Museum Historic District,INDIVIDUAL LANDMARK,2.33,10,0,10,1,1013930001,994299,222115,8c,22v2,40.7763249,-73.9637172
MN,548,12,102,1,10003,36 EAST 8 STREET,C1-7,J9,5,,NEW YORK UNIVERSITY,NEW YORK UNIVERSITY,11151,30575,19365,11210,2000,3450,0,0,0,13915,1,3,7,13,100.17,114.92,100.16,114.92,1125000,3393900,1940,1984,0,,,2.74,6.02,2,6.5,1,1005480012,985793,205667,12c,22v2,40.7311849,-73.9944326
MN,1896,32,109,7,10025,608 WEST 115 STREET,R8,D3,3,,TRUSTEES OF COLUMBIA UNIVERSITY,COLUMBIA UNIVERSITY,5046,"  30,568 ",0,30568,0,0,0,0,0,0,1,9,35,35,50,100.92,50,80,315000,1561950,1912,0,0,Morningside Heights Historic District,,6.06,6.02,0,6.5,1,1018960032,993829,233478,5c,22v2,40.8075138,-73.965398
MN,1976,26,109,7,10027,503 WEST 121 STREET,R8,D1,3,X,TRUSTEES OF COLUMBIA UNIVERSITY,COLUMBIA UNIVERSITY,7194,"  30,498 ",0,30498,0,0,0,0,0,0,1,6,30,30,75,95.92,75,81,135000,2560500,1910,1988,0,,,4.24,6.02,0,6.5,1,1019760026,995550,234542,5c,22v2,40.8104322,-73.9591795
MN,1883,11,109,7,10025,535 WEST 111 STREET,R8,D1,3,,COLLEGE OF PHYSICAN & SURGEONS,COLLEGE OF PHYSICAN & SURGEONS,7569,30460,0,30460,0,0,0,0,0,0,1,6,30,30,75,100.92,75,85,360000,1643400,1903,0,0,Morningside Heights Historic District,,4.02,6.02,0,6.5,1,1018830011,993933,232404,5c,22v2,40.8045659,-73.9650239
MN,548,21,102,1,10003,25 WAVERLY PLACE,R7-2,W6,8,X,NEW YORK UNIVERSITY,NEW YORK UNIVERSITY,3300,30042,30042,0,0,0,0,0,0,30042,1,9,0,2,33.5,100.67,33.5,100.67,495000,2635200,1900,0,0,,,9.1,3.44,0,6.5,1,1005480021,985694,205450,12c,22v2,40.7305893,-73.9947899
MN,1994,45,109,7,10027,528 RIVERSIDE DRIVE,R8,D1,3,,TRUSTEES OF COLUMBIA UNIVERSITY,COLUMBIA UNIVERSITY,7393,"  29,274 ",0,29274,0,0,0,0,0,0,1,6,33,33,80,95,80,80,161100,1224900,1926,0,0,,,3.96,6.02,0,6.5,1,1019940045,994980,236010,5c,22v2,40.8144621,-73.9612362
MN,1976,48,109,7,10027,520 WEST 122 STREET,R8,D1,3,,TRUSTEES OF COLUMBIA UNIVERSITY,COLUMBIA UNIVERSITY,6819,"  29,094 ",0,29094,0,0,0,0,0,0,1,6,23,23,75,90.92,75,75,116550,1320300,1926,1988,0,,,4.27,6.02,0,6.5,1,1019760048,995358,234768,5c,22v2,40.8110527,-73.9598727
MN,524,9,102,1,10012,509 LA GUARDIA PLACE,C1-7,K1,5,,"NEW YORK UNIVERSITY,A NY EDUCATION CORPO RATION",NEW YORK UNIVERSITY,16235,29000,29000,0,0,29000,0,0,0,0,1,1,0,1,130,124.58,130,115,2790000,5059350,1961,0,0,,,1.79,6.02,2,6.5,1,1005240009,984600,204354,12c,22v2,40.7275812,-73.9987372
MN,1990,35,109,7,10027,49 CLAREMONT AVENUE,R8,H8,8,X,BARNARD COLLEGE,BARNARD COLLEGE,6250,28883,,,,,,,,,1,6,0,1,62.5,100,62.5,90,405000,1585800,1906,2005,0,Morningside Heights Historic District,,4.62,6.02,0,6.5,1,1019900035,994250,234508,5c,22v2,40.8103404,-73.9638757
MN,1976,16,109,7,10027,519 WEST 121 STREET,R8,D1,3,,TRUSTEES OF COLUMBIA UNIVERSITY,COLUMBIA UNIVERSITY,6728,"  28,668 ",0,28668,0,0,0,0,0,0,1,6,34,34,66.67,100.92,67,86,108900,1149750,1926,1988,0,,,4.26,6.02,0,6.5,1,1019760016,995312,234676,5c,22v2,40.8108002,-73.960039
MN,1976,10,109,7,10027,527 WEST 121 STREET,R8,D1,3,,TRUSTEES OF COLUMBIA UNIVERSITY,COLUMBIA UNIVERSITY,6728,"  28,668 ",0,28668,0,0,0,0,0,0,1,6,24,24,66.67,100.92,67,86,108900,1024650,1926,1988,0,,,4.26,6.02,0,6.5,1,1019760010,995195,234741,5c,22v2,40.8109788,-73.9604616
MN,547,4,102,1,10003,28 WAVERLY PLACE,R7-2,W6,8,X,NEW YORK UNIVERSITY,NEW YORK UNIVERSITY,3048,28641,28641,0,0,0,0,0,0,28641,1,10,0,1,37.75,80.75,37.75,76,607500,2507850,1900,1985,0,,,9.4,3.44,0,6.5,1,1005470004,985558,205364,12c,22v2,40.7303533,-73.9952806
MN,547,26,102,1,10003,3 WASHINGTON PLACE,C6-2G,W6,8,X,NEW YORK UNIVERSITY,NEW YORK UNIVERSITY,4062,28572,28572,0,0,0,0,0,0,28572,1,6,0,2,52,91.58,52,91.58,580500,3995550,1891,0,0,NoHo Historic District,,7.03,6.02,6,6.5,1,1005470026,985845,205055,12c,22v2,40.7295051,-73.9942452
MN,1884,21,109,7,10025,511 WEST 112 STREET,R8,D1,3,,TRUSTEES OF COLUMBIA UNIVERSITY,COLUMBIA UNIVERSITY,6661,"  28,374 ",0,28374,0,0,0,0,0,0,1,6,24,24,66,100.92,66,92,270000,1918350,1925,1987,0,,,4.26,6.02,0,6.5,1,1018840021,994275,232513,5c,22v2,40.8048647,-73.9637884
QN,7021,75,408,24,11366,81-50C UTOPIA PARKWAY,R4,W6,8,X,ST JOHN'S UNIVERSITY,ST JOHN'S UNIVERSITY,48675,28244,,,,,,,,,1,1,0,0,165,295,110,245,981000,4171500,1971,0,0,,,0.58,0.75,0,2,4,4070210075,1041496,202830,14c,22v2,40.7232129,-73.7934729
MN,1896,53,109,7,10025,629 WEST 115 STREET,R8,D3,3,,TRUSTEES OF COLUMBIA UNIVERSITY,COLUMBIA UNIVERSITY,5046,"  28,224 ",0,28224,0,0,0,0,0,0,1,8,32,32,50,100.92,50,81,175500,1181700,1910,1987,0,Morningside Heights Historic District,,5.59,6.02,0,6.5,1,1018960053,993774,233688,5c,22v2,40.8080903,-73.9655964
MN,1867,46,109,7,10025,419 WEST 115 STREET,R8,D1,3,X,TRUSTEES OF COLUMBIA UNIVERSITY,COLUMBIA UNIVERSITY,6728,"  28,188 ",0,28188,0,0,0,0,0,0,1,6,24,24,66.67,100.92,67,84,432450,2383200,1925,1985,0,,,4.19,6.02,0,6.5,1,1018670046,995093,232960,5c,22v2,40.8060906,-73.9608329
MN,1867,52,109,7,10025,411 WEST 115 STREET,R8,D1,3,,TRUSTEES OF COLUMBIA UNIVERSITY,COLUMBIA UNIVERSITY,6728,"  28,188 ",0,28188,0,0,0,0,0,0,1,6,24,24,66.67,100.92,67,84,450000,1812600,1925,1985,0,,,4.19,6.02,0,6.5,1,1018670052,995209,232895,5c,22v2,40.805912,-73.960414
MN,1867,49,109,7,10025,415 WEST 115 STREET,R8,D1,3,,TRUSTEES OF COLUMBIA UNIVERSITY,COLUMBIA UNIVERSITY,6728,"  28,188 ",0,28188,0,0,0,0,0,0,1,6,24,24,66.67,100.92,67,84,390600,2189700,1920,1985,0,,,4.19,6.02,0,6.5,1,1018670049,995151,232928,5c,22v2,40.8060027,-73.9606235
MN,1986,6,109,7,10027,573 WEST 131 STREET,C6-1,E7,6,X,TRUSTEES OF COLUMBIA UNIVERSITY,COLUMBIA UNIVERSITY,6811,"  28,000 ",28000,0,0,0,0,28000,0,0,1,4,0,1,68.17,99.92,68,99,306450,1538550,1917,2008,0,,,4.11,3.44,6,6.5,1,1019860006,996392,237106,6a,22v2,40.8174685,-73.9561332
MN,1867,54,109,7,10025,403 WEST 115 STREET,R8,D1,3,,TRUSTEES OF COLUMBIA UNIVERSITY,COLUMBIA UNIVERSITY,6560,"  27,821 ",0,27821,0,0,0,0,0,0,1,6,30,30,65,100.92,65,86,372150,2197350,1920,1987,0,,,4.24,6.02,0,6.5,1,1018670054,995266,232863,5c,22v2,40.8058241,-73.9602082
MN,1885,15,109,7,10025,533 WEST 113 STREET,R8,D3,3,,TRUSTEES OF COLUMBIA UNIVERSITY,COLUMBIA UNIVERSITY,5046,"  27,509 ",0,27509,0,0,0,0,0,0,1,8,32,32,50,100.92,50,88,315000,1693800,1915,1986,0,,,5.45,6.02,0,6.5,1,1018850015,994265,232819,5c,22v2,40.8057045,-73.963824
MN,1896,28,109,7,10025,604 WEST 115 STREET,R8,D1,3,,TRUSTEES OF COLUMBIA UNIVERSITY,COLUMBIA UNIVERSITY,5046,"  26,950 ",0,26950,0,0,0,0,0,0,1,7,28,28,50,100.92,50,90,184050,1397700,1925,1987,0,,,5.34,6.02,0,6.5,1,1018960028,993917,233430,5c,22v2,40.807382,-73.9650802
MN,1990,33,109,7,10027,47 CLAREMONT AVENUE,R8,W6,8,X,TRUSTEES OF COLUMBIA UNIVERSITY,COLUMBIA UNIVERSITY,6250,"  26,302 ",26302,0,0,0,0,0,0,26302,1,6,0,1,62.5,100,62.5,87,183150,2734200,1906,0,0,Morningside Heights Historic District,,4.21,6.02,0,6.5,1,1019900033,994219,234453,5c,22v2,40.8101895,-73.9639878
MN,1402,24,108,4,10065,149 EAST 67 STREET,R9X,W9,8,X,THE CITY UNIVERSITY OF NEW YORK,THE CITY UNIVERSITY OF NEW YORK,5623,26158,26158,0,26158,0,0,0,0,0,1,6,0,1,56,100.42,56,90,2259000,4654350,1890,1960,0,Individual Landmark,INDIVIDUAL LANDMARK,4.65,9,0,9,1,1014020024,994221,218810,8c,22v2,40.7672536,-73.9640038
MN,2149,11,112,10,10033,2475 AMSTERDAM AVENUE,R7-2,W2,8,X,YESHIVA UNIVERSITY,YESHIVA UNIVERSITY,19488,25984,25984,0,0,0,25984,0,0,0,1,2,0,1,129.92,150,130,100,263700,697050,1922,0,0,,,1.33,3.44,0,6.5,1,1021490011,1003679,248582,3a,22v2,40.8489538,-73.9297733
MN,1962,11,109,7,10027,415 WEST 118 STREET,R8,D1,3,,TRUSTEES OF COLUMBIA UNIVERSITY,COLUMBIA UNIVERSITY,5046,"  25,900 ",0,25900,0,0,0,0,0,0,1,7,28,28,50,100.92,50,84,112500,1576800,1926,0,0,,,5.13,6.02,0,6.5,1,1019620011,995616,233612,5c,22v2,40.8078795,-73.9589426
MN,465,37,103,2,10003,28 STUYVESANT STREET,R8B,W4,8,X,NEW YORK UNIVERSITY,NEW YORK UNIVERSITY,4932,25800,25800,0,0,0,0,0,0,25800,1,6,0,1,98,70,95,72,553500,4313250,1920,1986,0,,,5.23,4,0,4,1,1004650037,987544,205150,12c,22v2,40.7297654,-73.988115
MN,1962,13,109,7,10027,405 WEST 118 STREET,R8,D1,3,,TRUSTEES OF COLUMBIA UNIVERSITY,COLUMBIA UNIVERSITY,6055,"  25,603 ",0,25602,0,0,0,0,0,0,1,6,24,24,60,100.92,60,87,204300,1054800,1926,0,0,,,4.23,6.02,0,6.5,1,1019620013,995665,233585,5c,22v2,40.8078053,-73.9587657
BK,1917,1,302,35,11205,290 WASHINGTON AVENUE,R6B,W2,8,X,ST. JOSEPHS COLLEGENEW YORK,ST JOSEPH'S COLLEGE,14150,25540,25540,0,25540,0,0,0,0,0,5,3,0,1,91,200,50,51,198900,1116000,1930,0,0,Clinton Hill Historic District,,1.8,2,0,2,3,3019170001,993460,190688,16c,22v2,40.6900665,-73.9667895
MN,1867,64,109,7,10027,404 WEST 116 STREET,R8,D1,3,,TRUSTEES OF COLUMBIA UNIVERSITY,COLUMBIA UNIVERSITY,6055,"  25,380 ",4541,20839,4541,0,0,0,0,0,1,6,16,16,60,100.92,60,81,91350,990000,1915,1998,0,,,4.19,6.02,0,6.5,1,1018670064,995317,232958,5c,22v2,40.8060848,-73.9600238
MN,1884,40,109,7,10025,506 WEST 113 STREET,R8,D1,3,,TRUSTEES OF COLUMBIA UNIVERSITY,COLUMBIA UNIVERSITY,5458,"  24,446 ",0,24446,0,0,0,0,0,0,1,6,22,22,54.08,100.92,45,85,225000,904950,1925,0,0,,,4.48,6.02,0,6.5,1,1018840040,994412,232555,5c,22v2,40.8049798,-73.9632934
MN,2134,53,112,7,10032,3755 BROADWAY,R8,W6,8,X,BORICUA COLLEGE,BORICUA COLLEGE,12465,24345,24345,0,0,0,0,0,0,24345,1,4,0,1,125,100,125,65,351000,1593450,1911,0,0,Audubon Terrace Historic District,,1.95,6.02,0,6.5,1,1021340053,999218,242922,3b,22v2,40.8334274,-73.9459104
MN,1884,39,109,7,10025,502 WEST 113 STREET,R8,D1,3,,COLUMBIA UNIVERSITY,COLUMBIA UNIVERSITY,5458,"  22,914 ",0,22914,0,0,0,0,0,0,1,6,24,24,54.08,100.92,54,85,176850,866250,1910,1987,0,,,4.2,6.02,0,6.5,1,1018840039,994460,232528,5c,22v2,40.8049056,-73.9631201
MN,1997,8001,,,,WEST 131 STREET,,Z9,,,TRUSTEES OF COLUMBIA UNIVERSITY IN THE C ITY OF NEW,COLUMBIA UNIVERSITY,22500,"  22,500 ",22500,0,0,0,0,0,0,22500,0,,0,0,60,375,0,0,6000,8532,2021,0,0,,,1,0,0,0,1,1019978001,,,,22v2,,
MN,1120,9,107,6,10023,35 WEST 67 STREET,R8,P5,8,X,THE CITY UNIVERSITY OF NEW YORK,THE CITY UNIVERSITY OF NEW YORK,5021,22302,22302,0,3088,0,0,0,0,19214,1,4,0,1,50,100.42,50,76,1197000,3581100,1905,1998,0,Upper West Side / Central Park West Historic District,,4.44,6.02,0,6.5,1,1011200009,989757,221283,8c,22v2,40.7740453,-73.9801172
MN,462,18,103,2,10003,38 EAST 7 STREET,R8B,H8,8,X,NEW YORK UNIVERSITY,NEW YORK UNIVERSITY,8652,22224,,,,,,,,,1,3,0,1,95.25,90.83,95,82,819000,1521450,1920,1967,0,,,2.57,4,0,4,1,1004620018,987335,204530,12c,22v2,40.7280637,-73.9888694
MN,550,32,102,1,10003,22 EAST 8 STREET,C1-7,H8,8,,NEW YORK UNIVERSITY,NEW YORK UNIVERSITY,9099,22083,6072,0,6072,0,0,0,0,0,5,6,10,14,79.58,120.25,80,51,210600,1167300,1920,2004,2012,Greenwich Village Historic District,,2.43,6.02,2,6.5,1,1005500032,985581,205778,12c,22v2,40.7314896,-73.9951975
MN,1883,57,109,7,10025,540 WEST 112 STREET,R8,D1,3,,TRUSTEES OF COLUMBIA UNIVERSITY,COLUMBIA UNIVERSITY,5046,"  21,573 ",0,21573,0,0,0,0,0,0,1,6,24,24,50,100.92,50,83,196200,1325700,1920,0,0,,,4.28,6.02,0,6.5,1,1018830057,993887,232549,5c,22v2,40.8049639,-73.9651898
MN,546,20,102,1,10003,10 WASHINGTON PLACE,R7-2,W6,8,X,NEW YORK UNIVERSITY,NEW YORK UNIVERSITY,4080,21549,21549,0,0,0,0,0,0,21549,1,6,0,1,42.33,96.25,42.33,86,607500,1890450,1900,0,0,,,5.28,3.44,0,6.5,1,1005460020,985640,204998,12c,22v2,40.7293487,-73.9949848
MN,53,37,101,1,10006,102 GREENWICH STREET,C6-9,H8,8,,THE KING'S COLLEGE,THE KING'S COLLEGE,4664,21490,2171,0,0,2171,0,0,0,0,1,5,0,1,49.92,92.83,50,92,369000,1945800,1926,2013,0,,,4.61,10,15,15,1,1000530037,980455,197378,12b,22v2,40.7084329,-74.0136882
MN,1962,7,109,7,10027,419 WEST 118 STREET,R8,D1,3,,TRUSTEES OF COLUMBIA UNIVERSITY,COLUMBIA UNIVERSITY,5046,"  21,216 ",0,21216,0,0,0,0,0,0,1,6,24,24,50,100.92,50,85,170100,1341450,1926,0,0,,,4.2,6.02,0,6.5,1,1019620007,995528,233661,5c,22v2,40.8080141,-73.9592604
MN,1962,9,109,7,10027,417 WEST 118 STREET,R8,D1,3,,TRUSTEES OF COLUMBIA UNIVERSITY,COLUMBIA UNIVERSITY,5046,"  21,181 ",0,21180,0,0,0,0,0,0,1,6,21,21,50,100.92,50,84,92250,1250550,1926,1985,0,,,4.2,6.02,0,6.5,1,1019620009,995572,233637,5c,22v2,40.8079482,-73.9591015
MN,1883,50,109,7,10025,526 WEST 112 STREET,R8,C1,2,,COLLEGE OF PHYSICAN & SURGEONS,COLLEGE OF PHYSICAN & SURGEONS,5046,21180,0,21180,0,0,0,0,0,0,1,6,25,25,50,100.92,50,87,270000,1249650,1910,0,0,,,4.2,6.02,0,6.5,1,1018830050,994038,232464,5c,22v2,40.8047304,-73.9646445
MN,1883,52,109,7,10025,530 WEST 112 STREET,R8,C1,2,,COLLEGE OF PHYSICAN & SURGEONS,COLLEGE OF PHYSICAN & SURGEONS,5046,21180,0,21180,0,0,0,0,0,0,1,6,22,22,50,100.92,50,87,270000,932400,1910,0,0,,,4.2,6.02,0,6.5,1,1018830052,993993,232489,5c,22v2,40.8047991,-73.964807
MN,1883,48,109,7,10025,522 WEST 112 STREET,R8,C1,2,,TRUSTEES OF COLUMBIA UNIVERSITY,COLUMBIA UNIVERSITY,5046,"  21,180 ",0,21180,0,0,0,0,0,0,1,6,24,24,50,100.92,50,87,180000,1201950,1907,0,0,,,4.2,6.02,0,6.5,1,1018830048,994083,232440,5c,22v2,40.8046645,-73.964482
MN,1469,21,108,5,10021,1393 YORK AVENUE,R10,M1,8,X,CORNELL UNIVERSITY,CORNELL UNIVERSITY,12771,21000,21000,0,0,0,0,0,0,21000,1,2,0,1,102.17,125,102.17,100,2533500,5202450,1938,0,0,,,1.64,10,0,10,1,1014690021,997268,219268,9a,22v2,40.7685068,-73.9530029
MN,1962,5,109,7,10027,421 WEST 118 STREET,R8,C1,2,X,TRUSTEES OF COLUMBIA UNIVERSITY,COLUMBIA UNIVERSITY,5046,"  20,976 ",0,20976,0,0,0,0,0,0,1,6,24,24,50,100.92,50,84,109350,1222650,1926,0,0,,,4.16,6.02,0,6.5,1,1019620005,995484,233685,5c,22v2,40.80808,-73.9594193
MN,1976,37,109,7,10027,502 WEST 122 STREET,R8,D1,3,,TRUSTEES OF COLUMBIA UNIVERSITY,COLUMBIA UNIVERSITY,4796,"  20,566 ",0,20566,0,0,0,0,0,0,1,6,24,24,50,95.92,50,82,73800,679500,1926,1988,0,,,4.29,6.02,0,6.5,1,1019760037,995610,234626,5c,22v2,40.8106626,-73.9589626
MN,547,18,102,1,10003,10 WAVERLY PLACE,R7-2,W9,8,X,NEW YORK UNIVERSITY,NEW YORK UNIVERSITY,2068,20550,20550,0,18700,1850,0,0,0,0,1,10,0,14,25,82.75,25,82.75,176400,1656900,1910,0,0,,,9.94,3.44,0,6.5,1,1005470018,985829,205188,12c,22v2,40.7298702,-73.9943029
MN,1994,60,109,7,10027,181 CLAREMONT AVENUE,R8,D1,3,X,TRUSTEES OF COLUMBIA UNIVERSITY,COLUMBIA UNIVERSITY,5000,"  20,484 ",0,20484,0,0,0,0,0,0,1,6,24,24,50,100,50,85,123750,1097550,1926,0,0,,,4.1,6.02,0,6.5,1,1019940060,995093,236026,5c,22v2,40.8145059,-73.960828
MN,1976,41,109,7,10027,512 WEST 122 STREET,R8,D1,3,X,TEACHERS COLLEGE COLUMBIA UNIVERITY,COLUMBIA UNIVERSITY,4796,"  20,378 ",0,20378,0,0,0,0,0,0,1,6,24,24,50,95.92,50,82.67,85500,1182150,1910,0,0,,,4.25,6.02,0,6.5,1,1019760041,995521,234675,5c,22v2,40.8107972,-73.959284
MN,1976,43,109,7,10027,514 WEST 122 STREET,R8,D1,3,X,TEACHERS COLLEGE COLUMBIA UNIVERITY,COLUMBIA UNIVERSITY,4796,"  20,378 ",0,20378,0,0,0,0,0,0,1,6,24,24,50,95.92,50,82.67,85500,1158750,1910,0,0,,,4.25,6.02,0,6.5,1,1019760043,995476,234700,5c,22v2,40.8108659,-73.9594465
MN,1976,39,109,7,10027,506 WEST 122 STREET,R8,D1,3,,TRUSTEES OF COLUMBIA UNIVERSITY,COLUMBIA UNIVERSITY,4796,"  20,238 ",0,20238,0,0,0,0,0,0,1,6,29,29,50,95.92,50,82,205200,896850,1910,0,0,,,4.22,6.02,0,6.5,1,1019760039,995565,234652,5c,22v2,40.8107341,-73.9591251
MN,892,32,106,4,10016,151 EAST 36 STREET,R8B,M9,8,X,YESHIVA UNIVERSITY,YESHIVA UNIVERSITY,7999,20101,20101,0,0,0,0,0,0,20101,1,5,0,1,81,98.75,81,77,999000,2636550,1922,1979,0,,,2.51,4,0,4,1,1008920032,990425,211603,8d,22v2,40.7474757,-73.9777143
SI,153,1,501,49,10310,800 CASTLETON AVENUE,R3X,O7,5,X,RICHMOND UNIVERSITY MEDICAL CENTER,RICHMOND UNIVERSITY MEDICAL CENTER,25566,20000,20000,0,20000,0,0,0,0,0,1,2,0,1,185.5,150,110,90,575100,1370700,1997,0,0,,,0.78,0.5,0,1,5,5001530001,953906,170452,21a,22v2,40.6344759,-74.1093268
MN,1998,61,109,7,10027,2311 12 AVENUE,C6-1,G9,7,,TRUSTEES OF COLUMBIA UNIVERSITY IN THE C ITY OF NEW,COLUMBIA UNIVERSITY,9992,"  19,984 ",19984,0,0,0,19984,0,0,0,1,2,0,2,99.92,100,99,100,225000,1093050,1912,0,0,,,2,3.44,6,6.5,1,1019980061,995554,237685,5c,22v2,40.8190588,-73.9591597
MN,547,25,102,1,10003,21 WASHINGTON PLACE,R7-2,W6,8,X,NEW YORK UNIVERSITY,NEW YORK UNIVERSITY,2500,19936,19936,0,0,0,0,0,0,19936,1,8,0,1,25,100,25,100,416250,2081250,1900,0,0,,,7.97,3.44,0,6.5,1,1005470025,985623,205205,12c,22v2,40.7299169,-73.9950461
MN,575,40,102,3,10011,24 WEST 12 STREET,R6,W9,8,X,NY UNIVERSITY,NEW YORK UNIVERSITY,3252,19924,19924,0,0,0,0,0,0,19924,1,5,0,1,28.5,103.25,28.5,97,616500,1957050,1852,1989,0,Greenwich Village Historic District,,6.13,2.43,0,4.8,1,1005750040,985409,207030,12c,22v2,40.7349261,-73.9958179
MN,2157,9,112,10,10033,560 WEST 185 STREET,R7-2,W2,8,X,YESHIVA UNIVERSITY,YESHIVA UNIVERSITY,7911,19008,19008,0,0,0,0,0,0,19008,1,3,0,3,100,79.92,100,75,168300,2802150,1927,1989,0,,,2.4,3.44,0,6.5,1,1021570009,1003200,249414,3a,22v2,40.8512384,-73.9315023
QN,6517,50,408,24,11367,65-32 KISSENA BOULEVARD,R4,W6,8,O,QUEENS COLLEGE,QUEENS COLLEGE,22373,18750,18750,0,18750,0,0,0,0,0,1,1,0,1,152.67,140,0,0,387000,2328750,1971,0,0,,,0.84,0.75,0,2,4,4065170050,1034511,208003,14c,22v2,40.737454,-73.8186341
MN,1526,29,108,5,10028,238 EAST 81 STREET,R8B,D3,3,X,ROCKEFELLER UNIVERSITY,THE ROCKEFELLER UNIVERSITY,2358,18624,0,18624,0,0,0,0,0,0,1,11,21,21,23.08,102.17,23,82,450000,2395800,1971,1988,0,,,7.9,4,0,4,1,1015260029,996782,221518,9a,22v2,40.7746831,-73.9547533
MN,1895,28,109,7,10025,610 WEST 113 STREET,R8,D1,3,,TRUSTEES OF COLUMBIA UNIVERSITY,COLUMBIA UNIVERSITY,4239,"  18,120 ",0,18120,0,0,0,0,0,0,1,6,18,18,42,100.92,42,84,25650,837000,1905,1987,0,Morningside Heights Historic District,,4.27,6.02,0,6.5,1,1018950028,993579,233020,5c,22v2,40.806257,-73.9663017
MN,1998,10,109,7,10027,641 WEST 131 STREET,C6-1,G1,10,,TRUSTEES OF COLUMBIA UNIVERSITY IN THE C ITY OF NEW,COLUMBIA UNIVERSITY,14988,"  17,800 ",17800,0,5000,0,12800,0,0,0,1,2,0,1,150,99.92,150,99.92,270000,1573650,1926,0,0,,,1.19,3.44,6,6.5,1,1019980010,995663,237510,5c,22v2,40.8185783,-73.9587662
MN,546,8,102,1,10003,26 WASHINGTON PLACE,R7-2,W6,8,X,NEW YORK UNIVERSITY,NEW YORK UNIVERSITY,2787,17163,17163,0,0,0,0,0,0,17163,1,7,0,1,34.83,80,34.84,80,449100,1504350,1900,0,0,,,6.16,3.44,0,6.5,1,1005460008,985398,205166,12c,22v2,40.7298098,-73.9958579
MN,2156,61,112,10,10033,515 WEST 185 STREET,R7-2,W6,8,X,YESHIVA UNIVERSITY,YESHIVA UNIVERSITY,2700,16262,16262,0,0,0,0,0,0,16262,1,6,0,1,49.75,53.83,170,50,49500,3661650,2007,0,0,,,6.02,3.44,0,6.5,1,1021560061,1003691,249313,3a,22v2,40.8509601,-73.9297278
MN,1380,30,108,4,10065,47 EAST 65 STREET,R8B,W6,8,X,HUNTER COLLEGE OF THE CITY UNIVERSITY OF NEW YORK,HUNTER COLLEGE,3515,16086,16086,0,0,0,0,0,0,16086,1,6,1,2,35,100.42,35,78,1966500,3724650,1908,2007,0,Upper East Side Historic District,INDIVIDUAL LANDMARK,4.58,4,0,4,1,1013800030,993218,218772,8c,22v2,40.7671504,-73.9676247
BK,3126,1,301,34,11206,719 BROADWAY,C4-3,O5,5,,BORICUA COLLEGE,BORICUA COLLEGE,5468,16038,16038,0,5346,5346,0,0,0,5346,1,3,0,8,147.92,107.67,147.92,107.67,122850,1385100,1931,2000,0,,,2.93,2.43,3.4,4.8,3,3031260001,1000198,194781,13b,22v2,40.7012912,-73.9424832
MN,1998,13,109,7,10027,635 WEST 131 STREET,C6-1,G1,10,,TRUSTEES OF COLUMBIA UNIVERSITY IN THE C ITY OF NEW,COLUMBIA UNIVERSITY,7494,"  16,000 ",16000,0,0,0,16000,0,0,0,1,2,0,2,75,99.92,75,95,135000,1590750,1940,2002,0,,,2.14,3.44,6,6.5,1,1019980013,995761,237456,5c,22v2,40.81843,-73.9584123
MN,1547,12,108,5,10028,323 EAST 84 STREET,R8B,D9,3,X,ROCKEFELLER UNIVERSITY,THE ROCKEFELLER UNIVERSITY,4047,15837,0,15837,0,0,0,0,0,0,1,7,21,21,39.5,102.17,40,94,544500,1745100,1982,0,0,,,3.91,4,0,4,1,1015470012,997687,222107,9a,22v2,40.7762985,-73.9514846
MN,551,11,102,1,10011,22 WASHINGTON SQUARE N,R6,O2,5,X,NEW YORK UNIVERSITY,NEW YORK UNIVERSITY,3735,15430,15430,0,15430,0,0,0,0,0,2,3.5,0,1,27.92,134.58,27.94,126,540000,1935900,1925,2008,0,Greenwich Village Historic District,,4.13,2.43,0,4.8,1,1005510011,984852,206016,12c,22v2,40.7321429,-73.9978279
MN,1976,51,109,7,10027,524 WEST 122 STREET,R8,C1,2,,TRUSTEES OF COLUMBIA UNIVERSITY,COLUMBIA UNIVERSITY,3789,"  15,156 ",0,15156,0,0,0,0,0,0,1,6,23,23,41.67,90.92,42,76,74700,840600,1910,0,0,,,4,6.02,0,6.5,1,1019760051,995306,234797,5c,22v2,40.8111324,-73.9600605
MN,1884,24,109,7,10025,509 WEST 112 STREET,R8,D1,3,X,TRUSTEES OF COLUMBIA UNIVERSITY,COLUMBIA UNIVERSITY,3431,"  15,102 ",0,15102,0,0,0,0,0,0,1,6,18,18,34,100.92,34,87,77850,753300,1925,0,0,,,4.4,6.02,0,6.5,1,1018840024,994318,232489,5c,22v2,40.8047987,-73.9636331
MN,1199,44,107,6,10024,18 WEST 86 STREET,R10A,W8,8,X,BARD COLLEGE,BARD COLLEGE,2554,15000,15000,0,0,0,0,0,0,15000,1,5,0,0,25,102.17,25,102,769500,2001150,1907,1994,0,Upper West Side / Central Park West Historic District,,5.87,10,0,10,1,1011990044,992389,225463,5d,22v2,40.7855163,-73.9706094
MN,1976,53,109,7,10027,526 WEST 122 STREET,R8,C1,2,,TRUSTEES OF COLUMBIA UNIVERSITY,COLUMBIA UNIVERSITY,3789,"  14,856 ",0,14856,0,0,0,0,0,0,1,6,23,23,41.67,90.92,42,76,74250,954900,1905,1986,0,,,3.92,6.02,0,6.5,1,1019760053,995270,234817,5c,22v2,40.8111873,-73.9601905
MN,1987,9,109,7,10027,547 WEST 133 STREET,R7A,G2,7,,TRUSTEES OF COLUMBIA UNIVERSITY IN THE C ITY OF NY,COLUMBIA UNIVERSITY,7494,"  14,238 ",14238,0,0,0,14238,0,0,0,1,2,0,2,75,99.92,75,100,121500,623700,1970,0,0,,,1.9,4,0,4,1,1019870009,996711,237521,6a,22v2,40.8186071,-73.9549799
QN,7021,50,408,24,11432,81-50B UTOPIA PARKWAY,R4,W6,8,X,ST JOHN'S UNIVERSITY,ST JOHN'S UNIVERSITY,36000,14000,14000,0,0,0,0,0,0,14000,1,1,0,0,234,194,112,125,697500,2381400,1973,0,0,,,0.39,0.75,0,2,4,4070210050,1040894,202464,14c,22v2,40.7222122,-73.7956479
MN,1881,1,107,7,10025,2820 BROADWAY,R9A,C7,4,,TRUSTEES OF COLUMBIA UNIVERSITY,COLUMBIA UNIVERSITY,3010,"  13,600 ",3000,10600,0,3000,0,0,0,0,1,5,12,14,35,86,34,86,180000,741150,1925,0,0,,,4.52,7.52,0,7.5,1,1018810001,993468,232024,5d,22v2,40.8035234,-73.966704
BX,3273,293,206,15,10458,561 EAST FORDHAM ROAD,C4-5D,G1,10,,FORDHAM UNIVERSITY,FORDHAM UNIVERSITY,8800,13450,13450,0,0,0,13450,0,0,0,2,2,0,1,100,83,50,83,99000,320400,1931,2010,0,,,1.53,4.2,4.2,4.2,2,2032730293,1015795,252311,3c,22v2,40.8591538,-73.8859622
MN,1309,65,105,4,10022,116 EAST 55 STREET,C5-2,O2,5,X,STATE UNIVERSITY OF,STATE UNIVERSITY OF NEW YORK,3766,13320,13320,0,13320,0,0,0,0,0,1,4,0,1,37.5,100.42,37.5,90,846000,1714050,1927,2003,0,Individual Landmark,INDIVIDUAL LANDMARK,3.54,10,10,10,1,1013090065,992275,216088,8d,22v2,40.7597844,-73.9710322
MN,1988,96,109,7,10031,511 WEST 135 STREET,R7A,C1,2,,CITY COLLEGE DORMS,CITY COLLEGE,3997,13170,0,13170,0,0,0,0,0,0,1,5,21,21,40,99.92,40,86,40050,747450,1910,1988,0,,,3.29,4,0,4,1,1019880096,997265,237854,6a,22v2,40.8195203,-73.9529777
MN,550,30,102,1,10003,18 EAST 8 STREET,C1-7,H8,8,,NEW YORK UNIVERSITY,NEW YORK UNIVERSITY,6000,13100,,,,,,,,,3,6,0,15,50,120,50,48,270000,526050,1900,0,0,Greenwich Village Historic District,,2.18,6.02,2,6.5,1,1005500030,985524,205809,12c,22v2,40.7315747,-73.9954032
MN,2004,72,109,7,10027,2308 JOE DIMAGGIO HIGHWAY,M1-2,K2,5,,TRUSTEES OF COLUMBIA UNIVERSITY IN THE C ITY OF NEW,COLUMBIA UNIVERSITY,6677,"  13,058 ",13058,0,0,6677,0,6381,0,0,2,2,0,1,84.83,83.25,84,80,99000,1722150,1940,1993,0,,,1.96,0,2,4.8,1,1020040072,995397,237778,5c,22v2,40.8193143,-73.9597268
BX,3273,265,206,15,10458,585 EAST FORDHAM ROAD,C4-5D,K4,4,,FORDHAM UNIVERSITY,FORDHAM UNIVERSITY,6475,12946,12946,0,0,6473,0,6473,0,0,1,2,0,2,78,83,78,83.5,145800,343350,1931,0,0,,,2,4.2,4.2,4.2,2,2032730265,1015950,252202,3c,22v2,40.8588541,-73.8854024
MN,550,27,102,1,10003,12 EAST 8 STREET,C1-7,H8,8,,NEW YORK UNIVERSITY,NEW YORK UNIVERSITY,6000,12628,,,,,,,,,3,6,4,15,50,120,50,48,144000,764550,1930,0,0,Greenwich Village Historic District,,2.1,6.02,2,6.5,1,1005500027,985459,205845,12c,22v2,40.7316735,-73.9956377
MN,1376,11,108,4,10065,11 EAST 61 STREET,R8B,W6,8,X,SYRACUSE UNIVERSITY,SYRACUSE UNIVERSITY,2510,12445,12445,0,0,0,0,0,0,12445,1,6,1,2,25,100.42,25,100,1863000,3254400,1876,1989,0,Upper East Side Historic District,,4.96,4,0,4,1,1013760011,992287,218095,8c,22v2,40.7652931,-73.9709865
MN,1883,54,109,7,10025,534 WEST 112 STREET,R8,K2,5,X,TRUSTEES OF COLUMBIA UNIVERSITY,COLUMBIA UNIVERSITY,7569,"  12,375 ",12375,0,0,12375,0,0,0,0,1,2,0,2,75,100.92,75,100,342000,1094850,1997,0,0,,,1.63,6.02,0,6.5,1,1018830054,993940,232519,5c,22v2,40.8048815,-73.9649984
MN,1896,79,109,7,10027,612 WEST 116 STREET,R8,W6,8,X,TRUSTEES OF COLUMBIA UNIVERSITY,COLUMBIA UNIVERSITY,2523,"  12,218 ",12218,0,0,0,0,0,0,12218,1,5,0,1,25,100.92,25,84,109350,659700,1906,0,0,Morningside Heights Historic District,,4.84,6.02,0,6.5,1,1018960079,993925,233727,5c,22v2,40.8081971,-73.9650509
BX,4090,19,211,13,10461,1196 PIERCE AVENUE,R4A,W6,8,X,ALBERT EINSTEIN COLLEGE OF MEDICINE,ALBERT EINSTEIN COLLEGE OF MEDICINE,23500,12170,12170,0,0,0,0,0,0,12170,1,1,0,1,231,207.92,49,82.5,228150,1449450,1954,1984,0,,,0.52,0.75,0,2,2,2040900019,1026794,248254,4b,22v2,40.8479724,-73.8462257
MN,550,24,102,1,10003,6 EAST 8 STREET,C1-7,H8,8,,NEW YORK UNIVERSITY,NEW YORK UNIVERSITY,4600,12000,630,0,630,0,0,0,0,0,1,6,11,12,50,92,50,46,107550,381600,1930,0,0,Greenwich Village Historic District,,2.61,6.02,2,6.5,1,1005500024,985400,205895,12c,22v2,40.7318108,-73.9958506
MN,1895,62,109,7,10025,2915 BROADWAY,R8,C7,4,,TRUSTEES OF COLUMBIA UNIVERSITY,COLUMBIA UNIVERSITY,2523,"  11,748 ",1000,10748,0,1000,0,0,0,0,1,5,9,10,25,100.92,25,94,742500,1471950,1916,0,0,,,4.66,6.02,0,6.5,1,1018950062,993854,233207,5c,22v2,40.80677,-73.9653081
BK,2047,7,302,33,11201,307 BRIDGE STREET,C6-1A,W6,8,X,NEW YORK UNIVERSITY,NEW YORK UNIVERSITY,7522,11550,11550,0,11550,0,0,0,0,0,1,2,0,1,75,100.25,55,70,264600,1208700,1847,1996,0,Individual Landmark,INDIVIDUAL LANDMARK,1.54,2.43,6,4.8,3,3020470007,988442,192238,12d,22v2,40.6943246,-73.984883
MN,1884,10,109,7,10025,535 WEST 112 STREET,R8,D9,3,X,TRUSTEES OF COLUMBIA UNIVERSITY,COLUMBIA UNIVERSITY,2523,"  11,433 ",0,11433,0,0,0,0,0,0,1,6,12,12,25,100.92,25,87.92,90000,521550,1906,0,0,,,4.53,6.02,0,6.5,1,1018840010,994015,232656,5c,22v2,40.8052574,-73.9647273
MN,550,4,102,1,10003,4 WASHINGTON SQUARE N,R6,W6,8,X,NEW YORK UNIVERSITY,NEW YORK UNIVERSITY,4470,10495,10495,0,0,0,0,0,0,10495,2,3.5,0,2,27.67,161,27.67,146,429300,923400,1900,0,0,Greenwich Village Historic District,,2.35,2.43,0,4.8,1,1005500004,985431,205659,12c,22v2,40.731163,-73.9957388
MN,1896,56,109,7,10025,617 WEST 115 STREET,R8,C4,2,X,TRUSTEES OF COLUMBIA UNIVERSITY,COLUMBIA UNIVERSITY,2523,"  10,270 ",0,10270,0,0,0,0,0,0,1,6,12,12,25,100.92,25,82,15300,568350,1909,0,0,Morningside Heights Historic District,,4.07,6.02,0,6.5,1,1018960056,993830,233658,5c,22v2,40.8080079,-73.9653941
MN,1392,163,108,4,10075,14 EAST 78 STREET,R8B,W6,8,X,NEW YORK UNIVERSITY,NEW YORK UNIVERSITY,2043,10262,10262,0,0,0,0,0,0,10262,1,5,0,1,20,102.17,20,73.17,1170000,2605950,1887,1983,0,Metropolitan Museum Historic District,,5.02,4,0,4,1,1013920163,994363,221906,8c,22v2,40.7757512,-73.9634865
BX,5775,230,208,11,10463,301 WEST 238 STREET,R6,E9,6,X,MANHATTAN COLLEGE,MANHATTAN COLLEGE,27000,10200,10200,0,0,0,0,10200,0,0,1,1,0,1,180,150,125,70,243000,552600,1931,2017,0,,,0.38,2.43,0,4.8,2,2057750230,1011187,262273,1d,22v2,40.8865117,-73.9025804
BK,6065,39,310,43,11209,429 89 STREET,C8-2,G2,7,O,NEW YORK SCHOOL CONSTRUCTION AUTHORITY,NEW YORK SCHOOL CONSTRUCTION AUTHORITY,10000,10000,10000,0,1750,0,8250,0,0,0,1,1,0,1,100,100,100,100,168750,461700,1923,2006,0,,,1,0,2,4.8,3,3060650039,976432,165234,22b,22v2,40.6202021,-74.0281615
MN,541,33,102,1,10012,249 SULLIVAN STREET,R7-2,W6,8,X,NEW YORK UNIVERSITY,NEW YORK UNIVERSITY,2500,10000,10000,0,0,0,0,0,0,10000,1,4,0,1,100,25.42,76,25,303750,1229850,1972,0,0,South Village Historic District,,4,3.44,0,6.5,1,1005410033,984557,205392,12c,22v2,40.7304302,-73.9988923
MN,546,30,102,1,10003,31 WEST 4 STREET,R7-2,W6,8,,NEW YORK UNIVERSITY,NEW YORK UNIVERSITY,2497,9980,9980,0,7480,2500,0,0,0,0,1,4,0,3,25.92,96.25,25.92,96,297900,1504350,1900,1999,0,,,4,3.44,0,6.5,1,1005460030,985484,204981,12c,22v2,40.7293021,-73.9955477
MN,547,19,102,1,10003,7 WASHINGTON PLACE,R7-2,O2,5,X,NEW YORK UNIVERSITY,NEW YORK UNIVERSITY,2500,9800,9800,0,9800,0,0,0,0,0,1,4,0,1,25,100,25,100,197550,792000,1900,0,0,,,3.92,3.44,0,6.5,1,1005470019,985776,205107,12c,22v2,40.7296478,-73.9944941
MN,930,41,106,2,10010,330 EAST 25 STREET,R8,H8,8,X,NEW YORK UNIVERSITY,NEW YORK UNIVERSITY,2469,9595,,,,,,,,,2,5,0,1,25,98.75,25,70,553500,808200,1910,0,0,,,3.89,6.02,0,6.5,1,1009300041,990166,208286,8d,22v2,40.7383716,-73.9786519
MN,2094,29,109,7,10031,3589 BROADWAY,R8,K1,5,,THE TRUSTEES OF COLUMBIA UNIVERSITY IN T HE CITY OF,COLUMBIA UNIVERSITY,8570,"  9,000 ",9000,0,0,9000,0,0,0,0,1,1,0,6,26.2,125,26,125,204750,576000,1969,0,0,,,1.05,6.02,0,6.5,1,1020940029,998134,240992,3b,22v2,40.8281319,-73.9498316
MN,1376,12,108,4,10065,15 EAST 61 STREET,R8B,O8,4,X,SYRACUSE UNIVERSITY,SYRACUSE UNIVERSITY,2510,8580,6920,1660,6920,0,0,0,0,0,1,5,3,4,25,100.42,24,70,855000,1161900,1880,0,0,Upper East Side Historic District,,3.42,4,0,4,1,1013760012,992310,218083,8c,22v2,40.7652602,-73.9709035
BX,5752,121,208,11,10463,2 RIVER AVENUE,R1-1,A3,1,X,NEW YORK UNIVERSITYSCHOOL OF LAW FOUNDAT ION,NEW YORK UNIVERSITY,41439,8563,0,6767,0,0,0,0,0,0,2,2.75,1,1,179.22,231.6,48,58,78300,363360,1905,2003,0,,,0.21,0.5,0,1,2,2057520121,1006277,261964,1b,22v2,40.8856772,-73.9203388
MN,1471,27,108,5,10075,444 EAST 77 STREET,R10,C5,2,X,CORNELL UNIVERSITY,CORNELL UNIVERSITY,2071,8405,0,8405,0,0,0,0,0,0,1,5,16,16,25,82.83,25,67,202950,1008000,1954,1987,0,,,4.06,10,0,10,1,1014710027,997602,219819,9a,22v2,40.7700186,-73.951796
MN,1471,28,108,5,10075,442 EAST 77 STREET,R10,C5,2,X,CORNELL UNIVERSITY,CORNELL UNIVERSITY,2071,8405,0,8405,0,0,0,0,0,0,1,5,16,16,25,82.83,25,67,202950,1008000,1954,1987,0,,,4.06,10,0,10,1,1014710028,997579,219832,9a,22v2,40.7700543,-73.951879
MN,1895,78,109,7,10025,415 RIVERSIDE DRIVE,R8,C5,2,,TRUSTEES OF COLUMBIA UNIVERSITY,COLUMBIA UNIVERSITY,2403,"  8,200 ",0,8200,0,0,0,0,0,0,1,5,9,9,25.75,93.33,25,78,330750,1850850,1898,0,0,Morningside Heights Historic District,,3.41,6.02,0,6.5,1,1018950078,993464,233363,5c,22v2,40.8071985,-73.9667166
MN,1957,110,109,9,10031,183 CONVENT AVENUE,R7-2,W5,8,X,CITY UNIVERSITY OF NEW YORK,CITY UNIVERSITY OF NEW YORK,30026,8100,8100,0,8100,0,0,0,0,0,1,1,0,1,144,94,144,144,634500,1822050,1985,0,0,,,0.27,3.44,0,6.5,1,1019570110,998342,238115,6a,22v2,40.820235,-73.9490861
MN,1885,46,109,7,10025,524 WEST 114 STREET,R8,C4,2,X,TRUSTEES OF COLUMBIA UNIVERSITY,COLUMBIA UNIVERSITY,2523,"  8,040 ",0,8040,0,0,0,0,0,0,1,4,10,10,25,100.92,25,68,279000,1814850,1920,1988,0,,,3.19,6.02,0,6.5,1,1018850046,994391,232867,5c,22v2,40.8058362,-73.9633688
MN,551,7,102,1,10011,19 WASHINGTON SQUARE N,R6,O2,5,,NEW YORK UNIVERSITY,NEW YORK UNIVERSITY,3997,7868,7868,0,7868,0,0,0,0,0,2,3.5,0,1,28.17,144,28,112,362250,925650,1890,2009,0,Greenwich Village Historic District,,1.97,2.43,0,4.8,1,1005510007,984940,205964,12c,22v2,40.7320002,-73.9975104
MN,1986,10,109,7,10027,555 WEST 131 STREET,C6-1,G2,7,,TRUSTEES OF COLUMBIA UNIVERSITY IN THE CITY OF NEW YORK,COLUMBIA UNIVERSITY,7524,"  7,800 ",7800,0,0,0,7800,0,0,0,1,1,0,1,75,100.33,75,100,101250,490050,1925,0,0,,,1.04,3.44,6,6.5,1,1019860010,996453,237072,6a,22v2,40.8173751,-73.9559128
MN,551,10,102,1,10011,21 WASHINGTON SQUARE N,R6,C1,2,,NEW YORK UNIVERSITY,NEW YORK UNIVERSITY,3440,7785,0,7785,0,0,0,0,0,0,3,3.5,7,7,25,136.75,25,86,380250,3503250,1900,1985,0,Greenwich Village Historic District,,2.26,2.43,0,4.8,1,1005510010,984874,206003,12c,22v2,40.7321073,-73.9977485
MN,550,6,102,1,10003,6 WASHINGTON SQUARE N,R6,W6,8,X,NEW YORK UNIVERSITY,NEW YORK UNIVERSITY,4375,7724,7724,0,0,0,0,0,0,7724,2,3.5,0,2,27.67,157.25,27.67,104,351450,654300,1900,0,0,Greenwich Village Historic District,,1.77,2.43,0,4.8,1,1005500006,985384,205687,12c,22v2,40.7312399,-73.9959084
MN,1998,57,109,7,10027,640 WEST 132 STREET,C6-1,G9,7,,TRUSTEES OF COLUMBIA UNIVERSITY IN THE C ITY OF NEW,COLUMBIA UNIVERSITY,9992,"  7,500 ",7500,0,0,0,7500,0,0,0,1,1,0,1,100,99.92,75,100,189000,1371150,1910,0,0,,,0.75,3.44,6,6.5,1,1019980057,995645,237634,5c,22v2,40.8189187,-73.958831
MN,568,32,102,2,10003,7 EAST 10 STREET,R7-2,W6,8,X,NEW YORK UNIVERSITY,NEW YORK UNIVERSITY,2321,7410,7410,0,0,0,0,0,0,7410,1,5,0,1,24.5,94.75,25,58,648000,1504350,1887,1983,0,Greenwich Village Historic District,,3.19,3.44,0,6.5,1,1005680032,985742,206440,12c,22v2,40.7333066,-73.9946165
BK,1916,10,302,35,11205,265 CLINTON AVENUE,R6B,P8,8,X,ST JOSEPH'S COLLEGE,ST JOSEPH'S COLLEGE,11500,7350,7350,0,7350,0,0,0,0,0,1,3,0,1,63.75,180,40,50,162000,602550,1879,1967,0,Clinton Hill Historic District,,0.64,2,0,2,3,3019160010,993210,190731,16c,22v2,40.6901847,-73.9676909
MN,1895,27,109,7,10025,608 WEST 113 STREET,R8,C4,2,X,TRUSTEES OF COLUMBIA UNIVERSITY,COLUMBIA UNIVERSITY,2523,"  7,210 ",0,7210,0,0,0,0,0,0,1,4,11,11,25,100.92,25,58,90000,580500,1897,1987,0,Morningside Heights Historic District,,2.86,6.02,0,6.5,1,1018950027,993608,233004,5c,22v2,40.806213,-73.966197
MN,1867,69,109,7,10027,424 WEST 116 STREET,R8,O2,5,X,TRUSTEES OF COLUMBIA UNIVERSITY,COLUMBIA UNIVERSITY,2523,"  7,050 ",7050,0,7050,0,0,0,0,0,1,3,0,2,25,100.92,25,80,76050,614250,1915,0,0,,,2.79,6.02,0,6.5,1,1018670069,995215,233014,5c,22v2,40.8062386,-73.9603921
MN,1884,52,109,7,10025,544 WEST 113 STREET,R8,C7,4,,TRUSTEES OF COLUMBIA UNIVERSITY,COLUMBIA UNIVERSITY,1892,"  7,040 ",1430,5610,0,1430,0,0,0,0,1,4,8,9,18.75,100.92,19,67,255150,922950,1920,0,0,,,3.72,6.02,0,6.5,1,1018840052,994124,232714,5c,22v2,40.8054165,-73.9643335
MN,1309,64,105,4,10022,120 EAST 55 STREET,C5-2,O2,5,X,STATE UNIVERSITY OF,STATE UNIVERSITY OF NEW YORK,1883,7024,7024,0,7024,0,0,0,0,0,1,5,0,1,18.75,100.42,18.75,77,423900,897750,1920,1989,2003,,,3.73,10,10,10,1,1013090064,992299,216074,8d,22v2,40.759746,-73.9709456
MN,1993,39,109,7,10027,124 LA SALLE STREET,R8,C4,2,X,TRUSTEES OF COLUMBIA UNIVERSITY,COLUMBIA UNIVERSITY,1800,"  6,995 ",0,6995,0,0,0,0,0,0,1,5,14,14,18,100.92,18,87,20700,441450,1901,1988,0,,,3.89,6.02,0,6.5,1,1019930039,995217,235758,5c,22v2,40.8137702,-73.9603804
MN,550,29,102,1,10003,16 EAST 8 STREET,C1-7,H8,8,,NEW YORK UNIVERSITY,NEW YORK UNIVERSITY,3000,6850,1175,0,0,1175,0,0,0,0,2,6,1,13,25,120,25,78,207000,917550,1930,0,0,Greenwich Village Historic District,,2.28,6.02,2,6.5,1,1005500029,985492,205827,12c,22v2,40.7316241,-73.9955187
MN,1309,107,105,4,10022,121 EAST 54 STREET,C5-2.5,O2,5,X,STATE UNIVERSITY OF,STATE UNIVERSITY OF NEW YORK,1678,6775,6775,0,6775,0,0,0,0,0,1,4,0,1,16.83,100.42,16.83,54,377550,1030500,1920,2003,0,,,4.04,10,12,12,1,1013090107,992223,215998,8d,22v2,40.7595375,-73.9712201
MN,1309,7,105,4,10022,119 EAST 54 STREET,C5-2.5,O2,5,X,STATE UNIVERSITY OF,STATE UNIVERSITY OF NEW YORK,1688,6775,6775,0,6775,0,0,0,0,0,1,4,0,1,16.83,100.42,16.83,54,379800,792000,1926,1988,2003,,,4.01,10,12,12,1,1013090007,992209,216006,8d,22v2,40.7595594,-73.9712706
MN,1426,20,108,4,10021,255 EAST 71 STREET,R8B,W9,8,X,MARYMOUNT MANHATTAN COLLEGE,MARYMOUNT MANHATTAN COLLEGE,1890,6755,6755,0,6755,0,0,0,0,0,1,5,0,1,18.5,102.17,18.5,50,506700,1158300,1899,2012,0,,,3.57,4,0,4,1,1014260020,995544,219272,8c,22v2,40.7685201,-73.9592268
MN,1404,30,108,4,10021,161 EAST 69 STREET,R8B,W8,8,X,NEW YORK SCHOOL OF INTERIOR DESIGN,NEW YORK SCHOOL OF INTERIOR DESIGN,2510,6750,6750,0,4500,0,0,0,0,2250,1,3,0,1,25,100.42,25,92,666000,1246950,1916,1988,0,Upper East Side Historic District,,2.69,4,0,4,1,1014040030,994628,219183,8c,22v2,40.768277,-73.9625339
MN,550,5,102,1,10003,5 WASHINGTON SQUARE N,R6,W6,8,X,NEW YORK UNIVERSITY,NEW YORK UNIVERSITY,4430,6715,6715,0,0,0,0,0,0,6715,2,3.5,0,2,27.67,159.08,27.67,159.08,418500,721800,1920,1984,0,Greenwich Village Historic District,,1.52,2.43,0,4.8,1,1005500005,985407,205673,12c,22v2,40.7312014,-73.9958254
BX,5949,237,208,11,10471,5543 ARLINGTON AVENUE,R1-2,A3,1,X,YESHIVA UNIVERSITY,YESHIVA UNIVERSITY,43820,6625,0,6625,0,0,0,0,0,0,2,2.5,1,1,145,319,57,30,62640,243900,1920,2001,2001,,,0.15,0.5,0,1,2,2059490237,1009795,268707,1c,22v2,40.9041751,-73.9075901
MN,1885,119,109,7,10025,525 WEST 113 STREET,R8,C4,2,,TRUSTEES OF COLUMBIA UNIVERSITY,COLUMBIA UNIVERSITY,2018,"  6,570 ",0,6570,0,0,0,0,0,0,1,5,10,10,20,100.92,20,70,181800,1482750,1915,1980,0,,,3.26,6.02,0,6.5,1,1018850119,994347,232773,5c,22v2,40.8055782,-73.9635279
MN,1885,54,109,7,10025,544 WEST 114 STREET,R8,C4,2,X,TRUSTEES OF COLUMBIA UNIVERSITY,COLUMBIA UNIVERSITY,2018,"  6,230 ",0,6230,0,0,0,0,0,0,1,4,9,9,20,100.92,20,64,174150,1405800,1900,1987,0,,,3.09,6.02,0,6.5,1,1018850054,994210,232967,5c,22v2,40.8061108,-73.9640225
MN,1885,58,109,7,10025,554 WEST 114 STREET,R8,C4,2,X,TRUSTEES OF COLUMBIA UNIVERSITY,COLUMBIA UNIVERSITY,2018,"  6,033 ",0,6033,0,0,0,0,0,0,1,5,10,10,20,100.92,20,66,194400,1593450,1900,0,0,,,2.99,6.02,0,6.5,1,1018850058,994125,233014,5c,22v2,40.8062399,-73.9643294
MN,1895,129,109,7,10025,614 WEST 113 STREET,R8,H8,8,X,TRUSTEES OF COLUMBIA UNIVERSITY,COLUMBIA UNIVERSITY,1817,"  5,910 ",,,,,,,,,1,5,0,1,18,100.92,18,69,216900,409050,1897,0,0,Morningside Heights Historic District,,3.25,6.02,0,6.5,1,1018950129,993553,233035,5c,22v2,40.8062982,-73.9663956
MN,1885,48,109,7,10025,528 WEST 114 STREET,R8,C5,2,X,TRUSTEES OF COLUMBIA UNIVERSITY,COLUMBIA UNIVERSITY,2018,"  5,800 ",0,5800,0,0,0,0,0,0,1,4,7,7,20,100.92,20,68,67500,1309050,1920,1987,2009,,,2.87,6.02,0,6.5,1,1018850048,994350,232889,5c,22v2,40.8058966,-73.9635169
MN,1885,52,109,7,10025,538 WEST 114 STREET,R8,C5,2,X,TRUSTEES OF COLUMBIA UNIVERSITY,COLUMBIA UNIVERSITY,2018,"  5,800 ",0,5800,0,0,0,0,0,0,1,4,13,13,20,100.92,20,64,135000,541350,1900,0,0,,,2.87,6.02,0,6.5,1,1018850052,994262,232938,5c,22v2,40.8060312,-73.9638347
MN,1884,58,109,7,10025,560 WEST 113 STREET,R8,W6,8,X,TRUSTEES OF COLUMBIA UNIVERSITY,COLUMBIA UNIVERSITY,1917,"  5,773 ",5773,0,0,0,0,0,0,5773,1,4,0,2,19,100.92,19,70,63900,600750,1900,1985,0,,,3.01,6.02,0,6.5,1,1018840058,993997,232785,5c,22v2,40.8056115,-73.9647921
MN,1884,53,109,7,10025,546 WEST 113 STREET,R8,C5,2,,TRUSTEES OF COLUMBIA UNIVERSITY,COLUMBIA UNIVERSITY,1892,"  5,710 ",0,5710,0,0,0,0,0,0,1,4,8,8,18.75,100.92,19,74,241200,1442250,1920,0,0,,,3.02,6.02,0,6.5,1,1018840053,994108,232723,5c,22v2,40.8054412,-73.9643913
MN,1884,51,109,7,10025,540 WEST 113 STREET,R8,C4,2,X,TRUSTEES OF COLUMBIA UNIVERSITY,COLUMBIA UNIVERSITY,1892,"  5,710 ",0,5710,0,0,0,0,0,0,1,4,10,10,18.75,100.92,19,67,205650,1507950,1920,0,0,,,3.02,6.02,0,6.5,1,1018840051,994157,232696,5c,22v2,40.8053671,-73.9642143
MN,1884,57,109,7,10025,558 WEST 113 STREET,R8,C5,2,X,TRUSTEES OF COLUMBIA UNIVERSITY,COLUMBIA UNIVERSITY,1917,"  5,625 ",0,5625,0,0,0,0,0,0,1,5,9,9,19,100.92,19,67,236250,1485450,1920,0,0,,,2.93,6.02,0,6.5,1,1018840057,994014,232775,5c,22v2,40.8055841,-73.9647307
MN,1885,148,109,7,10025,530 WEST 114 STREET,R8,C4,2,,TRUSTEES OF COLUMBIA UNIVERSITY,COLUMBIA UNIVERSITY,2018,"  5,620 ",0,5620,0,0,0,0,0,0,1,4,9,9,20,100.92,20,64,148500,1484550,1900,1988,0,,,2.78,6.02,0,6.5,1,1018850148,994331,232900,5c,22v2,40.8059268,-73.9635855
MN,1884,151,109,7,10025,542 WEST 113 STREET,R8,C4,2,X,TRUSTEES OF COLUMBIA UNIVERSITY,COLUMBIA UNIVERSITY,1892,"  5,610 ",0,5610,0,0,0,0,0,0,1,4,9,9,18.75,100.92,19,67,220950,1481850,1920,0,0,,,2.97,6.02,0,6.5,1,1018840151,994140,232705,5c,22v2,40.8053918,-73.9642757
MN,1896,51,109,7,10025,635 WEST 115 STREET,R8,W6,8,X,TRUSTEES OF COLUMBIA UNIVERSITY,COLUMBIA UNIVERSITY,2523,"  5,525 ",5525,0,0,0,0,0,0,5525,1,4,0,1,25,100.92,25,47,94500,575100,1893,0,0,Morningside Heights Historic District,,2.19,6.02,0,6.5,1,1018960051,993716,233720,5c,22v2,40.8081781,-73.9658058
MN,1885,53,109,7,10025,542 WEST 114 STREET,R8,C5,2,X,COLLEGE OF PHYSICAN & SURGEONS,COLLEGE OF PHYSICAN & SURGEONS,1892,5469,0,5469,0,0,0,0,0,0,1,4,11,11,18.75,100.92,20,66,135000,591300,1900,1987,0,,,2.89,6.02,0,6.5,1,1018850053,994227,232957,5c,22v2,40.8060834,-73.9639611
MN,1884,156,109,7,10025,556 WEST 113 STREET,R8,C5,2,X,TRUSTEES OF COLUMBIA UNIVERSITY,COLUMBIA UNIVERSITY,1817,"  5,250 ",0,5250,0,0,0,0,0,0,1,4,12,12,18,100.92,18,67,90000,413550,1920,0,0,,,2.89,6.02,0,6.5,1,1018840156,994030,232766,5c,22v2,40.8055593,-73.964673
MN,1884,56,109,7,10025,554 WEST 113 STREET,R8,C5,2,X,TRUSTEES OF COLUMBIA UNIVERSITY,COLUMBIA UNIVERSITY,1817,"  5,250 ",0,5250,0,0,0,0,0,0,1,4,8,8,18,100.92,18,65,172350,1386450,1920,0,0,,,2.89,6.02,0,6.5,1,1018840056,994046,232757,5c,22v2,40.8055346,-73.9646152
MN,1884,54,109,7,10025,548 WEST 113 STREET,R8,W6,8,X,TRUSTEES OF COLUMBIA UNIVERSITY,COLUMBIA UNIVERSITY,1716,"  5,235 ",5235,0,0,0,0,0,0,5235,1,4,9,9,17,100.92,17,70,109350,544500,1910,0,0,,,3.05,6.02,0,6.5,1,1018840054,994092,232732,5c,22v2,40.805466,-73.9644491
BX,3273,252,206,15,10458,619 EAST FORDHAM ROAD,C4-5D,GU,5,,FORDHAM UNIVERSITY,FORDHAM UNIVERSITY,6758,5000,5000,0,0,500,4500,0,0,0,1,1,0,1,50.75,129.42,50,100,121500,408150,1923,1983,0,,,0.74,4.2,4.2,4.2,2,2032730252,1016261,252082,3c,22v2,40.8585236,-73.8842787
MN,1998,6,109,7,10027,653 WEST 131 STREET,C6-1,G1,10,,TRUSTEES OF COLUMBIA UNIVERSITY IN THE C ITY OF NEW,COLUMBIA UNIVERSITY,4996,"  4,996 ",4996,0,0,0,4996,0,0,0,1,1,0,1,50,99.92,50,100,137250,624150,1930,0,0,,,1,3.44,6,6.5,1,1019980006,995575,237559,5c,22v2,40.8187129,-73.9590841
BX,5749,695,208,11,10463,681 WEST 231 STREET,R1-1,A3,1,X,LEHMAN COLLEGE,LEHMAN COLLEGE,21160,4992,0,4992,0,0,0,0,0,0,1,2.75,1,1,183.94,115,29,49,38220,156120,1920,0,0,,,0.24,0.5,0,1,2,2057490695,1007385,261381,1b,22v2,40.8840742,-73.9163337
MN,1884,55,109,7,10025,552 WEST 113 STREET,R8,W6,8,X,TRUSTEES OF COLUMBIA UNIVERSITY,COLUMBIA UNIVERSITY,1716,"  4,975 ",4975,0,0,0,0,0,0,4975,1,4,10,10,17,100.92,17,64,59850,162000,1910,0,0,,,2.9,6.02,0,6.5,1,1018840055,994061,232749,5c,22v2,40.8055126,-73.964561
MN,1881,6,107,7,10025,253 WEST 109 STREET,R8B,C2,2,,TRUSTEES OF COLUMBIA UNIVERSITY,COLUMBIA UNIVERSITY,1365,"  4,946 ",0,4946,0,0,0,0,0,0,1,5,5,5,39,35,39,35,153450,1306350,1920,0,0,,,3.62,4,0,4,1,1018810006,993524,231993,5d,22v2,40.8034382,-73.9665018
SI,315,29,501,49,10310,1058 FOREST AVENUE,R3-2,O1,5,X,RICHMOND UNIVERSITY MEDICAL CENTER,RICHMOND UNIVERSITY MEDICAL CENTER,15400,4860,4860,0,4860,0,0,0,0,0,1,1,0,1,100,154,60,81,173250,238050,1967,0,0,,,0.32,0.5,0,1,5,5003150029,949601,167680,21a,22v2,40.6268516,-74.124823
MN,1399,150,108,4,10065,132 EAST 65 STREET,C1-8X,W8,8,X,THE CITY UNIVERSITY OF NEW YORK,THE CITY UNIVERSITY OF NEW YORK,2008,4832,4832,0,0,0,0,0,0,4832,1,4,0,1,20,100.42,20,50,769500,1296900,1871,1989,0,Upper East Side Historic District Extension,,2.41,9,2,9,1,1013990150,993894,218215,8c,22v2,40.7656209,-73.9651851
MN,2155,88,112,10,10033,2496 AMSTERDAM AVENUE,R7-2,E1,6,X,YESHIVA UNIVERSITY,YESHIVA UNIVERSITY,2292,4710,4710,0,0,0,0,0,4710,0,1,2,0,1,22.92,100,23,94,82350,338850,1923,1989,0,,,2.05,3.44,0,6.5,1,1021550088,1003600,248897,3a,22v2,40.8498185,-73.930058
BX,3273,208,206,15,10458,2546 BELMONT AVENUE,C4-5D,W6,8,X,FORDHAM UNIVERSITY,FORDHAM UNIVERSITY,1877,4687,4687,0,0,0,0,0,0,4687,1,3,0,1,25,75.08,25,75,17550,162900,1931,0,0,,,2.5,4.2,4.2,4.2,2,2032730208,1016687,252123,3c,22v2,40.8586346,-73.8827385
MN,2139,166,112,10,10032,83 HAVEN AVENUE,R8,K2,5,,THE TRUSTEES OF COLUMBIA UNIVERSITY IN THE CITY OF NEW YORK,COLUMBIA UNIVERSITY,2325,"  4,653 ",4653,0,0,4653,0,0,0,0,1,2,0,2,25.83,95.92,25.83,94,23850,549900,1926,0,0,,,2,6.02,0,6.5,1,1021390166,1000214,246865,3b,22v2,40.8442481,-73.9423018
BK,1915,48,302,35,11205,256 CLINTON AVENUE,R6B,M4,8,X,ST JOSEPH S COLLEGE,ST JOSEPH'S COLLEGE,1808,4500,4500,0,0,0,0,0,0,4500,1,4,0,0,20.08,90,20,45,25650,248850,1878,0,0,Clinton Hill Historic District,,2.49,2,0,2,3,3019150048,992932,190874,16c,22v2,40.6905775,-73.9686932
BX,4203,82,211,13,10461,1201 MORRIS PARK AVENUE,R4,O7,5,,ALBERT EINSTEIN COLLEGE OF MEDICINE,ALBERT EINSTEIN COLLEGE OF MEDICINE,9900,4391,4391,0,4391,0,0,0,0,0,1,1,0,1,75.17,102.92,75,50,156150,316350,1955,1988,0,,,0.44,0.75,0,2,2,2042030082,1026153,249485,4a,22v2,40.8513542,-73.8485349
MN,2094,32,109,7,10031,3581 BROADWAY,R8,M9,8,,THE TRUSTEES OF COLUMBIA UNIVERSITY IN T HE CITY OF,COLUMBIA UNIVERSITY,3985,"  4,200 ",4200,0,0,0,0,0,0,0,1,1,0,1,74.92,54.67,74,54,94950,206100,1969,0,0,,,1.05,6.02,0,6.5,1,1020940032,998173,240947,3b,22v2,40.8280083,-73.9496908
MN,573,13,102,3,10011,58 WEST 10 STREET,R6,W9,8,X,NEW YORK UNIVERSITY,NEW YORK UNIVERSITY,1983,4090,4090,0,4090,0,0,0,0,0,1,3,0,1,21.5,92.25,21.5,40,356850,659700,1836,0,0,Greenwich Village Historic District,,2.06,2.43,0,4.8,1,1005730013,984792,206792,12c,22v2,40.7342729,-73.9980443
MN,575,61,102,3,10011,21 WEST 11 STREET,R6,B1,1,X,NEW SCHOOL FOR SOCIAL RESEARCH,NEW SCHOOL,1957,4038,0,3060,0,0,0,0,0,0,1,4,2,2,20.08,103.25,20,35,177660,650820,1834,0,0,Greenwich Village Historic District,,2.06,2.43,0,4.8,1,1005750061,985404,206916,12c,22v2,40.7346132,-73.995836
MN,1895,67,109,7,10025,616 WEST 114 STREET,R8,H8,8,X,TRUSTEES OF COLUMBIA UNIVERSITY,COLUMBIA UNIVERSITY,1514,"  3,900 ",,,,,,,,,1,4,0,1,15,100.92,15,75,180900,265950,1896,1988,0,Morningside Heights Historic District,,2.58,6.02,0,6.5,1,1018950067,993686,233259,5c,22v2,40.8069129,-73.9659149
MN,1895,163,109,7,10025,604 WEST 114 STREET,R8,H8,8,X,TRUSTEES OF COLUMBIA UNIVERSITY,COLUMBIA UNIVERSITY,1514,"  3,900 ",,,,,,,,,1,4,0,1,15,100.92,15,75,124648,179550,1896,2006,0,Morningside Heights Historic District,,2.58,6.02,0,6.5,1,1018950163,993761,233217,5c,22v2,40.8067975,-73.965644
MN,621,67,102,3,10014,63 CHARLES STREET,R6,A4,1,X,NEW YORK UNIVERSITYSCHOOL OF LAW FOUNDAT ION,NEW YORK UNIVERSITY,1905,3840,0,2880,0,0,0,0,0,0,1,3,1,1,20,95.25,20,48,169020,780780,1866,1999,0,Greenwich Village Historic District,,2.02,2.43,0,4.8,1,1006210067,983210,207059,12a,22v2,40.7350057,-74.0037527
MN,1895,164,109,7,10025,608 WEST 114 STREET,R8,C5,2,,TRUSTEES OF COLUMBIA UNIVERSITY,COLUMBIA UNIVERSITY,1413,"  3,688 ",0,3688,0,0,0,0,0,0,1,4,9,9,14,100.92,14,76,199800,974250,1896,1987,0,Morningside Heights Historic District,,2.61,6.02,0,6.5,1,1018950164,993736,233231,5c,22v2,40.806836,-73.9657343
MN,1895,66,109,7,10025,614 WEST 114 STREET,R8,H8,8,X,TRUSTEES OF COLUMBIA UNIVERSITY,COLUMBIA UNIVERSITY,1413,"  3,688 ",,,,,,,,,1,4,0,1,14,100.92,14,76,168750,288000,1896,0,0,Morningside Heights Historic District,,2.61,6.02,0,6.5,1,1018950066,993698,233252,5c,22v2,40.8068936,-73.9658715
MN,1895,165,109,7,10025,612 WEST 114 STREET,R8,H8,8,X,TRUSTEES OF COLUMBIA UNIVERSITY,COLUMBIA UNIVERSITY,1413,"  3,688 ",,,,,,,,,1,4,0,1,14,100.92,14,75,168750,207000,1896,0,0,Morningside Heights Historic District,,2.61,6.02,0,6.5,1,1018950165,993711,233245,5c,22v2,40.8068744,-73.9658246
MN,1895,65,109,7,10025,610 WEST 114 STREET,R8,H8,8,X,TRUSTEES OF COLUMBIA UNIVERSITY,COLUMBIA UNIVERSITY,1413,"  3,688 ",,,,,,,,,1,4,0,1,14,100.92,14,75,168750,276300,1896,0,0,Morningside Heights Historic District,,2.61,6.02,0,6.5,1,1018950065,993723,233238,5c,22v2,40.8068552,-73.9657812
MN,1895,64,109,7,10025,606 WEST 114 STREET,R8,H8,8,X,TRUSTEES OF COLUMBIA UNIVERSITY,COLUMBIA UNIVERSITY,1413,"  3,688 ",,,,,,,,,1,4,0,1,14,100.92,14,75,65250,182700,1896,0,0,Morningside Heights Historic District,,2.61,6.02,0,6.5,1,1018950064,993748,233224,5c,22v2,40.8068167,-73.9656909
QN,6809,10,408,24,11367,153-01 76 ROAD,R4,C0,2,X,TOURO COLLEGE,TOURO COLLEGE,2265,3600,0,3600,0,0,0,0,0,0,1,3,3,3,21.17,107,21,57,12120,104640,2009,0,0,,,1.59,0.75,0,2,4,4068090010,1036141,203218,14c,22v2,40.7243109,-73.8127892
QN,6809,8,408,24,11367,153-05 76 ROAD,R4,C0,2,X,TOURO COLLEGE,TOURO COLLEGE,2265,3600,0,3600,0,0,0,0,0,0,1,3,3,3,21,107,21,57,12120,104640,2009,0,0,,,1.59,0.75,0,2,4,4068090008,1036157,203178,14c,22v2,40.7242011,-73.8127318
QN,6809,9,408,24,11367,153-03 76 ROAD,R4,C0,2,X,TOURO COLLEGE,TOURO COLLEGE,2265,3600,0,3600,0,0,0,0,0,0,1,3,3,3,21,107,21,57,12120,104280,2009,0,0,,,1.59,0.75,0,2,4,4068090009,1036149,203198,14c,22v2,40.724256,-73.8127605
SI,629,100,501,49,10301,134 CAMPUS ROAD,R3-1,A3,1,,WAGNER COLLEGE,WAGNER COLLEGE,15000,3591,0,3591,0,0,0,0,0,0,2,2,1,1,100,150,37,33,26280,74280,1940,2007,2007,,,0.24,0.5,0,1,5,5006290100,957887,162686,21b,22v2,40.6131726,-74.0949532
QN,6715,27,408,24,11367,147-28 UNION TURNPIKE,R4,C0,2,X,ST JOHN'S UNIVERSITY,ST JOHN'S UNIVERSITY,1430,3430,0,3430,0,0,0,0,0,0,1,3,3,3,22,65,22,55,23700,86520,2004,0,0,,,2.4,0.75,0,2,4,4067150027,1035784,201019,14c,22v2,40.7182773,-73.814094
QN,6715,37,408,24,11367,147-04 UNION TURNPIKE,R4,C0,2,X,ST JOHN'S UNIVERSITY,ST JOHN'S UNIVERSITY,1430,3430,0,3430,0,0,0,0,0,0,1,3,3,3,22,65,22,55,23700,90960,2004,0,0,,,2.4,0.75,0,2,4,4067150037,1035519,200922,14c,22v2,40.7180126,-73.8150507
QN,6715,28,408,24,11367,147-26 UNION TURNPIKE,R4,C0,2,X,ST JOHN'S UNIVERSITY,ST JOHN'S UNIVERSITY,1430,3430,0,3430,0,0,0,0,0,0,1,3,3,3,22,65,22,55,23700,86520,2004,0,0,,,2.4,0.75,0,2,4,4067150028,1035764,201011,14c,22v2,40.7182555,-73.8141662
QN,6715,26,408,24,11367,147-30 UNION TURNPIKE,R4,C0,2,X,ST JOHN'S UNIVERSITY,ST JOHN'S UNIVERSITY,1430,3430,0,3430,0,0,0,0,0,0,1,3,3,3,22,65,22,55,23700,90960,2004,0,0,,,2.4,0.75,0,2,4,4067150026,1035805,201026,14c,22v2,40.7182964,-73.8140182
QN,6715,35,408,24,11367,147-08 UNION TURNPIKE,R4,C0,2,X,ST JOHN'S UNIVERSITY,ST JOHN'S UNIVERSITY,1430,3430,0,3430,0,0,0,0,0,0,1,3,3,3,22,65,22,55,23700,86520,2004,0,0,,,2.4,0.75,0,2,4,4067150035,1035561,200937,14c,22v2,40.7180535,-73.8148991
QN,6715,36,408,24,11367,147-06 UNION TURNPIKE,R4,C0,2,X,"ST. JOHN'S UNIVERSITY, NEW YORK",ST JOHN'S UNIVERSITY,1430,3430,0,3430,0,0,0,0,0,0,1,3,3,3,22,65,22,55,23700,86520,2004,0,0,,,2.4,0.75,0,2,4,4067150036,1035540,200929,14c,22v2,40.7180317,-73.8149749
QN,6715,30,408,24,11367,147-22 UNION TURNPIKE,R4,C0,2,X,ST JOHN'S UNIVERSITY,ST JOHN'S UNIVERSITY,1494,3412,0,3412,0,0,0,0,0,0,1,3,3,3,29,51.5,29,41.5,23700,88200,2004,0,0,,,2.28,0.75,0,2,4,4067150030,1035710,200999,14c,22v2,40.7182228,-73.8143611
QN,6715,32,408,24,11367,147-20 UNION TURNPIKE,R4,C0,2,X,ST JOHN'S UNIVERSITY,ST JOHN'S UNIVERSITY,1494,3412,0,3412,0,0,0,0,0,0,1,3,3,3,29,51.5,29,41.5,23700,88200,2004,0,0,,,2.28,0.75,0,2,4,4067150032,1035637,200972,14c,22v2,40.7181492,-73.8146246
QN,6715,34,408,24,11367,147-10 UNION TURNPIKE,R4,C0,2,X,ST JOHN'S UNIVERSITY,ST JOHN'S UNIVERSITY,1494,3412,0,3412,0,0,0,0,0,0,1,3,3,3,29,51.5,29,41.5,23700,88200,2004,0,0,,,2.28,0.75,0,2,4,4067150034,1035582,200952,14c,22v2,40.7180946,-73.8148232
QN,6715,33,408,24,11367,147-12 UNION TURNPIKE,R4,C0,2,X,ST JOHN'S UNIVERSITY,ST JOHN'S UNIVERSITY,1494,3412,0,3412,0,0,0,0,0,0,1,3,3,3,29,51.5,29,41.5,23700,88200,2004,0,0,,,2.28,0.75,0,2,4,4067150033,1035610,200962,14c,22v2,40.7181219,-73.8147221
QN,6715,29,408,24,11367,147-24 UNION TURNPIKE,R4,C0,2,X,ST JOHN'S UNIVERSITY,ST JOHN'S UNIVERSITY,1494,3412,0,3412,0,0,0,0,0,0,1,3,3,3,29,51.5,29,41.5,23700,88200,2004,0,0,,,2.28,0.75,0,2,4,4067150029,1035737,201009,14c,22v2,40.7182501,-73.8142636
QN,6715,31,408,24,11367,147-20 UNION TURNPIKE,R4,C0,2,X,"ST. JOHN'S UNIVERSITY, NEW YORK",ST JOHN'S UNIVERSITY,1494,3412,0,3412,0,0,0,0,0,0,1,3,3,3,29,51.5,29,41.5,23700,88200,2004,0,0,,,2.28,0.75,0,2,4,4067150031,1035683,200989,14c,22v2,40.7181956,-73.8144586
QN,9889,1,408,24,11432,84-01 HOMELAWN STREET,R1-2,A1,1,X,ST JOHN'S UNIVERSITYNY,ST JOHN'S UNIVERSITY,8120,3382,0,3382,0,0,0,0,0,0,1,2.5,1,1,70,116,28,56,20700,103980,1930,0,0,,,0.42,0.5,0,1,4,4098890001,1041919,200420,14c,22v2,40.7165953,-73.7919675
MN,640,68,102,3,10014,28 BETHUNE STREET,R6,C0,2,X,NEW YORK UNIVERSITYSCHOOL OF LAW FOUNDAT ION,NEW YORK UNIVERSITY,1689,3360,0,2520,0,0,0,0,0,0,1,3,3,3,21,80.42,21,40,174960,587700,1845,0,0,Greenwich Village Historic District,,1.99,2.43,0,4.8,1,1006400068,982235,207836,12a,22v2,40.7371382,-74.0072711
BK,2118,4,302,35,11217,107 SOUTH OXFORD STREET,R6B,B9,1,,NEW YORK UNIVERSITY SCHOOL OF LAW FOUNDA TION,NEW YORK UNIVERSITY,2000,3200,0,2400,0,0,0,0,0,0,1,3,2,2,20,100,20,40,40680,258540,1900,2004,0,,,1.6,2,0,2,3,3021180004,991693,189353,16c,22v2,40.6864038,-73.9731627
SI,613,16,501,49,10301,141 HOWARD AVENUE,R1-1,A3,1,X,WAGNER COLLEGE,WAGNER COLLEGE,37100,2913,0,2913,0,0,0,0,0,0,1,1,1,1,125.05,301.61,78,33,42720,83340,1950,2007,2007,,,0.08,0.5,0,1,5,5006130016,959764,167687,21c,22v2,40.6269047,-74.0882109
MN,2156,143,112,10,10033,10 WASHINGTON TERRACE,R7-2,B9,1,,YESHIVA UNIVERSITY,YESHIVA UNIVERSITY,1109,2695,0,2130,0,0,0,0,0,0,1,3,2,2,17.75,62.5,17.75,40,24480,99060,1910,0,0,,,2.43,3.44,0,6.5,1,1021560143,1003678,249439,3a,22v2,40.851306,-73.9297745
QN,6809,7,408,24,11367,153-07 76 ROAD,R4,C0,2,X,TOURO COLLEGE,TOURO COLLEGE,3923,2520,0,2520,0,0,0,0,0,0,1,3,3,3,36.66,107,21,57,20940,78360,2009,0,0,,,0.64,0.75,0,2,4,4068090007,1036166,203153,14c,22v2,40.7241324,-73.8126995
BK,5245,8,314,45,11210,2401 GLENWOOD ROAD,R3X,S1,4,X,BROOKLYN COLLEGE,BROOKLYN COLLEGE,5000,2435,975,1460,975,0,0,0,0,0,2,2.5,1,2,50,100,23,50,17580,66840,1930,0,0,,,0.49,0.5,0,1,3,3052450008,997077,170113,23a,22v2,40.6335881,-73.9537861
QN,6517,60,408,24,11367,65-36 KISSENA BOULEVARD,R4,W6,8,O,QUEENS COLLEGE,QUEENS COLLEGE,2407,2407,2407,0,0,0,0,0,0,2407,1,1,0,1,38,67,45,52,40050,244350,1971,0,0,,,1,0.75,0,2,4,4065170060,1034757,207908,14c,22v2,40.7371918,-73.8177471
BX,3273,204,206,15,10458,2535 CAMBRELENG AVENUE,C4-5D,C0,2,,FORDHAM UNIVERSITY,FORDHAM UNIVERSITY,2500,2400,0,1600,0,0,0,0,0,0,1,2,3,3,25,100,20,40,11280,51060,1920,0,0,,,0.96,4.2,4.2,4.2,2,2032730204,1016742,251998,3c,22v2,40.8582913,-73.8825402
QN,7021,137,408,24,11432,170-25 GRAND CENTRAL PKWY,R3X,A1,1,X,ST JOHN'S UNIVERSITY,ST JOHN'S UNIVERSITY,6000,2368,0,2368,0,0,0,0,0,0,1,2,1,1,60,100,36,37,23820,80820,1950,0,0,,,0.39,0.5,0,1,4,4070210137,1041052,201295,14c,22v2,40.7190026,-73.7950877
BX,4226,419,211,13,10461,1842 EASTCHESTER ROAD,M1-1,G1,10,X,ALBERT EINSTEIN COLLEGE OF MEDICINE,ALBERT EINSTEIN COLLEGE OF MEDICINE,16525,2360,2360,0,0,0,2360,0,0,0,1,1,0,1,25.67,177.5,40,59,108000,226350,1949,0,0,,,0.14,0,1,2.4,2,2042260419,1027347,248986,4a,22v2,40.8499788,-73.8442222
QN,6517,55,408,24,11367,65-34 KISSENA BOULEVARD,R4,W6,8,O,QUEENS COLLEGE,QUEENS COLLEGE,1845,2340,2340,0,0,0,0,0,0,2340,1,2,0,1,67,38,38,67,33300,226800,1959,0,0,,,1.27,0.75,0,2,4,4065170055,1034745,208004,14c,22v2,40.7374554,-73.8177897
BX,3273,207,206,15,10458,2541 CAMBRELENG AVENUE,C4-5D,B2,1,X,FORDHAM UNIVERSITY,FORDHAM UNIVERSITY,2508,2320,0,2320,0,0,0,0,0,0,1,2,2,2,25.08,100,20,58,10680,51660,1920,0,0,,,0.93,4.2,4.2,4.2,2,2032730207,1016783,252061,3c,22v2,40.858464,-73.8823917
BK,1917,5,302,35,11205,263 WAVERLY AVENUE,R6B,A9,1,X,ST. JOSEPHS COLLEGENEW YORK,ST JOSEPH'S COLLEGE,5000,2250,0,2250,0,0,0,0,0,0,1,4,1,1,25,200,25,50,40680,164100,1909,1968,0,Clinton Hill Historic District,,0.45,2,0,2,3,3019170005,993389,190728,16c,22v2,40.6901763,-73.9670455
BX,4120,19,211,13,10461,1213 VAN NEST AVENUE,R4,B1,1,,ALBERT EINSTEIN COLLEGE OF MEDICINE,ALBERT EINSTEIN COLLEGE OF MEDICINE,2042,2208,0,1392,0,0,0,0,0,0,1,2,2,2,20.42,100,16,36,9600,39360,1935,0,0,,,1.08,0.75,0,2,2,2041200019,1026479,249117,4a,22v2,40.8503426,-73.8473588
QN,9889,72,408,24,11432,84-15 KENDRICK PLACE,R1-2,A1,1,X,ST JOHNS UNIVERSITY,ST JOHN'S UNIVERSITY,6850,2110,0,2110,0,0,0,0,0,0,2,2.5,1,1,50,137,28,36,21120,64920,1930,0,0,,,0.31,0.5,0,1,4,4098890072,1042010,200418,14c,22v2,40.7165893,-73.7916393
MN,2156,144,112,10,10033,12 WASHINGTON TERRACE,R7-2,B1,1,,YESHIVA UNIVERSITY,YESHIVA UNIVERSITY,1109,2040,0,2040,0,0,0,0,0,0,1,3,2,2,17.75,62.5,17.75,62.5,21720,85440,1910,0,0,,,1.84,3.44,0,6.5,1,1021560144,1003670,249424,3a,22v2,40.8512648,-73.9298034
BX,3273,233,206,15,10458,2535 BELMONT AVENUE,R6B,C0,2,,FORDHAM UNIVERSITY,FORDHAM UNIVERSITY,2185,2000,0,2000,0,0,0,0,0,0,1,2,3,3,25,87.42,20,50,7740,43680,1920,0,0,,,0.92,2,0,2,2,2032730233,1016551,252149,3c,22v2,40.8587064,-73.88323
BX,3273,315,206,15,10458,540 EAST 191 STREET,R6B,B2,1,,FORDHAM UNIVERSITY,FORDHAM UNIVERSITY,1658,1984,0,1984,0,0,0,0,0,0,1,2,2,2,16.58,100,16.58,60,7320,36660,1910,0,0,,,1.2,2,0,2,2,2032730315,1015649,252525,3c,22v2,40.8597417,-73.886489
MN,1986,1,109,7,10027,3260 BROADWAY,C6-1,G4,7,,THE TRUSTEES OF COLUMBIA UNIVERSITY,COLUMBIA UNIVERSITY,9985,"  1,950 ",1950,0,0,0,1950,0,0,0,1,1,0,1,100,99.83,30,65,337050,888750,1966,0,0,,,0.2,3.44,6,6.5,1,1019860001,996318,237147,6a,22v2,40.8175811,-73.9564004
BX,3273,332,206,15,10458,2535 HUGHES AVENUE,R6,A1,1,X,FORDHAM UNIVERSITY,FORDHAM UNIVERSITY,6250,1893,0,1893,0,0,0,0,0,0,3,2.5,1,1,50,125,18,35,14040,49320,1920,0,0,,,0.3,2.43,0,4.8,2,2032730332,1016338,252275,3c,22v2,40.859053,-73.8839994
QN,7021,131,408,24,11432,170-45 GRAND CENTRAL PKWY,R3X,A2,1,X,ST JOHN'S UNIVERSITY,ST JOHN'S UNIVERSITY,4000,1890,0,1350,0,0,0,0,0,0,1,1.5,1,1,40,100,20,54,19860,60540,1955,0,0,,,0.47,0.5,0,1,4,4070210131,1041213,201323,14c,22v2,40.7190784,-73.7945067
MN,1884,42,109,7,10025,514 WEST 113 STREET,R8,O1,5,X,TRUSTEES OF COLUMBIA UNIVERSITY,COLUMBIA UNIVERSITY,2523,"  1,875 ",1875,0,1875,0,0,0,0,0,1,1,0,1,25,100.92,25,76,45000,215550,1910,0,0,,,0.74,6.02,0,6.5,1,1018840042,994351,232589,5c,22v2,40.8050732,-73.9635137
SI,630,163,501,49,10301,193 LONGVIEW ROAD,R1-2,A1,1,X,WAGNER COLLEGE,WAGNER COLLEGE,13287,1813,0,1813,0,0,0,0,0,0,2,1.67,1,1,222,107,36,38,27660,43620,1950,0,0,,,0.14,0.5,0,1,5,5006300163,958155,162301,21b,22v2,40.6121167,-74.0939865
BX,4209,1,211,13,10461,1864 EASTCHESTER ROAD,M1-1,G1,10,X,ALBERT EINSTEIN COLLEGE OF MEDICINE,ALBERT EINSTEIN COLLEGE OF MEDICINE,7500,1800,1800,0,0,0,1800,0,0,0,1,1,0,1,100,75,63,28.67,67500,139050,1957,0,0,,,0.24,0,1,2.4,2,2042090001,1027304,249195,4a,22v2,40.8505527,-73.8443763
BK,225,10,302,33,11201,28 ORANGE STREET,R6,A4,1,,NEW YORK UNIVERSITY SCHOOL OF LAW FOUNDA TION,NEW YORK UNIVERSITY,1017,1800,0,1800,0,0,0,0,0,0,1,3,1,1,20,50.83,20,30,44160,195480,1853,1995,0,Brooklyn Heights Historic District,,1.77,2.43,0,4.8,3,3002250010,985755,194016,12d,22v2,40.6992057,-73.9945724
BX,4120,18,211,13,10461,1215 VAN NEST AVENUE,R4,A5,1,,ALBERT EINSTEIN COLLEGE OF MEDICINE,ALBERT EINSTEIN COLLEGE OF MEDICINE,2042,1728,0,1152,0,0,0,0,0,0,1,2,1,1,20.42,100,16,36,8340,33120,1935,0,0,,,0.85,0.75,0,2,2,2041200018,1026497,249126,4a,22v2,40.8503672,-73.8472937
BX,4120,20,211,13,10461,1211 VAN NEST AVENUE,R4,A5,1,,ALBERT EINSTEIN COLLEGE OF MEDICINE,ALBERT EINSTEIN COLLEGE OF MEDICINE,2042,1728,0,1152,0,0,0,0,0,0,1,2,1,1,20.42,100,16,36,8400,33060,1935,0,0,,,0.85,0.75,0,2,2,2041200020,1026460,249108,4a,22v2,40.850318,-73.8474276
QN,7021,140,408,24,11432,170-19 GRAND CENTRAL PKWY,R3X,A1,1,X,ST JOHN'S UNIVERSITY,ST JOHN'S UNIVERSITY,6000,1668,0,1668,0,0,0,0,0,0,1,2,1,1,60,100,31,36,21420,65220,1950,0,0,,,0.28,0.5,0,1,4,4070210140,1040995,201274,14c,22v2,40.7189453,-73.7952935
BX,3273,205,206,15,10458,2537 CAMBRELENG AVENUE,C4-5D,C0,2,,FORDHAM UNIVERSITY,FORDHAM UNIVERSITY,2333,1600,0,1600,0,0,0,0,0,0,1,2,3,3,23.33,100,20,40,10800,33660,1920,0,0,,,0.69,4.2,4.2,4.2,2,2032730205,1016755,252019,3c,22v2,40.8583489,-73.8824931
BK,6741,24,314,48,11230,1340 EAST 13 STREET,R6,A1,1,X,GAMLA COLLEGE INC C/O,GAMLA COLLEGE,4800,1444,0,1444,0,0,0,0,0,0,2,2,1,1,49.67,132.08,37,18,35040,71580,1920,0,0,,,0.3,2.43,0,4.8,3,3067410024,994825,164032,22d,22v2,40.6169,-73.9619092
MN,550,18,102,1,10003,62 WASHINGTON MEWS,R6,A4,1,X,NEW YORK UNIVERSITY,NEW YORK UNIVERSITY,706,1400,0,1400,0,0,0,0,0,0,1,2,1,1,25,28.25,25,28,75060,273720,1833,0,0,Greenwich Village Historic District,,1.98,2.43,0,4.8,1,1005500018,985359,205847,12c,22v2,40.731679,-73.9959985
MN,550,17,102,1,10003,60 WASHINGTON MEWS,R6,A4,1,,NEW YORK UNIVERSITY,NEW YORK UNIVERSITY,706,1400,0,1400,0,0,0,0,0,0,1,2,1,1,25,28.25,25,28,75060,273720,1833,0,0,Greenwich Village Historic District,,1.98,2.43,0,4.8,1,1005500017,985381,205835,12c,22v2,40.7316461,-73.9959192
MN,550,16,102,1,10003,58 WASHINGTON MEWS,R6,A4,1,X,NEW YORK UNIVERSITY,NEW YORK UNIVERSITY,706,1400,0,1400,0,0,0,0,0,0,1,2,1,1,25,28.25,25,28,75060,273720,1833,0,0,Greenwich Village Historic District,,1.98,2.43,0,4.8,1,1005500016,985403,205823,12c,22v2,40.7316131,-73.9958398
BX,3273,236,206,15,10458,2540 HUGHES AVENUE,R6B,A5,1,,FORDHAM UNIVERSITY,FORDHAM UNIVERSITY,1238,1380,0,1380,0,0,0,0,0,0,1,2,1,1,14.17,87.42,14.17,42,6840,28380,1910,0,0,,,1.11,2,0,2,2,2032730236,1016497,252233,3c,22v2,40.8589372,-73.8834248
BX,4090,37,211,13,10461,1193 SACKET AVENUE,R4A,A1,1,X,ALBERT EINSTEIN COLLEGE OF MEDICINE,ALBERT EINSTEIN COLLEGE OF MEDICINE,3404,1328,0,1328,0,0,0,0,0,0,2,2,1,1,28.93,119.86,16,36,8760,34440,1925,0,0,,,0.39,0.75,0,2,2,2040900037,1026755,248149,4b,22v2,40.8476844,-73.8463673
BX,3273,206,206,15,10458,2539 CAMBRELENG AVENUE,C4-5D,B2,1,,FORDHAM UNIVERSITY,FORDHAM UNIVERSITY,2467,1296,0,1296,0,0,0,0,0,0,1,2,2,2,24.67,100,18,36,11760,38460,1920,0,0,,,0.53,4.2,4.2,4.2,2,2032730206,1016769,252039,3c,22v2,40.8584037,-73.8824424
BK,6741,29,314,48,11230,1216 ELM AVENUE,R6,B2,1,X,GAMLA COLLEGE,GAMLA COLLEGE,4000,1152,0,1152,0,0,0,0,0,0,1,2,2,2,40,100.08,18,32,26520,50880,1930,0,0,,,0.29,2.43,0,4.8,3,3067410029,994792,164032,22d,22v2,40.6169001,-73.9620281
BX,3273,238,206,15,10458,2534 HUGHES AVENUE,R6B,A5,1,,FORDHAM UNIVERSITY,FORDHAM UNIVERSITY,1238,1140,0,1140,0,0,0,0,0,0,1,2,1,1,14.17,87.42,14.17,42,6960,31680,1910,0,0,,,0.92,2,0,2,2,2032730238,1016474,252197,3c,22v2,40.8588384,-73.8835081
BX,3273,638,206,15,10458,2532 HUGHES AVENUE,R6B,A5,1,,FORDHAM UNIVERSITY,FORDHAM UNIVERSITY,1238,1140,0,1140,0,0,0,0,0,0,1,2,1,1,14.17,87.42,14.17,42,6960,31680,1910,0,0,,,0.92,2,0,2,2,2032730638,1016467,252185,3c,22v2,40.8588055,-73.8835335
BX,3273,237,206,15,10458,2538 HUGHES AVENUE,R6B,A5,1,,FORDHAM UNIVERSITY,FORDHAM UNIVERSITY,1231,1140,0,1140,0,0,0,0,0,0,1,2,1,1,14.08,87.42,14.08,42,6960,31680,1910,0,0,,,0.93,2,0,2,2,2032730237,1016489,252221,3c,22v2,40.8589043,-73.8834538
BX,3273,637,206,15,10458,2536 HUGHES AVENUE,R6B,A5,1,,FORDHAM UNIVERSITY,FORDHAM UNIVERSITY,1238,1140,0,1140,0,0,0,0,0,0,1,2,1,1,14.17,87.42,14.17,42,6960,31680,1910,0,0,,,0.92,2,0,2,2,2032730637,1016482,252209,3c,22v2,40.8588714,-73.8834791
BK,1915,47,302,35,11205,254 CLINTON AVENUE,R6B,W6,8,X,ST JOSEPH'S COLLEGE,ST JOSEPH'S COLLEGE,1778,1117,1117,0,0,0,0,0,0,1117,1,1,0,1,19.75,90,19.75,45,24750,145800,1960,0,0,Clinton Hill Historic District,,0.63,2,0,2,3,3019150047,992929,190894,16c,22v2,40.6906324,-73.968704
MN,1998,16,109,7,10027,633 WEST 131 STREET,C6-1,F2,6,X,THE TRUSTEES OF COLUMBIA UNIVERSITY,COLUMBIA UNIVERSITY,2498,"  1,000 ",1000,0,0,0,0,0,1000,0,1,1,0,1,25,99.92,25,50,31050,58950,1930,0,0,,,0.4,3.44,6,6.5,1,1019980016,995804,237432,5c,22v2,40.8183641,-73.9582569
BX,4115,1,211,13,10461,1160 MORRIS PARK AVENUE,R4,G7,10,X,YESHIVA UNIVERSITY,YESHIVA UNIVERSITY,20000,32,32,0,0,0,0,0,0,32,1,1,0,0,200,100,4,8,493200,494550,1930,0,0,,,0,0.75,0,2,2,2041150001,1025770,249228,4a,22v2,40.8506506,-73.8499209
BX,4226,422,211,13,10461,1850 EASTCHESTER ROAD,M1-1,V6,11,X,ALBERT EINSTEIN COLLEGE OF MEDICINE,ALBERT EINSTEIN COLLEGE OF MEDICINE,4156,0,,,,,,,,,0,,0,0,51.6,89.49,0,0,61200,61200,0,0,0,,,0,0,1,2.4,2,2042260422,1027283,249064,4a,22v2,40.8501932,-73.844453
BX,4120,17,211,13,10461,1217 VAN NEST AVENUE,R4,G7,10,X,ALBERT EINSTEIN COLLEGE OF MEDICINE,ALBERT EINSTEIN COLLEGE OF MEDICINE,2042,0,,,,,,,,,0,,0,0,20.42,100,0,0,40950,40950,0,0,0,,,0,0.75,0,2,2,2041200017,1026514,249134,4a,22v2,40.8503891,-73.8472322
BX,4226,420,211,13,10461,1848 EASTCHESTER ROAD,M1-1,V6,11,X,ALBERT EINSTEIN COLLEGE OF MEDICINE,ALBERT EINSTEIN COLLEGE OF MEDICINE,3519,0,,,,,,,,,0,,0,0,51.6,76.74,0,0,51750,51750,0,0,0,,,0,0,1,2.4,2,2042260420,1027268,249016,4a,22v2,40.8500616,-73.8445076
BX,4120,8,211,13,10461,1228 MORRIS PARK AVENUE,R4,G7,10,X,ALBERT EINSTEIN COLLEGE OF MEDICINE,ALBERT EINSTEIN COLLEGE OF MEDICINE,17922,0,,,,,,,,,0,,0,0,99.75,90,0,0,441900,441900,0,0,0,,,0,0.75,0,2,2,2041200008,1026426,249252,4a,22v2,40.8507134,-73.8475496
BX,4120,7,211,13,10461,1216 MORRIS PARK AVENUE,R4,G7,10,X,ALBERT EINSTEIN COLLEGE OF MEDICINE,ALBERT EINSTEIN COLLEGE OF MEDICINE,2250,0,,,,,,,,,0,,0,0,25,90,0,0,45450,45450,0,0,0,,,0,0.75,0,2,2,2041200007,1026347,249296,4a,22v2,40.8508345,-73.8478348
BX,4203,81,211,13,10461,MORRIS PARK AVENUE,R4,V1,11,X,ALBERT EINSTEIN COLLEGE OF MEDICINE,ALBERT EINSTEIN COLLEGE OF MEDICINE,60,0,,,,,,,,,0,,0,0,1,60,0,0,1305,1305,0,0,0,,,0,0.75,0,2,2,2042030081,1026217,249473,4a,22v2,40.851321,-73.8483036
BX,4120,16,211,13,10461,1219 VAN NEST AVENUE,R4,G7,10,X,ALBERT EINSTEIN COLLEGE OF MEDICINE,ALBERT EINSTEIN COLLEGE OF MEDICINE,1825,0,,,,,,,,,0,,0,0,18.25,100,0,0,36900,36900,0,0,0,,,0,0.75,0,2,2,2041200016,1026531,249143,4a,22v2,40.8504137,-73.8471707
BX,4090,17,211,13,10461,1190 PIERCE AVENUE,R4A,V0,11,X,ALBERT EINSTEIN COLLEGE OF MEDICINE,ALBERT EINSTEIN COLLEGE OF MEDICINE,5777,0,,,,,,,,,2,,0,0,57.77,100.31,0,0,18540,18540,0,0,0,,,0,0.75,0,2,2,2040900017,1026692,248238,4b,22v2,40.847929,-73.8465945
BX,4120,12,211,13,10461,NEWPORT AVENUE,R4,G7,10,X,ALBERT EINSTEIN COLLEGE OF MEDICINE,ALBERT EINSTEIN COLLEGE OF MEDICINE,680,0,,,,,,,,,0,,0,0,39.42,33.75,0,0,13500,13500,0,0,0,,,0,0.75,0,2,2,2041200012,1026467,249259,4a,22v2,40.8507324,-73.8474013
BX,3247,9110,,,,PAUL AVENUE,,V3,11,X,BRONX COMM COLLEGE,BRONX COMM COLLEGE,135400,0,,,,,,,,,0,,0,0,480,134.08,0,0,0,0,0,0,0,,,0,0,0,0,2,2032479110,,,,22v2,,
MN,1373,20,108,5,10044,SOUTH LOOP ROAD,C4-5,V1,11,C,CORNELL UNIVERSITY,CORNELL UNIVERSITY,286626,0,,,,,,,,,0,,0,0,808.41,364.48,0,0,35541450,35541450,0,0,0,,,0,3.44,3.4,6.5,1,1013730020,996134,213959,8d,22v2,40.7539365,-73.9571062
MN,1373,25,108,5,10044,WEST LOOP ROAD,C4-5,V1,11,C,CORNELL UNIVERSITY,CORNELL UNIVERSITY,43277,0,,,,,,,,,0,,0,0,251.64,489.64,0,0,7995600,7995600,0,0,0,,,0,3.44,3.4,6.5,1,1013730025,996266,214325,8d,22v2,40.7549409,-73.9566291
BX,3273,102,206,15,10458,401 EAST FORDHAM ROAD,R6,V0,11,X,FORDHAM UNIVERSITY,FORDHAM UNIVERSITY,3911,0,,,,,,,,,0,,0,0,62.44,60.37,0,0,10260,10260,0,0,0,,,0,2.43,0,4.8,2,2032730102,1014611,253113,3c,22v2,40.8613592,-73.8902388
MN,1132,22,107,3,10023,156 WEST 61 STREET,C4-7,V1,11,X,FORDHAM UNIVERSITY,FORDHAM UNIVERSITY,10801,0,,,,,,,,,0,,0,0,131.42,108.33,0,0,8510850,8510850,0,0,0,,,0,10,10,10,1,1011320022,987986,220298,8c,22v2,40.7713426,-73.9865119
BX,3273,175,206,15,10458,691 EAST FORDHAM ROAD,C4-5D,G7,10,X,FORDHAM UNIVERSITY,FORDHAM UNIVERSITY,15015,0,,,,,,,,,0,,0,0,91,165,0,0,447750,447750,0,0,0,,,0,4.2,4.2,4.2,2,2032730175,1016904,251905,3c,22v2,40.8580354,-73.8819551
BX,3273,184,206,15,10458,2540 CAMBRELENG AVENUE,C4-5D,G7,10,X,FORDHAM UNIVERSITY,FORDHAM UNIVERSITY,5851,0,,,,,,,,,0,,0,0,58.51,100,0,0,153900,153900,0,0,0,,,0,4.2,4.2,4.2,2,2032730184,1016901,251965,3c,22v2,40.8582001,-73.8819656
BX,3273,343,206,15,10458,587 EAST 191 STREET,R6B,V0,11,X,FORDHAM UNIVERSITY,FORDHAM UNIVERSITY,5465,0,,,,,,,,,0,,0,0,34.5,158.42,0,0,16500,16500,0,0,0,,,0,2,0,2,2,2032730343,1016183,252372,3c,22v2,40.8593198,-73.8845593
BX,2343,9,201,17,10451,422 GRAND CONCOURSE,C4-4,G7,10,O,HOSTOS COMMUNITY COLLEGE,HOSTOS COMMUNITY COLLEGE,2642,0,,,,,,,,,0,,0,0,26.5,100,0,0,74700,74700,0,0,0,,,0,3.44,3.4,6.5,2,2023430009,1004249,236849,6a,22v2,40.8167488,-73.927748
BX,2343,1,201,17,10451,EAST 144 STREET,C4-4,G7,10,O,HOSTOS COMMUNITY COLLEGE,HOSTOS COMMUNITY COLLEGE,9743,0,,,,,,,,,0,,0,0,2.85,370.8,0,0,315900,315900,0,0,0,,,0,3.44,3.4,6.5,2,2023430001,1004393,236930,6a,22v2,40.8169708,-73.9272275
BK,2087,1,302,35,11201,161 ASHLAND PLACE,R6,G6,10,X,LONG ISLAND UNIVERSITY,LONG ISLAND UNIVERSITY,32800,0,,,,,,,,,1,,0,0,173.29,199.04,0,0,18450,354600,2004,0,0,,,0,2.43,0,4.8,3,3020870001,990031,190734,16c,22v2,40.6901956,-73.9791542
BX,5775,224,208,11,10463,3813 TIBBETT AVENUE,M1-1,G7,10,,MANHATTAN COLLEGE,MANHATTAN COLLEGE,2250,0,,,,,,,,,0,,0,0,25,90,0,0,30150,30150,0,0,0,,,0,0,1,2.4,2,2057750224,1011279,262309,1d,22v2,40.8866102,-73.9022476
BX,5775,204,208,11,10463,3820 IRWIN AVENUE,M1-1,V1,11,X,MANHATTAN COLLEGE,MANHATTAN COLLEGE,4500,0,,,,,,,,,1,,0,0,50,90,0,0,49050,49050,0,2018,0,,,0,0,1,2.4,2,2057750204,1011219,262378,1d,22v2,40.8867998,-73.9024643
BX,5775,222,208,11,10463,3815 TIBBETT AVENUE,M1-1,V1,11,,MANHATTAN COLLEGE,MANHATTAN COLLEGE,4500,0,,,,,,,,,4,,0,0,50,90,0,0,65700,65700,0,2018,0,,,0,0,1,2.4,2,2057750222,1011304,262337,1d,22v2,40.886687,-73.902157
BX,5775,213,208,11,10463,310 WEST 240 STREET,M1-1,V1,11,,MANHATTAN COLLEGE,MANHATTAN COLLEGE,15700,0,,,,,,,,,2,,0,0,144.08,133.25,0,0,212400,212400,0,2018,0,,,0,0,1,2.4,2,2057750213,1011339,262408,1d,22v2,40.8868817,-73.9020302
MN,535,20,102,1,10012,251 MERCER STREET,R7-2,V1,11,X,NEW YORK UNIVERSITY,NEW YORK UNIVERSITY,4393,0,,,,,,,,,0,,0,0,209.2,21,0,0,1491300,1491300,0,0,0,,,0,3.44,0,6.5,1,1005350020,985512,204713,12c,22v2,40.7285665,-73.9954467
MN,535,8020,,,,251 MERCER STREET,,V1,11,X,NEW YORK UNIVERSITY,NEW YORK UNIVERSITY,4393,0,,,,,,,,,0,,0,0,209.2,21,0,0,1069650,1069650,0,0,0,,,0,0,0,0,1,1005358020,,,,22v2,,
BX,5753,140,208,11,,RIVER ROAD,R1-1,V0,11,X,NYU SCHOOL OF LAW FOUNDATION,NEW YORK UNIVERSITY,87500,0,,,,,,,,,0,,0,0,175,500,0,0,8280,8280,0,0,0,,,0,0.5,0,1,2,2057530140,1005728,262159,1b,22v2,40.8862138,-73.9223236
QN,6715,25,408,24,11435,UNION TURNPIKE,R4,V0,11,X,ST JOHN'S UNIVERSITY,ST JOHN'S UNIVERSITY,7400,0,,,,,,,,,0,,0,0,20,71.75,0,0,0,0,0,0,0,,,0,0.75,0,2,4,4067150025,1035674,200958,14c,22v2,40.7181105,-73.8144913
BK,1915,13,302,35,11205,257 VANDERBILT AVENUE,R6B,G0,10,X,ST JOSEPH S COLLEGE,ST JOSEPH'S COLLEGE,2423,0,,,,,,,,,1,1,1,1,26.92,90,10,20,10920,17160,1970,0,0,,,0,2,0,2,3,3019150013,992843,190852,16c,22v2,40.6905172,-73.9690142
BK,1915,12,302,35,11205,259 VANDERBILT AVENUE,R6B,G0,10,X,ST JOSEPH S COLLEGE,ST JOSEPH'S COLLEGE,2363,0,,,,,,,,,1,1,2,2,26.25,90,25,20,10620,17580,1970,0,0,,,0,2,0,2,3,3019150012,992847,190825,16c,22v2,40.6904431,-73.9689998
BK,1917,7,302,35,11205,261 WAVERLY AVENUE,R6B,G7,10,X,ST JOSEPHS COLLEGE FOR WOMEN,ST JOSEPH'S COLLEGE,1000,0,,,,,,,,,0,,0,0,50,20,0,0,71550,71550,0,0,0,,,0,2,0,2,3,3019170007,993358,190838,16c,22v2,40.6904783,-73.9671571
MN,1480,119,108,5,10065,F D R DRIVE,R9,V1,11,X,THE ROCKEFELLER UNIVERSITY,THE ROCKEFELLER UNIVERSITY,56,0,,,,,,,,,0,,0,0,3.5,17,0,0,1485,1485,0,0,0,,,0,7.52,0,10,1,1014800119,996643,216745,9a,22v2,40.7615827,-73.9552639
MN,1480,118,108,5,10065,F D R DRIVE,R9,V1,11,X,THE ROCKEFELLER UNIVERSITY,THE ROCKEFELLER UNIVERSITY,56,0,,,,,,,,,0,,0,0,3.5,17,0,0,1485,1485,0,0,0,,,0,7.52,0,10,1,1014800118,996706,216815,9a,22v2,40.7617747,-73.9550364
MN,1480,116,108,5,10065,F D R DRIVE,R9,V1,11,X,THE ROCKEFELLER UNIVERSITY,THE ROCKEFELLER UNIVERSITY,56,0,,,,,,,,,0,,0,0,3.5,17,0,0,1485,1485,0,0,0,,,0,7.52,0,10,1,1014800116,996839,216969,9a,22v2,40.7621972,-73.954556
MN,1480,117,108,5,10065,F D R DRIVE,R9,V1,11,X,THE ROCKEFELLER UNIVERSITY,THE ROCKEFELLER UNIVERSITY,56,0,,,,,,,,,0,,0,0,3.5,17,0,0,1485,1485,0,0,0,,,0,7.52,0,10,1,1014800117,996769,216890,9a,22v2,40.7619805,-73.9548088
MN,1480,113,108,5,10065,F D R DRIVE,R9,V1,11,X,THE ROCKEFELLER UNIVERSITY,THE ROCKEFELLER UNIVERSITY,56,0,,,,,,,,,0,,0,0,3.5,17,0,0,1485,1485,0,0,0,,,0,7.52,0,10,1,1014800113,997018,217211,9a,22v2,40.7628612,-73.9539094
MN,1480,110,108,5,10065,FDR DRIVE,R9,V1,11,X,THE ROCKEFELLER UNIVERSITY,THE ROCKEFELLER UNIVERSITY,3142,0,,,,,,,,,0,,0,0,6,936,0,0,21150,21150,0,0,0,,,0,7.52,0,10,1,1014800110,997065,217443,9a,22v2,40.7634979,-73.9537393
MN,1480,8100,,,,,,V1,11,X,THE ROCKEFELLER UNIVERSITY,THE ROCKEFELLER UNIVERSITY,3312,0,,,,,,,,,0,,0,0,0,0,0,0,562050,562050,0,0,0,,,0,0,0,0,1,1014808100,,,,22v2,,
MN,1480,115,108,5,10065,F D R DRIVE,R9,V1,11,X,THE ROCKEFELLER UNIVERSITY,THE ROCKEFELLER UNIVERSITY,56,0,,,,,,,,,0,,0,0,3.5,17,0,0,1485,1485,0,0,0,,,0,7.52,0,10,1,1014800115,996906,217055,9a,22v2,40.7624332,-73.954314
MN,1480,111,108,5,10065,F D R DRIVE,R9,V1,11,X,THE ROCKEFELLER UNIVERSITY,THE ROCKEFELLER UNIVERSITY,60,0,,,,,,,,,0,,0,0,3.5,17,0,0,1485,1485,0,0,0,,,0,7.52,0,10,1,1014800111,997122,217367,9a,22v2,40.7632892,-73.9535336
MN,1480,120,108,5,10065,F D R DRIVE,R9,V1,11,X,THE ROCKEFELLER UNIVERSITY,THE ROCKEFELLER UNIVERSITY,56,0,,,,,,,,,0,,0,0,3.5,17,0,0,1485,1485,0,0,0,,,0,7.52,0,10,1,1014800120,996580,216673,9a,22v2,40.7613852,-73.9554915
MN,1480,8110,,,,,,V1,11,X,THE ROCKEFELLER UNIVERSITY,THE ROCKEFELLER UNIVERSITY,3337,0,,,,,,,,,0,,0,0,0,0,0,0,565650,565650,0,0,0,,,0,0,0,0,1,1014808110,,,,22v2,,
MN,1480,114,108,5,10065,F D R DRIVE,R9,V1,11,X,THE ROCKEFELLER UNIVERSITY,THE ROCKEFELLER UNIVERSITY,56,0,,,,,,,,,0,,0,0,3.5,17,0,0,1485,1485,0,0,0,,,0,7.52,0,10,1,1014800114,996964,217132,9a,22v2,40.7626444,-73.9541044
MN,1480,112,108,5,10065,F D R DRIVE,R9,V1,11,X,THE ROCKEFELLER UNIVERSITY,THE ROCKEFELLER UNIVERSITY,60,0,,,,,,,,,0,,0,0,3.5,17,0,0,1485,1485,0,0,0,,,0,7.52,0,10,1,1014800112,997074,217295,9a,22v2,40.7630917,-73.953707
MN,1976,19,109,7,10027,517 WEST 121 STREET,R8,V1,11,X,TEACHERS COLLEGE COLUMBIA UNIVERITY,COLUMBIA UNIVERSITY,12000,  -   ,,,,,,,,,1,,0,0,50,191.83,0,0,1197000,1197000,0,0,0,,,0,6.02,0,6.5,1,1019760019,995398,234696,5c,22v2,40.810855,-73.9597283
MN,1996,56,109,7,10027,651 WEST 125 STREET,C6-1,V1,11,X,THE TRUSTEES OF COLUMBIA UNIVERSITY,COLUMBIA UNIVERSITY,13492,  -   ,,,,,,,,,1,,0,0,111.58,120.92,0,0,1732050,1732050,0,0,0,,,0,3.44,6,6.5,1,1019960056,995419,237167,5c,22v2,40.8176372,-73.9596483
MN,1996,14,109,7,10027,637 WEST 125 STREET,C6-1,V1,11,,THE TRUSTEES OF COLUMBIA UNIVERSITY,COLUMBIA UNIVERSITY,23707,  -   ,,,,,,,,,0,,0,0,166.73,195.2,0,0,2333250,2333250,0,0,0,,,0,3.44,6,6.5,1,1019960014,995516,237077,5c,22v2,40.8173901,-73.959298
MN,1996,61,109,7,10027,663 WEST 125 STREET,C6-1,V1,11,X,THE TRUSTEES OF COLUMBIA UNIVERSITY,COLUMBIA UNIVERSITY,5025,  -   ,,,,,,,,,1,,0,0,139.42,71.25,0,0,742950,742950,0,0,0,,,0,3.44,6,6.5,1,1019960061,995343,237237,5c,22v2,40.8178294,-73.9599228
MN,1998,26,109,7,10027,605 WEST 131 STREET,C6-1,V1,11,X,THE TRUSTEES OF COLUMBIA UNIVERSITY,COLUMBIA UNIVERSITY,4996,  -   ,,,,,,,,,1,,0,0,50,99.92,0,0,643050,643050,0,0,0,,,0,3.44,6,6.5,1,1019980026,996034,237304,5c,22v2,40.8180124,-73.9574262
MN,1995,40,109,7,10027,614 WEST 125 STREET,R8,V1,11,X,THE TRUSTEES OF COLUMBIA UNIVERSITY IN T HE CITY OF,COLUMBIA UNIVERSITY,13975,  -   ,,,,,,,,,0,,0,0,125.67,150,0,0,275400,275400,0,0,0,,,0,6.02,0,6.5,1,1019950040,995535,236624,5c,22v2,40.8161467,-73.9592302
MN,2255,2000,112,10,10034,269 DYCKMAN STREET,PARK,Q1,9,M,TRUSTEE OF COLUMBIA UNIVERSITY NYC,COLUMBIA UNIVERSITY,11320000,  -   ,,,,,,,,,7,,0,0,1080.17,5000,0,0,51286500,54189000,0,0,0,,,0,0,0,0,1,1022552000,1004800,257521,1b,22v2,40.8734861,-73.925694
MN,1895,63,109,7,10025,WEST 114 STREET,R8,V1,11,,TRUSTEES OF COLUMBIA UNIVERSITY,COLUMBIA UNIVERSITY,2592,  -   ,,,,,,,,,0,,0,0,25.92,100,0,0,500850,500850,0,0,0,,,0,6.02,0,6.5,1,1018950063,993779,233207,5c,22v2,40.80677,-73.965579
MN,1867,33,109,7,10025,412 WEST 115 STREET,R8,V1,11,X,TRUSTEES OF COLUMBIA UNIVERSITY,COLUMBIA UNIVERSITY,3364,  -   ,,,,,,,,,0,,0,0,33.33,100.92,0,0,623250,623250,0,0,0,,,0,6.02,0,6.5,1,1018670033,995088,232779,5c,22v2,40.8055938,-73.9608513
MN,1895,68,109,7,10025,618 WEST 114 STREET,R8,V1,11,,TRUSTEES OF COLUMBIA UNIVERSITY,COLUMBIA UNIVERSITY,2523,  -   ,,,,,,,,,0,,0,0,25,100.92,0,0,487800,487800,0,0,0,,,0,6.02,0,6.5,1,1018950068,993669,233268,5c,22v2,40.8069376,-73.9659763
MN,1867,30,109,7,10025,408 WEST 115 STREET,R8,V1,11,X,TRUSTEES OF COLUMBIA UNIVERSITY,COLUMBIA UNIVERSITY,3364,  -   ,,,,,,,,,0,,0,0,33.33,100.92,0,0,623250,623250,0,0,0,,,0,6.02,0,6.5,1,1018670030,995147,232747,5c,22v2,40.8055059,-73.9606382
MN,1867,31,109,7,10025,410 WEST 115 STREET,R8,V1,11,X,TRUSTEES OF COLUMBIA UNIVERSITY,COLUMBIA UNIVERSITY,3364,  -   ,,,,,,,,,0,,0,0,33.33,100.92,0,0,623250,623250,0,0,0,,,0,6.02,0,6.5,1,1018670031,995119,232763,5c,22v2,40.8055498,-73.9607393
MN,1895,49,109,7,10025,611 WEST 113 STREET,R8,G7,10,X,TRUSTEES OF COLUMBIA UNIVERSITY,COLUMBIA UNIVERSITY,7500,  -   ,,,,,,,,,0,,0,0,75,100,0,0,1149750,1149750,0,0,0,,,0,6.02,0,6.5,1,1018950049,993642,233165,5c,22v2,40.8066549,-73.9660739
MN,1884,41,109,7,10025,WEST 113 STREET,R8,Q2,9,,TRUSTEES OF COLUMBIA UNIVERSITY,COLUMBIA UNIVERSITY,3213,  -   ,,,,,,,,,0,,0,0,31.83,100.92,0,0,375750,375750,0,0,0,,,0,6.02,0,6.5,1,1018840041,994375,232575,5c,22v2,40.8050347,-73.9634271
MN,2139,80,112,10,10032,WEST 168 STREET,R8,V6,11,X,TRUSTEES OF COLUMBIA UNIVERSITY,COLUMBIA UNIVERSITY,8550,  -   ,,,,,,,,,0,,0,0,41.08,34,0,0,844650,844650,0,0,0,,,0,6.02,0,6.5,1,1021390080,999952,246121,3b,22v2,40.8422065,-73.9432504
MN,1994,59,109,7,10027,179 CLAREMONT AVENUE,R8,V1,11,,TRUSTEES OF COLUMBIA UNIVERSITY,COLUMBIA UNIVERSITY,2500,  -   ,,,,,,,,,0,,0,0,25,100,0,0,331200,331200,0,0,0,,,0,6.02,0,6.5,1,1019940059,995075,235993,5c,22v2,40.8144153,-73.960893
MN,2123,36,112,10,10032,506 WEST 166 STREET,R7-2,V1,11,,TRUSTEES OF COLUMBIA UNIVERSITY,COLUMBIA UNIVERSITY,2625,  -   ,,,,,,,,,0,,0,0,25,107.83,0,0,225900,225900,0,0,0,,,0,3.44,0,6.5,1,1021230036,1001257,244847,3b,22v2,40.8387073,-73.9385372
MN,1998,24,109,7,10027,609 WEST 131 STREET,C6-1,V1,11,X,TRUSTEES OF COLUMBIA UNIVERSITY IN THE C ITY OF NEW,COLUMBIA UNIVERSITY,9992,  -   ,,,,,,,,,1,,0,0,50,199.83,0,0,1476900,1476900,0,0,0,,,0,3.44,6,6.5,1,1019980024,996014,237373,5c,22v2,40.8182019,-73.9574983
MN,2004,46,109,7,10027,2290 JOE DIMAGGIO HIGHWAY,M1-2,G7,10,,TRUSTEES OF COLUMBIA UNIVERSITY IN THE C ITY OF NEW,COLUMBIA UNIVERSITY,23657,  -   ,,,,,,,,,0,,0,0,101.25,208.58,0,0,902250,902250,0,0,0,,,0,0,2,4.8,1,1020040046,995197,237570,5c,22v2,40.8187436,-73.9604497
MN,1998,29,109,7,10027,3259 BROADWAY,C6-1,V1,11,X,TRUSTEES OF COLUMBIA UNIVERSITY IN THE C ITY OF NEW,COLUMBIA UNIVERSITY,19983,  -   ,,,,,,,,,1,,0,0,199.83,100,0,0,1356300,1356300,0,0,0,,,0,3.44,6,6.5,1,1019980029,996125,237311,5c,22v2,40.8180315,-73.9570974
MN,1998,1,109,7,10027,2301 JOE DIMAGGIO HIGHWAY,C6-1,V1,11,X,TRUSTEES OF COLUMBIA UNIVERSITY IN THE C ITY OF NEW,COLUMBIA UNIVERSITY,3000,  -   ,,,,,,,,,1,,0,0,30,100,0,0,176850,176850,0,0,0,,,0,3.44,6,6.5,1,1019980001,995489,237567,5c,22v2,40.818735,-73.9593948
MN,2004,68,109,7,10027,2298 JOE DIMAGGIO HIGHWAY,M1-2,G7,10,,TRUSTEES OF COLUMBIA UNIVERSITY IN THE C ITY OF NEW,COLUMBIA UNIVERSITY,3666,  -   ,,,,,,,,,0,,0,0,39.25,95.08,0,0,193950,193950,0,0,0,,,0,0,2,4.8,1,1020040068,995325,237661,5c,22v2,40.8189932,-73.9599871
MN,2004,71,109,7,10027,2302 JOE DIMAGGIO HIGHWAY,M1-2,G7,10,,TRUSTEES OF COLUMBIA UNIVERSITY IN THE C ITY OF NEW,COLUMBIA UNIVERSITY,6688,  -   ,,,,,,,,,0,,0,0,75.58,83.25,0,0,226350,226350,0,0,0,,,0,0,2,4.8,1,1020040071,995355,237710,5c,22v2,40.8191277,-73.9598787
MN,2004,171,109,7,10027,WEST 132 STREET,M1-2,G7,10,,TRUSTEES OF COLUMBIA UNIVERSITY IN THE C ITY OF NEW,COLUMBIA UNIVERSITY,975,  -   ,,,,,,,,,0,,0,0,14.08,75.58,0,0,43650,43650,0,0,0,,,0,0,2,4.8,1,1020040171,995309,237736,5c,22v2,40.8191991,-73.9600448
MN,1998,38,109,7,10027,602 WEST 132 STREET,C6-1,V1,11,,TRUSTEES OF COLUMBIA UNIVERSITY IN THE C ITY OF NEW,COLUMBIA UNIVERSITY,4996,  -   ,,,,,,,,,1,,0,0,50,99.92,0,0,107550,107550,0,0,0,,,0,3.44,6,6.5,1,1019980038,996082,237391,5c,22v2,40.8182512,-73.9572526
MN,1999,8001,,,,WEST 132 STREET,,Z9,,,TRUSTEES OF COLUMBIA UNIVERSITY IN THE C ITY OF NEW,COLUMBIA UNIVERSITY,46500,  -   ,,,,,,,,,0,,0,0,60,375,0,0,12000,17231,2021,0,0,,,0,0,0,0,1,1019998001,,,,22v2,,
MN,1998,3,109,7,10027,2307 JOE DIMAGGIO HIGHWAY,C6-1,V1,11,X,TRUSTEES OF COLUMBIA UNIVERSITY IN THE C ITY OF NEW,COLUMBIA UNIVERSITY,6992,  -   ,,,,,,,,,0,,0,0,69.92,100,0,0,612000,612000,0,0,0,,,0,3.44,6,6.5,1,1019980003,995513,237610,5c,22v2,40.818853,-73.959308
MN,2004,50,109,7,10027,WEST 131 STREET,M1-2,G7,10,,TRUSTEES OF COLUMBIA UNIVERSITY IN THE C ITY OF NEW,COLUMBIA UNIVERSITY,12362,  -   ,,,,,,,,,0,,0,0,60,203.42,0,0,376200,376200,0,0,0,,,0,0,2,4.8,1,1020040050,995252,237643,5c,22v2,40.8189439,-73.9602509
MN,2004,65,109,7,10027,2298 12 AVENUE,M1-2,G7,10,,TRUSTEES OF COLUMBIA UNIVERSITY IN THE C ITY OF NEW,COLUMBIA UNIVERSITY,20775,  -   ,,,,,,,,,0,,0,0,200.58,112.4,0,0,599850,599850,0,0,0,,,0,0,2,4.8,1,1020040065,995279,237779,5c,22v2,40.8193172,-73.9601531
MN,1867,29,109,7,10025,WEST 115 STREET,R8,G7,10,X,TRUSTEES OF COLUMBIAUNIVERSITY IN THE CI TY OF NY,COLUMBIA UNIVERSITY,6500,  -   ,,,,,,,,,0,,0,0,65.33,100.92,0,0,734400,734400,0,0,0,,,0,6.02,0,6.5,1,1018670029,995188,232724,5c,22v2,40.8054427,-73.9604901
SI,628,140,501,49,10301,144 CAMPUS ROAD,R3-1,V0,11,X,WAGNER COLLEGE,WAGNER COLLEGE,784000,0,,,,,,,,,0,,0,0,713,892,0,0,1961940,1961940,0,0,0,,,0,0.5,0,1,5,5006280140,957397,162386,21b,22v2,40.6123477,-74.0967169
SI,627,16,501,49,10304,CEDAR TERRACE,R3-1,V0,11,X,WAGNER COLLEGE,WAGNER COLLEGE,230000,0,,,,,,,,,0,,0,0,804,308,0,0,571020,571020,0,0,0,,,0,0.5,0,1,5,5006270016,959143,162657,21b,22v2,40.6130967,-74.0904293
MN,2149,9,112,10,10033,2465 AMSTERDAM AVENUE,R7-2,G7,10,X,YESHIVA UNIVERSITY,YESHIVA UNIVERSITY,5525,0,,,,,,,,,0,,0,0,35.58,150,0,0,309150,309150,0,0,0,,,0,3.44,0,6.5,1,1021490009,1003639,248510,3b,22v2,40.8487563,-73.9299181
MN,2157,60,112,10,10033,555 WEST 185 STREET,R7-2,G7,10,,YESHIVA UNIVERSITY,YESHIVA UNIVERSITY,2203,0,,,,,,,,,0,,0,0,20.5,107.42,0,0,299700,299700,0,0,0,,,0,3.44,0,6.5,1,1021570060,1003364,249519,3a,22v2,40.8515263,-73.9309092
MN,2157,65,112,10,10033,565 WEST 185 STREET,R7-2,G7,10,X,YESHIVA UNIVERSITY,YESHIVA UNIVERSITY,5650,0,,,,,,,,,1,,0,0,50.5,107.42,0,0,406350,409050,0,0,0,,,0,3.44,0,6.5,1,1021570065,1003264,249577,3a,22v2,40.8516857,-73.9312705
MN,2156,142,112,10,10033,6 WASHINGTON TERRACE,R7-2,V1,11,,YESHIVA UNIVERSITY,YESHIVA UNIVERSITY,1109,0,,,,,,,,,0,,0,0,17.75,62.5,0,0,175500,175500,0,0,0,,,0,3.44,0,6.5,1,1021560142,1003695,249471,3a,22v2,40.8513938,-73.9297129
BX,2331,36,201,17,10451,338 EAST 150 STREET,C4-4,G7,10,,YESHIVA UNIVERSITY,YESHIVA UNIVERSITY,7500,0,,,,,,,,,0,,0,0,50,100,0,0,289350,289350,0,0,0,,,0,3.44,3.4,6.5,2,2023310036,1006450,236984,6a,22v2,40.8171141,-73.9197959
BX,4085,4,211,13,10461,1140 SACKET AVENUE,R4,V0,11,X,YESHIVA UNIVERSITY,YESHIVA UNIVERSITY,80000,0,,,,,,,,,0,,0,0,80,1044.5,0,0,239880,239880,0,0,0,,,0,0.75,0,2,2,2040850004,1026785,247967,4b,22v2,40.8471847,-73.8462601
MN,2156,75,112,10,10033,528 WEST 187 STREET,R7-2,V1,11,,YESHIVA UNIVERSITY,YESHIVA UNIVERSITY,1444,0,,,,,,,,,1,,0,0,19.25,75,0,0,224550,224550,0,0,0,,,0,3.44,0,6.5,1,1021560075,1003797,249736,3a,22v2,40.8521209,-73.9293435
MN,2157,64,112,10,10033,563 WEST 185 STREET,R7-2,G7,10,X,YESHIVA UNIVERSITY,YESHIVA UNIVERSITY,2050,0,,,,,,,,,1,,0,0,19.75,103,0,0,137250,138150,0,0,0,,,0,3.44,0,6.5,1,1021570064,1003291,249557,3a,22v2,40.8516307,-73.931173
MN,2166,9,112,10,10033,WEST 185 STREET,R7-2,G7,10,,YESHIVA UNIVERSITY,YESHIVA UNIVERSITY,3996,0,,,,,,,,,0,,0,0,50,79.92,0,0,247950,247950,0,0,0,,,0,3.44,0,6.5,1,1021660009,1002786,249647,3a,22v2,40.8518788,-73.9329982
MN,2156,19,112,10,10033,2506 AMSTERDAM AVENUE,R7-2,V1,11,X,YESHIVA UNIVERSITY,YESHIVA UNIVERSITY,2500,0,,,,,,,,,0,,0,0,25,100,0,0,175050,175050,0,0,0,,,0,3.44,0,6.5,1,1021560019,1003700,249076,3a,22v2,40.8503096,-73.929696
MN,2156,6,112,10,10033,391 AUDUBON AVENUE,R7-2,G7,10,X,YESHIVA UNIVERSITY,YESHIVA UNIVERSITY,7592,0,,,,,,,,,0,,0,0,79.92,95,0,0,501300,501300,0,0,0,,,0,3.44,0,6.5,1,1021560006,1003486,249257,3a,22v2,40.8508069,-73.930469
QN,10117,25,412,28,11433,105-02 160 STREET,R6,V0,11,X,YORK COLLEGE-CUNY,YORK COLLEGE,2246,0,,,,,,,,,0,,0,0,25,89,0,0,10680,10680,0,0,0,,,0,2.43,0,4.8,4,4101170025,1040552,194461,14d,22v2,40.7002481,-73.7969486
BK,1893,11,302,35,11205,85 GRAND AVENUE,R7A,G7,10,,PRATT INSTITUTE,PRATT INSTITUTE,5000,0,,,,,,,,,0,,0,0,50,100,0,0,152100,152100,0,0,0,,,0,4,0,4,3,3018930011,994230,192419,12d,22v2,40.6948168,-73.9640104
BK,1920,1,302,35,11205,255 RYERSON STREET,R7-1,W9,8,X,PRATT INSTITUTE,PRATT INSTITUTE,140000,291041,227041,64000,170000,0,0,0,0,57041,6,2,0,3,200,291,42,72,1867500,35063550,1975,1998,0,Individual Landmark,INDIVIDUAL LANDMARK,2.08,3.44,0,4.8,3,3019200001,994263,191036,16c,22v2,40.6910208,-73.9638935
BK,1893,15,302,35,11205,79 GRAND AVENUE,R7A,F5,6,,PRATT INSTITUTE,PRATT INSTITUTE,2500,4625,4625,0,0,0,0,0,4625,0,1,2,0,1,25,100,25,100,22500,247500,1951,0,0,,,1.85,4,0,4,3,3018930015,994217,192507,12d,22v2,40.6950584,-73.9640572
BK,1893,10,302,35,11205,89 GRAND AVENUE,R7A,G7,10,,PRATT INSTITUTE,PRATT INSTITUTE,2500,0,,,,,,,,,0,,0,0,25,100,0,0,121950,121950,0,0,0,,,0,4,0,4,3,3018930010,994236,192382,12d,22v2,40.6947152,-73.9639888
BK,1919,50,302,35,11205,189 WILLOUGHBY AVENUE,R7-1,Z9,,X,PRATT INSTITUTE,PRATT INSTITUTE,32400,100,100,0,100,0,0,0,0,0,1,1,0,0,60,540,3,5,454500,494550,1950,0,0,,,0,3.44,0,4.8,3,3019190050,994089,191081,16c,22v2,40.6911445,-73.9645208
BK,1916,26,302,35,11205,229 CLINTON AVENUE,R6B,W3,8,X,PRATT INSTITUTE,PRATT INSTITUTE,18000,16136,16136,0,0,0,0,0,0,16136,1,3,0,1,100,180,50,75,253350,1127250,1895,1967,0,Clinton Hill Historic District,,0.9,2,0,2,3,3019160026,993154,191090,16c,22v2,40.6911702,-73.9678924
BK,1892,61,302,35,11205,98 GRAND AVENUE,R6B,C1,2,X,PRATT INSTITUTE,PRATT INSTITUTE,10000,25000,0,25000,0,0,0,0,0,0,1,4,25,25,100,100,50,100,58950,2071350,1946,2002,0,,,2.5,2,0,2,3,3018920061,994093,192273,12d,22v2,40.6944162,-73.9645047
BK,1909,15,302,35,11205,131 EMERSON PLACE,R6,H8,8,X,PRATT INSTITUTE,PRATT INSTITUTE,34700,66093,,,,,,,,,1,10,0,1,100,252,100,76,1311750,5009400,2018,0,0,,,1.9,2.43,0,4.8,3,3019090015,994927,191908,12d,22v2,40.6934134,-73.9614977
BK,1922,1,302,35,11205,225 STEUBEN STREET,R7-1,W6,8,X,PRATT INSTITUTE,PRATT INSTITUTE,156700,158540,104000,54540,104000,0,0,0,0,0,28,1,0,1,200,458,140,360.83,2200950,11560950,1972,2004,0,Individual Landmark,INDIVIDUAL LANDMARK,1.01,3.44,0,4.8,3,3019220001,994778,191107,16c,22v2,40.691215,-73.9620363
BK,1919,1,302,35,11205,166 WILLOUGHBY AVENUE,R7-1,W3,8,X,PRATT INSTITUTE,PRATT INSTITUTE,250000,76983,76983,0,0,0,0,0,0,76983,3,,0,3,200,698,0,0,3399750,9667800,0,0,0,Individual Landmark,INDIVIDUAL LANDMARK,0.31,3.44,0,4.8,3,3019190001,993974,190980,16c,22v2,40.6908674,-73.9649357
BK,1918,67,302,35,11205,HALL STREET,R6B,V0,11,X,PRATT INSTITUTE,PRATT INSTITUTE,3000,0,,,,,,,,,0,,0,0,58.25,51.5,0,0,21480,21480,0,0,0,,,0,2,0,2,3,3019180067,993838,190635,16c,22v2,40.6899206,-73.9654266
BK,1947,1,302,35,11238,65 ST JAMES PLACE,R6B,W6,8,X,PRATT INSTITUTE,PRATT INSTITUTE,30000,120000,120000,0,0,0,0,0,0,120000,1,4,0,1,200,150,200,150,422550,4101300,1924,1997,1999,Clinton Hill Historic District,,4,2,0,2,3,3019470001,994150,189937,16c,22v2,40.6880044,-73.9643025
BK,1921,19,302,35,11205,203 GRAND AVENUE,R7-1,W3,8,X,PRATT INSTITUTE,PRATT INSTITUTE,108000,91784,91784,0,0,0,0,0,0,91784,4,4,0,2,540,200,118,61,1516500,4875750,1928,0,0,,,0.85,3.44,0,4.8,3,3019210019,994506,191143,16c,22v2,40.6913142,-73.963017
BK,1893,38,302,35,11205,80 STEUBEN STREET,R7A,G1,10,,PRATT INSTITUTE,PRATT INSTITUTE,2500,2400,2400,0,0,0,2400,0,0,0,1,1,0,1,25,100,25,100,22500,117450,1955,0,0,,,0.96,4,0,4,3,3018930038,994319,192522,12d,22v2,40.6950994,-73.9636893
BK,1893,39,302,35,11205,82 STEUBEN STREET,R7A,Z9,,,PRATT INSTITUTE,PRATT INSTITUTE,2500,0,,,,,,,,,1,1,0,1,25,100,0,0,45000,47700,1995,0,0,,,0,4,0,4,3,3018930039,994323,192496,12d,22v2,40.6950281,-73.9636749
BK,1893,14,302,35,11205,81 GRAND AVENUE,R7A,F5,6,,PRATT INSTITUTE,PRATT INSTITUTE,2500,5000,5000,0,0,0,0,0,5000,0,1,2,0,1,25,100,25,100,22500,265500,1951,0,0,,,2,4,0,4,3,3018930014,994221,192482,12d,22v2,40.6949897,-73.9640428
BK,1919,100,302,35,11205,349 DEKALB AVENUE,R7-1,V0,11,,PRATT INSTITUTE,PRATT INSTITUTE,9300,0,,,,,,,,,0,,0,0,60,158,0,0,70680,70680,0,0,0,,,0,3.44,0,4.8,3,3019190100,994142,190734,16c,22v2,40.690192,-73.9643302
BK,1893,41,302,35,11205,STEUBEN STREET,R7A,G7,10,,PRATT INSTITUTE,PRATT INSTITUTE,2500,0,,,,,,,,,0,,0,0,25,100,0,0,121950,121950,0,0,0,,,0,4,0,4,3,3018930041,994330,192446,12d,22v2,40.6948908,-73.9636497
BK,1905,120,302,35,11205,215 WILLOUGHBY AVENUE,R7-1,D3,3,X,PRATT INSTITUTE,PRATT INSTITUTE,147860,402660,130660,272000,0,15000,0,0,0,115660,2,16,187,187,230,402,231,79,1332000,22813200,1957,0,0,,,2.72,3.44,0,4.8,3,3019050120,994486,191754,16c,22v2,40.6929912,-73.9630882
BK,1920,2,302,35,11205,249 RYERSON STREET,R7-1,D3,3,X,PRATT INSTITUTE,PRATT INSTITUTE,9122,46956,0,46956,0,0,0,0,0,0,3,6,45,45,86,105,86,91,390150,2386350,1905,0,0,,,5.15,3.44,0,4.8,3,3019200002,994218,190784,16c,22v2,40.6903291,-73.9640561
BK,1921,1,302,35,11205,333 WAVERLY AVENUE,R7-1,W6,8,X,PRATT INSTITUTE,PRATT INSTITUTE,15800,62000,62000,0,0,0,0,0,0,62000,1,5,0,1,158,100,158,50,222300,2052000,1925,0,0,,,3.92,3.44,0,4.8,3,3019210001,994479,190784,16c,22v2,40.6903288,-73.963115
BK,1921,64,302,35,11205,212 STEUBEN STREET,R7-1,W6,8,X,PRATT INSTITUTE,PRATT INSTITUTE,23700,96000,96000,0,0,0,0,0,0,96000,1,4,0,3,158,150,158,100,333450,4037400,1928,1997,0,,,4.05,3.44,0,4.8,3,3019210064,994603,190803,16c,22v2,40.6903808,-73.9626678
BK,1893,43,302,35,11205,STEUBEN STREET,R7A,G7,10,,PRATT INSTITUTE,PRATT INSTITUTE,2500,0,,,,,,,,,0,,0,0,25,100,0,0,121950,121950,0,0,0,,,0,4,0,4,3,3018930043,994338,192397,12d,22v2,40.6947563,-73.963621
BK,1892,71,302,35,11205,513 MYRTLE AVENUE,R7A,K1,5,,PRATT INSTITUTE,PRATT INSTITUTE,2746,1500,1500,0,0,1500,0,0,0,0,1,1,0,1,29.92,100.17,29,45,49500,266400,1985,0,0,,,0.55,4,0,4,3,3018920071,994137,192073,12d,22v2,40.6938672,-73.9643463
BK,1893,13,302,35,11205,83 GRAND AVENUE,R7A,G7,10,,PRATT INSTITUTE,PRATT INSTITUTE,2500,0,,,,,,,,,0,,0,0,25,100,0,0,121950,121950,0,0,0,,,0,4,0,4,3,3018930013,994225,192456,12d,22v2,40.6949184,-73.9640284
BK,1893,37,302,35,11205,78 STEUBEN STREET,R6B,G1,10,,PRATT INSTITUTE,PRATT INSTITUTE,2000,2000,2000,0,0,0,2000,0,0,0,1,1,0,1,20,100,20,50,18000,90450,1954,0,0,,,1,2,0,2,3,3018930037,994316,192543,12d,22v2,40.6951571,-73.9637001
BK,1893,40,302,35,11205,84 STEUBEN STREET,R7A,G7,10,,PRATT INSTITUTE,PRATT INSTITUTE,2500,0,,,,,,,,,0,,0,0,25,100,0,0,121950,121950,0,0,0,,,0,4,0,4,3,3018930040,994327,192471,12d,22v2,40.6949594,-73.9636605
BK,1893,42,302,35,11205,STEUBEN STREET,R7A,G7,10,,PRATT INSTITUTE,PRATT INSTITUTE,2500,0,,,,,,,,,0,,0,0,25,100,0,0,121950,121950,0,0,0,,,0,4,0,4,3,3018930042,994334,192422,12d,22v2,40.6948249,-73.9636354
MN,609,7503,102,3,10011,144 WEST 14 STREET,C6-2A,RC,5,,PRATT INSTITUTE,PRATT INSTITUTE,12906,83169,83169,0,0,83169,0,0,0,0,1,7,0,2,125,103.25,0,0,1462500,10724400,1896,0,0,Individual Landmark,INDIVIDUAL LANDMARK,6.44,6.02,6,6.5,1,1006097503,984541,208124,8d,22v2,40.7379289,-73.9989499
MN,538,7501,102,1,10012,58 WASHINGTON SQUARE S,R7-2,RA,8,X,UNAVAILABLE OWNER,New York University,12622,91104,91104,0,0,0,0,0,0,91104,1,7,0,2,75,209.42,209,75,2250000,15331050,2010,0,0,,,7.22,3.44,0,6.5,1,1005387501,984749,205191,12c,22v2,40.7298785,-73.9982
MN,546,35,102,1,10003,707 BROADWAY,C6-2G,W6,8,X,HEBREW UNION COLLEGE-JEWISH INSTITUTE OF RELIGION,New York University,11190,106063,106063,0,0,0,0,0,0,106063,1,10,0,1,49.25,200,49.25,200,1890000,8563050,1971,0,0,NoHo Historic District,,9.48,6.02,6,6.5,1,1005460035,985796,204859,12c,22v2,40.7289671,-73.994422
MN,790,7502,104,3,10011,125 WEST 14 STREET,C6-2A,RM,4,,UNAVAILABLE OWNER,New York University,46030,343534,65387,278147,0,0,0,0,0,65387,2,13,275,276,224.81,206.5,224.81,206.5,5069700,50020200,2001,2004,0,,,7.46,6.02,6,6.5,1,1007907502,984903,208215,8d,22v2,40.7381786,-73.997644
MN,879,7502,106,2,10010,316 3 AVENUE,C2-8A,RC,5,,UNAVAILABLE OWNER,New York University,14516,285499,18876,0,0,18876,0,0,0,0,1,21,0,306,172.81,84,172.81,84,2520000,25567201,2006,0,0,,,19.67,10,2,10,1,1008797502,988907,208615,8d,22v2,40.7392753,-73.983195
MN,927,38,106,2,10010,320 EAST 22 STREET,R8B,D3,3,,NEW YORK UNIVERSITY,New York University,15112,67048,3200,63848,0,0,3200,0,0,0,1,8,94,94,155,97.5,155,97,1467000,11883150,1948,1979,0,,,4.44,4,0,4,1,1009270038,989722,207604,12c,22v2,40.7364999,-73.980255
MN,930,38,106,2,10010,334 EAST 25 STREET,R8,H8,8,X,NEW YORK UNIVERSITY,New York University,7406,37800,,,,,,,,,1,6,0,1,75,98.75,75,84.25,1665000,2899800,1920,1986,0,,,5.1,6.02,0,6.5,1,1009300038,990211,208261,8d,22v2,40.7383029,-73.97849
MN,930,41,106,2,10010,330 EAST 25 STREET,R8,H8,8,X,NEW YORK UNIVERSITY,New York University,2469,9595,,,,,,,,,2,5,0,1,25,98.75,25,70,553500,808200,1910,0,0,,,3.89,6.02,0,6.5,1,1009300041,990166,208286,8d,22v2,40.7383716,-73.978652
MN,931,21,106,2,10010,334 EAST 26 STREET,R8,H8,8,X,NEW YORK UNIVERSITY,New York University,19750,140423,,,,,,,,,1,25,0,1,100,197.5,60,48,4446000,16163100,1984,0,0,,,7.11,6.02,0,6.5,1,1009310021,990321,208436,8d,22v2,40.7387832,-73.978093
MN,962,108,106,4,10016,540 1 AVENUE,R8,I5,8,,NEW YORK UNIVERSITY,New York University,58156,413850,413850,0,413850,0,0,0,0,0,1,24,0,1,291.96,254,0,0,10939050,55058850,1963,0,0,,,7.12,6.02,0,6.5,1,1009620108,991425,209624,8d,22v2,40.7420431,-73.974107
BK,142,7501,302,33,11201,JOHNSON STREET,C6-4,RB,5,C,NYC HOUSING PRESERVATION AND DEVELOPMENT,New York University,30100,107073,107073,0,0,107073,0,0,0,0,1,,0,2,215,140,0,0,3600000,12853351,1930,0,0,,,3.56,10,10,10,3,3001427501,988229,192344,12d,22v2,40.6946157,-73.985651
MN,1373,3,108,5,10044,465 MAIN STREET,R7-2,D3,3,C,SOUTHTOWN ASSOCIATES 2 LLC,CORNELL UNIVERSITY,52155,"144,000",0,144000,0,0,0,0,0,0,1,16,136,136,214,273,80,130,3217500,19219950,103,0,0,,,2.76,3.44,0,6.5,1,1013730003,997632,216091,9b,22v2,40.7597862,-73.951695
MN,1464,21,108,5,10021,1293 YORK AVENUE,R10,H8,8,X,CORNELL UNIVERSITY,CORNELL UNIVERSITY,16561,"89,250",,,,,,,,,1,10,0,1,164.92,100.42,100,141,2515500,8595000,1954,1988,0,,,5.39,10,0,10,1,1014640021,996601,218087,9a,22v2,40.7652662,-73.955413
MN,1464,28,108,5,10021,1301 YORK AVENUE,R8,I9,8,X,CORNELL UNIVERSITY,CORNELL UNIVERSITY,19984,"352,000",352000,0,352000,0,0,0,0,0,1,15,0,1,100.42,199,115,100,3742366,43274700,2004,0,0,,,17.61,6.02,0,6.5,1,1014640028,996638,218187,9a,22v2,40.7655406,-73.955279
MN,1464,30,108,5,10021,428 YORK AVENUE,R8,H8,8,X,CORNELL UNIVERSITY,CORNELL UNIVERSITY,30527,"250,171",,,,,,,,,1,15,0,3,304,100.42,376,96,5076000,21748950,1974,2004,0,,,8.2,6.02,0,6.5,1,1014640030,996413,218311,9a,22v2,40.7658813,-73.956091
MN,1464,7502,108,5,10021,413 EAST 69 STREET,R8,RB,5,X,UNAVAILABLE OWNER,CORNELL UNIVERSITY,26117,"243,321",243321,0,243321,0,0,0,0,0,1,18,0,3,260.08,100.42,260,100,2628450,65686050,2011,0,0,,,9.32,6.02,0,6.5,1,1014647502,996410,218192,9a,22v2,40.7655547,-73.956102
MN,1469,21,108,5,10021,1393 YORK AVENUE,R10,M1,8,X,CORNELL UNIVERSITY,CORNELL UNIVERSITY,12771,"21,000",21000,0,0,0,0,0,0,21000,1,2,0,1,102.17,125,102.17,100,2533500,5202450,1938,0,0,,,1.64,10,0,10,1,1014690021,997268,219268,9a,22v2,40.7685068,-73.953003
MN,1471,27,108,5,10075,444 EAST 77 STREET,R10,C5,2,X,CORNELL UNIVERSITY,CORNELL UNIVERSITY,2071,"8,405",0,8405,0,0,0,0,0,0,1,5,16,16,25,82.83,25,67,202950,1008000,1954,1987,0,,,4.06,10,0,10,1,1014710027,997602,219819,9a,22v2,40.7700186,-73.951796
MN,1471,28,108,5,10075,442 EAST 77 STREET,R10,C5,2,X,CORNELL UNIVERSITY,CORNELL UNIVERSITY,2071,"8,405",0,8405,0,0,0,0,0,0,1,5,16,16,25,82.83,25,67,202950,1008000,1954,1987,0,,,4.06,10,0,10,1,1014710028,997579,219832,9a,22v2,40.7700543,-73.951879
MN,1480,1,108,5,10065,1176 YORK AVENUE,R9,I9,8,X,SOCIETY OF THE NY HOSPITAL,CORNELL UNIVERSITY,275925,"2,230,742",2230742,0,0,0,0,0,0,2230742,8,27,0,1,491.67,583.08,461.67,583.08,52150050,252745650,1956,0,0,,,8.08,7.52,0,10,1,1014800001,996953,217791,9a,22v2,40.7644532,-73.954143
MN,1483,7502,108,5,10021,511 EAST 71 STREET,R9,RB,5,X,UNAVAILABLE OWNER,CORNELL UNIVERSITY,17880,"81,980",81980,0,81980,0,0,0,0,0,2,11,0,3,75,204.33,75,100,4554455,13576050,1958,0,0,,,4.59,7.52,0,10,1,1014837502,997250,218401,9a,22v2,40.7661271,-73.95307
MN,1373,160,108,5,10044,22 NORTH LOOP ROAD,C4-5,H2,5,C,CORNELL UNIVERSITY,CORNELL UNIVERSITY,18555,142554,,,,,,,,,1,19,0,197,159.47,166.7,113.5,127,2688750,13028400,2018,2018,0,,,7.68,3.44,3.4,6.5,1,1013730160,996560,214690,9b,22v2,40.7559424,-73.955567
MN,1373,35,108,5,10044,2 WEST LOOP ROAD,C4-5,W6,8,C,NYC ECONOMIC DEVELOPMENT CORPORATION,CORNELL UNIVERSITY,71699,136878,136878,0,0,0,0,0,0,136878,1,4,0,1,447.91,270.18,0,0,7866180,26442450,2015,2015,0,,,1.91,3.44,3.4,6.5,1,1013730035,996377,214524,9b,22v2,40.755487,-73.956228
MN,1373,7507,108,5,10044,11 EAST LOOP ROAD,C4-5,RC,5,,UNAVAILABLE OWNER,CORNELL UNIVERSITY,65112,165343,165343,0,158684,6659,0,0,0,0,1,6,0,4,392.1,294.8,0,0,6873658,26154449,2015,2015,0,,,2.54,3.44,3.4,6.5,1,1013737507,996536,214384,9b,22v2,40.7551025,-73.955655